{
"type": "FeatureCollection",
"name": "food_new",
"crs": { "type": "name", "properties": { "name": "urn:ogc:def:crs:OGC:1.3:CRS84" } },
"features": [
{ "type": "Feature", "properties": { "full_id": "n1952414606", "osm_id": "1952414606", "osm_type": "node", "amenity": "cafe", "cuisine": null, "contact:website": null, "contact:phone": null, "fast_food": null, "website": null, "level": null, "delivery": null, "phone": null, "opening_hours": null, "addr:street": null, "addr:postcode": null, "addr:housenumber": null, "name:en": null, "name": "Колос" }, "geometry": { "type": "Point", "coordinates": [ 42.1480391, 56.2483749 ] } },
{ "type": "Feature", "properties": { "full_id": "n1952422803", "osm_id": "1952422803", "osm_type": "node", "amenity": "restaurant", "cuisine": null, "contact:website": null, "contact:phone": null, "fast_food": null, "website": null, "level": null, "delivery": null, "phone": null, "opening_hours": null, "addr:street": null, "addr:postcode": null, "addr:housenumber": null, "name:en": null, "name": "\"На Соборной\"" }, "geometry": { "type": "Point", "coordinates": [ 42.1599562, 56.2466745 ] } },
{ "type": "Feature", "properties": { "full_id": "n4424594490", "osm_id": "4424594490", "osm_type": "node", "amenity": "cafe", "cuisine": null, "contact:website": null, "contact:phone": null, "fast_food": null, "website": null, "level": null, "delivery": null, "phone": "+74923321458", "opening_hours": "Mo-Fr 08:30-04:30", "addr:street": "улица Сенькова", "addr:postcode": "601443", "addr:housenumber": "9/8", "name:en": null, "name": "Столовая на Сенькова" }, "geometry": { "type": "Point", "coordinates": [ 42.1661151, 56.2445617 ] } },
{ "type": "Feature", "properties": { "full_id": "n10081557615", "osm_id": "10081557615", "osm_type": "node", "amenity": "fast_food", "cuisine": null, "contact:website": null, "contact:phone": null, "fast_food": "cafeteria", "website": null, "level": null, "delivery": null, "phone": null, "opening_hours": null, "addr:street": null, "addr:postcode": null, "addr:housenumber": null, "name:en": null, "name": null }, "geometry": { "type": "Point", "coordinates": [ 42.1184024, 56.2406526 ] } },
{ "type": "Feature", "properties": { "full_id": "w45349727", "osm_id": "45349727", "osm_type": "way", "amenity": "restaurant", "cuisine": null, "contact:website": null, "contact:phone": null, "fast_food": null, "website": null, "level": null, "delivery": null, "phone": null, "opening_hours": null, "addr:street": null, "addr:postcode": null, "addr:housenumber": null, "name:en": null, "name": "Вязники" }, "geometry": { "type": "Point", "coordinates": [ 42.133529580237742, 56.246802233145416 ] } },
{ "type": "Feature", "properties": { "full_id": null, "osm_id": null, "osm_type": null, "amenity": "cafe", "cuisine": null, "contact:website": null, "contact:phone": null, "fast_food": null, "website": null, "level": null, "delivery": null, "phone": null, "opening_hours": null, "addr:street": null, "addr:postcode": null, "addr:housenumber": null, "name:en": null, "name": null }, "geometry": { "type": "Point", "coordinates": [ 42.134204203804082, 56.246075205271595 ] } },
{ "type": "Feature", "properties": { "full_id": null, "osm_id": null, "osm_type": null, "amenity": "cafe", "cuisine": null, "contact:website": null, "contact:phone": null, "fast_food": null, "website": null, "level": null, "delivery": null, "phone": null, "opening_hours": null, "addr:street": null, "addr:postcode": null, "addr:housenumber": null, "name:en": null, "name": null }, "geometry": { "type": "Point", "coordinates": [ 42.140044096659025, 56.248865044728099 ] } },
{ "type": "Feature", "properties": { "full_id": null, "osm_id": null, "osm_type": null, "amenity": null, "cuisine": null, "contact:website": null, "contact:phone": null, "fast_food": "cafeteria", "website": null, "level": null, "delivery": null, "phone": null, "opening_hours": null, "addr:street": null, "addr:postcode": null, "addr:housenumber": null, "name:en": null, "name": null }, "geometry": { "type": "Point", "coordinates": [ 42.13121111987784, 56.241638924577494 ] } },
{ "type": "Feature", "properties": { "full_id": null, "osm_id": null, "osm_type": null, "amenity": null, "cuisine": null, "contact:website": null, "contact:phone": null, "fast_food": "cafeteria", "website": null, "level": null, "delivery": null, "phone": null, "opening_hours": null, "addr:street": null, "addr:postcode": null, "addr:housenumber": null, "name:en": null, "name": null }, "geometry": { "type": "Point", "coordinates": [ 42.127088102821098, 56.241288645348568 ] } },
{ "type": "Feature", "properties": { "full_id": null, "osm_id": null, "osm_type": null, "amenity": "cafe", "cuisine": null, "contact:website": null, "contact:phone": null, "fast_food": null, "website": null, "level": null, "delivery": null, "phone": null, "opening_hours": null, "addr:street": null, "addr:postcode": null, "addr:housenumber": null, "name:en": null, "name": null }, "geometry": { "type": "Point", "coordinates": [ 42.12646922912235, 56.243372345925579 ] } }
]
}
