{
"type": "FeatureCollection",
"name": "rel",
"crs": { "type": "name", "properties": { "name": "urn:ogc:def:crs:OGC:1.3:CRS84" } },
"features": [
{ "type": "Feature", "properties": { "full_id": "n4942431666", "osm_id": "4942431666", "osm_type": "node", "entrance": null, "motor_vehicle": "no", "barrier": "gate" }, "geometry": { "type": "Point", "coordinates": [ 36.5044207, 52.4056874 ] } },
{ "type": "Feature", "properties": { "full_id": "n4942431673", "osm_id": "4942431673", "osm_type": "node", "entrance": "yes", "motor_vehicle": null, "barrier": null }, "geometry": { "type": "Point", "coordinates": [ 36.5045332, 52.4059427 ] } },
{ "type": "Feature", "properties": { "full_id": "w504026965", "osm_id": "504026965", "osm_type": "way", "entrance": null, "motor_vehicle": null, "barrier": null }, "geometry": { "type": "Point", "coordinates": [ 36.504726997213496, 52.405928674264274 ] } },
{ "type": "Feature", "properties": { "full_id": "r17179531", "osm_id": "17179531", "osm_type": "relation", "entrance": null, "motor_vehicle": null, "barrier": null }, "geometry": { "type": "Point", "coordinates": [ 36.504689333512445, 52.405896379921124 ] } }
]
}
