{
"type": "FeatureCollection",
"name": "sp_small",
"crs": { "type": "name", "properties": { "name": "urn:ogc:def:crs:EPSG::32637" } },
"features": [
{ "type": "Feature", "properties": { }, "geometry": { "type": "Point", "coordinates": [ 330420.531875585264061, 5808522.05257411673665 ] } },
{ "type": "Feature", "properties": { }, "geometry": { "type": "Point", "coordinates": [ 329952.810462963068858, 5809020.869514997117221 ] } },
{ "type": "Feature", "properties": { }, "geometry": { "type": "Point", "coordinates": [ 329948.17190349905286, 5808998.020314673893154 ] } }
]
}
