{
"type": "FeatureCollection",
"name": "rel",
"crs": { "type": "name", "properties": { "name": "urn:ogc:def:crs:OGC:1.3:CRS84" } },
"features": [
{ "type": "Feature", "properties": { "full_id": "n1064595919", "osm_id": "1064595919", "osm_type": "node", "religion": "christian", "amenity": "place_of_worship", "phone": null, "opening_hours": null, "name:en": null, "addr:street": null, "addr:housenumber": null, "name": "Храм Преображения Господня", "denomination": "orthodox", "barrier": null }, "geometry": { "type": "Point", "coordinates": [ 38.5023794, 52.6230541 ] } },
{ "type": "Feature", "properties": { "full_id": "n2755850474", "osm_id": "2755850474", "osm_type": "node", "religion": null, "amenity": null, "phone": null, "opening_hours": null, "name:en": null, "addr:street": null, "addr:housenumber": null, "name": null, "denomination": null, "barrier": "gate" }, "geometry": { "type": "Point", "coordinates": [ 38.4988984, 52.6369883 ] } },
{ "type": "Feature", "properties": { "full_id": "n2755860698", "osm_id": "2755860698", "osm_type": "node", "religion": null, "amenity": null, "phone": null, "opening_hours": null, "name:en": null, "addr:street": null, "addr:housenumber": null, "name": null, "denomination": null, "barrier": "gate" }, "geometry": { "type": "Point", "coordinates": [ 38.4978105, 52.6378895 ] } },
{ "type": "Feature", "properties": { "full_id": "n6200034085", "osm_id": "6200034085", "osm_type": "node", "religion": null, "amenity": "place_of_worship", "phone": "+79202740387", "opening_hours": "Sa 09:00-15:00; Tu 13:00-15:00", "name:en": "Seventh-day Adventist Church", "addr:street": "Комсомольская улица", "addr:housenumber": "22", "name": "Церковь Христиан Адвентистов Седьмого Дня г.Елец", "denomination": null, "barrier": null }, "geometry": { "type": "Point", "coordinates": [ 38.4912643, 52.6191864 ] } },
{ "type": "Feature", "properties": { "full_id": "w291865776", "osm_id": "291865776", "osm_type": "way", "religion": "christian", "amenity": "place_of_worship", "phone": null, "opening_hours": null, "name:en": null, "addr:street": null, "addr:housenumber": null, "name": "Троицкий монастырь", "denomination": "russian_orthodox", "barrier": null }, "geometry": { "type": "Point", "coordinates": [ 38.480805044176805, 52.625906100295104 ] } },
{ "type": "Feature", "properties": { "full_id": "w271117761", "osm_id": "271117761", "osm_type": "way", "religion": "christian", "amenity": "place_of_worship", "phone": null, "opening_hours": null, "name:en": null, "addr:street": null, "addr:housenumber": null, "name": "Церковь Иоанна Златоуста", "denomination": "russian_orthodox", "barrier": null }, "geometry": { "type": "Point", "coordinates": [ 38.482769547253568, 52.624580154312511 ] } },
{ "type": "Feature", "properties": { "full_id": "w270795152", "osm_id": "270795152", "osm_type": "way", "religion": "christian", "amenity": "place_of_worship", "phone": null, "opening_hours": null, "name:en": null, "addr:street": "Аргамаченская улица", "addr:housenumber": "22А", "name": null, "denomination": null, "barrier": null }, "geometry": { "type": "Point", "coordinates": [ 38.515047476697333, 52.627675917875365 ] } },
{ "type": "Feature", "properties": { "full_id": "w270586242", "osm_id": "270586242", "osm_type": "way", "religion": "christian", "amenity": "place_of_worship", "phone": null, "opening_hours": null, "name:en": null, "addr:street": null, "addr:housenumber": null, "name": "Церковь Владимирской иконы Божией Матери", "denomination": "orthodox", "barrier": null }, "geometry": { "type": "Point", "coordinates": [ 38.505328989933929, 52.633244409008988 ] } },
{ "type": "Feature", "properties": { "full_id": "w377086687", "osm_id": "377086687", "osm_type": "way", "religion": "christian", "amenity": "place_of_worship", "phone": null, "opening_hours": null, "name:en": null, "addr:street": "Советская улица", "addr:housenumber": "65А", "name": "Церковь Успения Пресвятой Богородицы", "denomination": "russian_orthodox", "barrier": null }, "geometry": { "type": "Point", "coordinates": [ 38.498116114697474, 52.619939032051249 ] } },
{ "type": "Feature", "properties": { "full_id": "w373429084", "osm_id": "373429084", "osm_type": "way", "religion": "christian", "amenity": "place_of_worship", "phone": null, "opening_hours": null, "name:en": null, "addr:street": "Октябрьская улица", "addr:housenumber": "26", "name": "Церковь Елецкой иконы Пресвятой Богородицы", "denomination": "orthodox", "barrier": null }, "geometry": { "type": "Point", "coordinates": [ 38.49996851425518, 52.609349865125282 ] } },
{ "type": "Feature", "properties": { "full_id": "w372966965", "osm_id": "372966965", "osm_type": "way", "religion": "christian", "amenity": "place_of_worship", "phone": null, "opening_hours": null, "name:en": null, "addr:street": "Красная площадь", "addr:housenumber": "1", "name": "Вознесенский собор", "denomination": "orthodox", "barrier": null }, "geometry": { "type": "Point", "coordinates": [ 38.505403387985872, 52.624523424678721 ] } },
{ "type": "Feature", "properties": { "full_id": "w91630597", "osm_id": "91630597", "osm_type": "way", "religion": "christian", "amenity": "place_of_worship", "phone": null, "opening_hours": null, "name:en": null, "addr:street": null, "addr:housenumber": null, "name": "церковь Во имя святого архистратига Михаила", "denomination": "russian_orthodox", "barrier": null }, "geometry": { "type": "Point", "coordinates": [ 38.501789175393448, 52.62129952966103 ] } },
{ "type": "Feature", "properties": { "full_id": "w91630582", "osm_id": "91630582", "osm_type": "way", "religion": "christian", "amenity": "place_of_worship", "phone": null, "opening_hours": null, "name:en": null, "addr:street": null, "addr:housenumber": null, "name": "Церковь Введения во храм Богородицы", "denomination": "orthodox", "barrier": null }, "geometry": { "type": "Point", "coordinates": [ 38.508374217588816, 52.625468008049381 ] } },
{ "type": "Feature", "properties": { "full_id": "w91630674", "osm_id": "91630674", "osm_type": "way", "religion": "christian", "amenity": "place_of_worship", "phone": null, "opening_hours": null, "name:en": null, "addr:street": null, "addr:housenumber": null, "name": "Великокняжеская церковь", "denomination": "orthodox", "barrier": null }, "geometry": { "type": "Point", "coordinates": [ 38.5002014, 52.62421065 ] } },
{ "type": "Feature", "properties": { "full_id": "w91630611", "osm_id": "91630611", "osm_type": "way", "religion": "christian", "amenity": "place_of_worship", "phone": null, "opening_hours": null, "name:en": null, "addr:street": null, "addr:housenumber": null, "name": "Церковь Рождества Христова", "denomination": "orthodox", "barrier": null }, "geometry": { "type": "Point", "coordinates": [ 38.496734381269711, 52.632141116850285 ] } }
]
}
