{
"type": "FeatureCollection",
"name": "sp_big",
"crs": { "type": "name", "properties": { "name": "urn:ogc:def:crs:OGC:1.3:CRS84" } },
"features": [
{ "type": "Feature", "properties": { "full_id": "n10680544905", "osm_id": "10680544905", "osm_type": "node", "leisure": "fitness_centre", "website": "https://www.xfit.ru/club/zvenigorod/", "phone": "+74993223344", "opening_hours": "Mo-Su 08:00-22:00", "name:en": "X-Fit Studio", "name": "X-Fit", "internet_access": "wlan", "email": "xfitzvenigorod@mail.ru", "addr:postcode": "143180", "foot": null, "bicycle": null, "barrier": null, "access": null }, "geometry": { "type": "Point", "coordinates": [ 36.8507269, 55.7336349 ] } },
{ "type": "Feature", "properties": { "full_id": "r12571886", "osm_id": "12571886", "osm_type": "relation", "leisure": "sports_centre", "website": null, "phone": null, "opening_hours": null, "name:en": null, "name": "Ипподром", "internet_access": null, "email": null, "addr:postcode": null, "foot": null, "bicycle": null, "barrier": null, "access": null }, "geometry": { "type": "Point", "coordinates": [ 36.858080012272438, 55.722166396291655 ] } },
{ "type": "Feature", "properties": { "full_id": "r19273733", "osm_id": "19273733", "osm_type": "relation", "leisure": "stadium", "website": null, "phone": null, "opening_hours": null, "name:en": null, "name": "Спартак", "internet_access": null, "email": null, "addr:postcode": null, "foot": null, "bicycle": null, "barrier": null, "access": null }, "geometry": { "type": "Point", "coordinates": [ 36.854430126085205, 55.725686235382874 ] } },
{ "type": "Feature", "properties": { "full_id": "w1152906984", "osm_id": "1152906984", "osm_type": "way", "leisure": "ice_rink", "website": null, "phone": null, "opening_hours": null, "name:en": null, "name": null, "internet_access": null, "email": null, "addr:postcode": null, "foot": null, "bicycle": null, "barrier": null, "access": null }, "geometry": { "type": "Point", "coordinates": [ 36.853581538390408, 55.726529140890371 ] } },
{ "type": "Feature", "properties": { "full_id": "w175852856", "osm_id": "175852856", "osm_type": "way", "leisure": "sports_centre", "website": null, "phone": null, "opening_hours": null, "name:en": null, "name": "Академия Дзюдо", "internet_access": null, "email": null, "addr:postcode": null, "foot": null, "bicycle": null, "barrier": null, "access": null }, "geometry": { "type": "Point", "coordinates": [ 36.869466070363323, 55.727379534097537 ] } },
{ "type": "Feature", "properties": { "full_id": "w175852949", "osm_id": "175852949", "osm_type": "way", "leisure": "pitch", "website": null, "phone": null, "opening_hours": null, "name:en": null, "name": null, "internet_access": null, "email": null, "addr:postcode": null, "foot": null, "bicycle": null, "barrier": null, "access": null }, "geometry": { "type": "Point", "coordinates": [ 36.864264243095882, 55.735088879504673 ] } }
]
}
