{
"type": "FeatureCollection",
"name": "game",
"crs": { "type": "name", "properties": { "name": "urn:ogc:def:crs:OGC:1.3:CRS84" } },
"features": [
{ "type": "Feature", "properties": { "full_id": "n1246027720", "osm_id": "1246027720", "osm_type": "node", "amenity": null, "leisure": null, "entrance": null, "opening_hours": null, "internet_access": null, "barrier": "gate", "access": "private" }, "geometry": { "type": "Point", "coordinates": [ 38.435889, 55.8613005 ] } },
{ "type": "Feature", "properties": { "full_id": "n2688808807", "osm_id": "2688808807", "osm_type": "node", "amenity": "kindergarten", "leisure": null, "entrance": null, "opening_hours": null, "internet_access": null, "barrier": null, "access": null }, "geometry": { "type": "Point", "coordinates": [ 38.4430965, 55.8639814 ] } },
{ "type": "Feature", "properties": { "full_id": "n4121792089", "osm_id": "4121792089", "osm_type": "node", "amenity": null, "leisure": "playground", "entrance": null, "opening_hours": null, "internet_access": "wlan", "barrier": null, "access": null }, "geometry": { "type": "Point", "coordinates": [ 38.4486599, 55.8672164 ] } },
{ "type": "Feature", "properties": { "full_id": "n4123554090", "osm_id": "4123554090", "osm_type": "node", "amenity": null, "leisure": "playground", "entrance": null, "opening_hours": null, "internet_access": null, "barrier": null, "access": null }, "geometry": { "type": "Point", "coordinates": [ 38.4466626, 55.8667157 ] } },
{ "type": "Feature", "properties": { "full_id": "n4123554289", "osm_id": "4123554289", "osm_type": "node", "amenity": null, "leisure": "playground", "entrance": null, "opening_hours": null, "internet_access": null, "barrier": null, "access": null }, "geometry": { "type": "Point", "coordinates": [ 38.447407, 55.8645946 ] } },
{ "type": "Feature", "properties": { "full_id": "n4216868094", "osm_id": "4216868094", "osm_type": "node", "amenity": null, "leisure": "playground", "entrance": null, "opening_hours": null, "internet_access": null, "barrier": null, "access": null }, "geometry": { "type": "Point", "coordinates": [ 38.4473744, 55.8648541 ] } },
{ "type": "Feature", "properties": { "full_id": "n4216936391", "osm_id": "4216936391", "osm_type": "node", "amenity": null, "leisure": "playground", "entrance": null, "opening_hours": null, "internet_access": null, "barrier": null, "access": null }, "geometry": { "type": "Point", "coordinates": [ 38.439031, 55.8645379 ] } },
{ "type": "Feature", "properties": { "full_id": "n4216948395", "osm_id": "4216948395", "osm_type": "node", "amenity": null, "leisure": "playground", "entrance": null, "opening_hours": null, "internet_access": null, "barrier": null, "access": null }, "geometry": { "type": "Point", "coordinates": [ 38.4430897, 55.8651446 ] } },
{ "type": "Feature", "properties": { "full_id": "n4766606489", "osm_id": "4766606489", "osm_type": "node", "amenity": null, "leisure": "playground", "entrance": null, "opening_hours": null, "internet_access": null, "barrier": null, "access": null }, "geometry": { "type": "Point", "coordinates": [ 38.4380275, 55.8615603 ] } },
{ "type": "Feature", "properties": { "full_id": "n4766616940", "osm_id": "4766616940", "osm_type": "node", "amenity": null, "leisure": "playground", "entrance": null, "opening_hours": null, "internet_access": null, "barrier": null, "access": null }, "geometry": { "type": "Point", "coordinates": [ 38.4365308, 55.8618734 ] } },
{ "type": "Feature", "properties": { "full_id": "n4941721223", "osm_id": "4941721223", "osm_type": "node", "amenity": null, "leisure": "playground", "entrance": null, "opening_hours": null, "internet_access": null, "barrier": null, "access": null }, "geometry": { "type": "Point", "coordinates": [ 38.4448922, 55.8627328 ] } },
{ "type": "Feature", "properties": { "full_id": "n5869399385", "osm_id": "5869399385", "osm_type": "node", "amenity": null, "leisure": "playground", "entrance": null, "opening_hours": "24/7", "internet_access": null, "barrier": null, "access": null }, "geometry": { "type": "Point", "coordinates": [ 38.4382273, 55.8623693 ] } },
{ "type": "Feature", "properties": { "full_id": "n5869643085", "osm_id": "5869643085", "osm_type": "node", "amenity": null, "leisure": "playground", "entrance": null, "opening_hours": "24/7", "internet_access": null, "barrier": null, "access": null }, "geometry": { "type": "Point", "coordinates": [ 38.4419137, 55.8616078 ] } },
{ "type": "Feature", "properties": { "full_id": "n5869717185", "osm_id": "5869717185", "osm_type": "node", "amenity": null, "leisure": "playground", "entrance": null, "opening_hours": "24/7", "internet_access": null, "barrier": null, "access": null }, "geometry": { "type": "Point", "coordinates": [ 38.4275999, 55.861796 ] } },
{ "type": "Feature", "properties": { "full_id": "n5869717186", "osm_id": "5869717186", "osm_type": "node", "amenity": null, "leisure": "playground", "entrance": null, "opening_hours": "24/7", "internet_access": null, "barrier": null, "access": null }, "geometry": { "type": "Point", "coordinates": [ 38.4245464, 55.859989 ] } },
{ "type": "Feature", "properties": { "full_id": "n6329606766", "osm_id": "6329606766", "osm_type": "node", "amenity": null, "leisure": "playground", "entrance": null, "opening_hours": null, "internet_access": null, "barrier": null, "access": null }, "geometry": { "type": "Point", "coordinates": [ 38.4590537, 55.8584146 ] } },
{ "type": "Feature", "properties": { "full_id": "n6365383108", "osm_id": "6365383108", "osm_type": "node", "amenity": null, "leisure": null, "entrance": null, "opening_hours": null, "internet_access": null, "barrier": "gate", "access": "private" }, "geometry": { "type": "Point", "coordinates": [ 38.4354445, 55.861835 ] } },
{ "type": "Feature", "properties": { "full_id": "n9780832210", "osm_id": "9780832210", "osm_type": "node", "amenity": null, "leisure": null, "entrance": null, "opening_hours": null, "internet_access": null, "barrier": "gate", "access": null }, "geometry": { "type": "Point", "coordinates": [ 38.4336961, 55.8501107 ] } },
{ "type": "Feature", "properties": { "full_id": "n11217579089", "osm_id": "11217579089", "osm_type": "node", "amenity": null, "leisure": "playground", "entrance": null, "opening_hours": null, "internet_access": null, "barrier": null, "access": null }, "geometry": { "type": "Point", "coordinates": [ 38.4289355, 55.8543928 ] } },
{ "type": "Feature", "properties": { "full_id": "w935727596", "osm_id": "935727596", "osm_type": "way", "amenity": null, "leisure": "playground", "entrance": null, "opening_hours": null, "internet_access": null, "barrier": null, "access": null }, "geometry": { "type": "Point", "coordinates": [ 38.43599436216207, 55.85019531663805 ] } },
{ "type": "Feature", "properties": { "full_id": "w688750345", "osm_id": "688750345", "osm_type": "way", "amenity": null, "leisure": "playground", "entrance": null, "opening_hours": null, "internet_access": null, "barrier": null, "access": null }, "geometry": { "type": "Point", "coordinates": [ 38.4483319, 55.8543333 ] } },
{ "type": "Feature", "properties": { "full_id": "w445879924", "osm_id": "445879924", "osm_type": "way", "amenity": "kindergarten", "leisure": null, "entrance": null, "opening_hours": null, "internet_access": null, "barrier": "fence", "access": null }, "geometry": { "type": "Point", "coordinates": [ 38.45207035, 55.86227865 ] } },
{ "type": "Feature", "properties": { "full_id": "w483033682", "osm_id": "483033682", "osm_type": "way", "amenity": "kindergarten", "leisure": null, "entrance": null, "opening_hours": null, "internet_access": null, "barrier": "fence", "access": null }, "geometry": { "type": "Point", "coordinates": [ 38.434500347220371, 55.861388224340011 ] } },
{ "type": "Feature", "properties": { "full_id": "w421988671", "osm_id": "421988671", "osm_type": "way", "amenity": "kindergarten", "leisure": null, "entrance": null, "opening_hours": null, "internet_access": null, "barrier": "fence", "access": null }, "geometry": { "type": "Point", "coordinates": [ 38.44318805799044, 55.863079596078279 ] } },
{ "type": "Feature", "properties": { "full_id": "w425948945", "osm_id": "425948945", "osm_type": "way", "amenity": "kindergarten", "leisure": null, "entrance": null, "opening_hours": null, "internet_access": null, "barrier": "fence", "access": null }, "geometry": { "type": "Point", "coordinates": [ 38.443213014540262, 55.863967896403572 ] } },
{ "type": "Feature", "properties": { "full_id": "w371611430", "osm_id": "371611430", "osm_type": "way", "amenity": null, "leisure": "playground", "entrance": null, "opening_hours": null, "internet_access": null, "barrier": null, "access": null }, "geometry": { "type": "Point", "coordinates": [ 38.439695798858757, 55.851721494316536 ] } },
{ "type": "Feature", "properties": { "full_id": "w421985006", "osm_id": "421985006", "osm_type": "way", "amenity": "kindergarten", "leisure": null, "entrance": null, "opening_hours": null, "internet_access": null, "barrier": "fence", "access": null }, "geometry": { "type": "Point", "coordinates": [ 38.445086351316661, 55.86576016836166 ] } },
{ "type": "Feature", "properties": { "full_id": "r6695477", "osm_id": "6695477", "osm_type": "relation", "amenity": "kindergarten", "leisure": null, "entrance": null, "opening_hours": null, "internet_access": null, "barrier": null, "access": null }, "geometry": { "type": "Point", "coordinates": [ 38.442619891618946, 55.847816875237939 ] } },
{ "type": "Feature", "properties": { "full_id": "w168350225", "osm_id": "168350225", "osm_type": "way", "amenity": "kindergarten", "leisure": null, "entrance": null, "opening_hours": null, "internet_access": null, "barrier": null, "access": null }, "geometry": { "type": "Point", "coordinates": [ 38.445328931470542, 55.854393496133319 ] } },
{ "type": "Feature", "properties": { "full_id": "r2783610", "osm_id": "2783610", "osm_type": "relation", "amenity": "kindergarten", "leisure": null, "entrance": null, "opening_hours": null, "internet_access": null, "barrier": null, "access": null }, "geometry": { "type": "Point", "coordinates": [ 38.45608678455033, 55.877831998356456 ] } },
{ "type": "Feature", "properties": { "full_id": "w1121001963", "osm_id": "1121001963", "osm_type": "way", "amenity": "kindergarten", "leisure": null, "entrance": null, "opening_hours": null, "internet_access": null, "barrier": "wall", "access": null }, "geometry": { "type": "Point", "coordinates": [ 38.44672457957563, 55.854033783969243 ] } },
{ "type": "Feature", "properties": { "full_id": "w1181509457", "osm_id": "1181509457", "osm_type": "way", "amenity": "kindergarten", "leisure": null, "entrance": null, "opening_hours": null, "internet_access": null, "barrier": null, "access": null }, "geometry": { "type": "Point", "coordinates": [ 38.460282886453079, 55.866627785440961 ] } },
{ "type": "Feature", "properties": { "full_id": "w1084506051", "osm_id": "1084506051", "osm_type": "way", "amenity": null, "leisure": "playground", "entrance": null, "opening_hours": null, "internet_access": null, "barrier": "fence", "access": null }, "geometry": { "type": "Point", "coordinates": [ 38.437097405015422, 55.850433133538317 ] } },
{ "type": "Feature", "properties": { "full_id": "w1084506052", "osm_id": "1084506052", "osm_type": "way", "amenity": null, "leisure": "playground", "entrance": null, "opening_hours": null, "internet_access": null, "barrier": null, "access": null }, "geometry": { "type": "Point", "coordinates": [ 38.438238463264746, 55.850765198016987 ] } },
{ "type": "Feature", "properties": { "full_id": "w1026641294", "osm_id": "1026641294", "osm_type": "way", "amenity": null, "leisure": "playground", "entrance": null, "opening_hours": null, "internet_access": null, "barrier": null, "access": null }, "geometry": { "type": "Point", "coordinates": [ 38.432349103513374, 55.85388191839116 ] } },
{ "type": "Feature", "properties": { "full_id": "w1065034878", "osm_id": "1065034878", "osm_type": "way", "amenity": "kindergarten", "leisure": null, "entrance": null, "opening_hours": null, "internet_access": null, "barrier": "fence", "access": null }, "geometry": { "type": "Point", "coordinates": [ 38.434022138130189, 55.849910581941586 ] } },
{ "type": "Feature", "properties": { "full_id": "w935727597", "osm_id": "935727597", "osm_type": "way", "amenity": null, "leisure": "playground", "entrance": null, "opening_hours": null, "internet_access": null, "barrier": null, "access": null }, "geometry": { "type": "Point", "coordinates": [ 38.43605535, 55.85169545 ] } },
{ "type": "Feature", "properties": { "full_id": "w1026641293", "osm_id": "1026641293", "osm_type": "way", "amenity": null, "leisure": "playground", "entrance": null, "opening_hours": null, "internet_access": null, "barrier": null, "access": null }, "geometry": { "type": "Point", "coordinates": [ 38.4318855, 55.8534502 ] } }
]
}
