{
"type": "FeatureCollection",
"name": "tourism",
"crs": { "type": "name", "properties": { "name": "urn:ogc:def:crs:OGC:1.3:CRS84" } },
"features": [
{ "type": "Feature", "properties": { "full_id": "n1209161475", "osm_id": "1209161475", "osm_type": "node", "historic": "memorial", "tourism": null, "memorial": "column", "name:ru": null, "material": null, "war_memorial": null, "description": null, "artwork_type": null, "old_name": null, "official_name": null, "start_date": null, "memorial:conflict": null, "inscription": null, "subject:wikipedia": null, "subject:wikidata": null, "opening_hours": null, "wikidata": null, "name": "Императрице Екатерине II", "memorial:subject": "Екатерина II" }, "geometry": { "type": "Point", "coordinates": [ 38.4370545, 55.8556884 ] } },
{ "type": "Feature", "properties": { "full_id": "n1209161477", "osm_id": "1209161477", "osm_type": "node", "historic": null, "tourism": "museum", "memorial": null, "name:ru": null, "material": null, "war_memorial": null, "description": null, "artwork_type": null, "old_name": null, "official_name": null, "start_date": null, "memorial:conflict": null, "inscription": null, "subject:wikipedia": null, "subject:wikidata": null, "opening_hours": "Tu-Su 11:00-17:00", "wikidata": null, "name": "Ногинский музейно-выставочный центр", "memorial:subject": null }, "geometry": { "type": "Point", "coordinates": [ 38.4374016, 55.8559946 ] } },
{ "type": "Feature", "properties": { "full_id": "n1221624555", "osm_id": "1221624555", "osm_type": "node", "historic": "memorial", "tourism": null, "memorial": "bust", "name:ru": null, "material": null, "war_memorial": null, "description": null, "artwork_type": null, "old_name": null, "official_name": null, "start_date": null, "memorial:conflict": null, "inscription": null, "subject:wikipedia": null, "subject:wikidata": null, "opening_hours": null, "wikidata": "Q123189066", "name": "В.П. Ногину", "memorial:subject": "Виктор Павлович Ногин" }, "geometry": { "type": "Point", "coordinates": [ 38.4425423, 55.8516627 ] } },
{ "type": "Feature", "properties": { "full_id": "n1270296357", "osm_id": "1270296357", "osm_type": "node", "historic": "memorial", "tourism": null, "memorial": "war_memorial", "name:ru": null, "material": null, "war_memorial": null, "description": null, "artwork_type": null, "old_name": null, "official_name": null, "start_date": null, "memorial:conflict": null, "inscription": null, "subject:wikipedia": null, "subject:wikidata": null, "opening_hours": null, "wikidata": null, "name": "Вечный огонь", "memorial:subject": null }, "geometry": { "type": "Point", "coordinates": [ 38.4422685, 55.8540824 ] } },
{ "type": "Feature", "properties": { "full_id": "n1738602283", "osm_id": "1738602283", "osm_type": "node", "historic": "memorial", "tourism": null, "memorial": null, "name:ru": null, "material": null, "war_memorial": null, "description": null, "artwork_type": null, "old_name": null, "official_name": null, "start_date": null, "memorial:conflict": null, "inscription": null, "subject:wikipedia": null, "subject:wikidata": null, "opening_hours": null, "wikidata": null, "name": null, "memorial:subject": null }, "geometry": { "type": "Point", "coordinates": [ 38.4957306, 55.8580539 ] } },
{ "type": "Feature", "properties": { "full_id": "n1796257066", "osm_id": "1796257066", "osm_type": "node", "historic": "memorial", "tourism": null, "memorial": null, "name:ru": null, "material": null, "war_memorial": null, "description": null, "artwork_type": null, "old_name": null, "official_name": null, "start_date": null, "memorial:conflict": null, "inscription": null, "subject:wikipedia": null, "subject:wikidata": null, "opening_hours": null, "wikidata": null, "name": "Пимен", "memorial:subject": null }, "geometry": { "type": "Point", "coordinates": [ 38.4409127, 55.8579266 ] } },
{ "type": "Feature", "properties": { "full_id": "n2288454124", "osm_id": "2288454124", "osm_type": "node", "historic": "memorial", "tourism": null, "memorial": "obelisk", "name:ru": null, "material": null, "war_memorial": null, "description": null, "artwork_type": null, "old_name": null, "official_name": null, "start_date": "1957", "memorial:conflict": "Russian_Civil_War", "inscription": "В память славных красногвардейцев Назарычева И. И., Ершова Н. В., Царёва С. Е., погибших в борьбе за становление Советской власти в Богородском уезде в 1918 г.", "subject:wikipedia": null, "subject:wikidata": null, "opening_hours": null, "wikidata": "Q123189068", "name": "В память красногвардейцев", "memorial:subject": null }, "geometry": { "type": "Point", "coordinates": [ 38.442714, 55.8535137 ] } },
{ "type": "Feature", "properties": { "full_id": "n3165169799", "osm_id": "3165169799", "osm_type": "node", "historic": null, "tourism": "museum", "memorial": null, "name:ru": null, "material": null, "war_memorial": null, "description": null, "artwork_type": null, "old_name": "Почтовая станция \"Богородск\"", "official_name": "филиал Муниципального учреждения культуры \"Ногинский музейно-выставочный центр\"", "start_date": null, "memorial:conflict": null, "inscription": null, "subject:wikipedia": null, "subject:wikidata": null, "opening_hours": null, "wikidata": null, "name": "Ногинский музейно-выставочный центр", "memorial:subject": null }, "geometry": { "type": "Point", "coordinates": [ 38.4388473, 55.8563485 ] } },
{ "type": "Feature", "properties": { "full_id": "n4215969249", "osm_id": "4215969249", "osm_type": "node", "historic": "memorial", "tourism": null, "memorial": "war_memorial", "name:ru": null, "material": null, "war_memorial": null, "description": null, "artwork_type": null, "old_name": null, "official_name": null, "start_date": null, "memorial:conflict": null, "inscription": null, "subject:wikipedia": null, "subject:wikidata": null, "opening_hours": null, "wikidata": null, "name": "Мемориал на месте военкомата времён ВОВ", "memorial:subject": null }, "geometry": { "type": "Point", "coordinates": [ 38.4399048, 55.8532214 ] } },
{ "type": "Feature", "properties": { "full_id": "n4261492048", "osm_id": "4261492048", "osm_type": "node", "historic": "memorial", "tourism": null, "memorial": "plaque", "name:ru": null, "material": null, "war_memorial": null, "description": null, "artwork_type": null, "old_name": null, "official_name": null, "start_date": null, "memorial:conflict": null, "inscription": "Леснов С. Н.", "subject:wikipedia": null, "subject:wikidata": null, "opening_hours": null, "wikidata": null, "name": null, "memorial:subject": null }, "geometry": { "type": "Point", "coordinates": [ 38.4402879, 55.8573733 ] } },
{ "type": "Feature", "properties": { "full_id": "n4261571879", "osm_id": "4261571879", "osm_type": "node", "historic": "memorial", "tourism": null, "memorial": "plaque", "name:ru": null, "material": null, "war_memorial": null, "description": null, "artwork_type": null, "old_name": null, "official_name": null, "start_date": null, "memorial:conflict": null, "inscription": "Махоньков М. В.", "subject:wikipedia": null, "subject:wikidata": null, "opening_hours": null, "wikidata": null, "name": "М. В. Махонькову", "memorial:subject": "Михаил Васильевич Махоньков" }, "geometry": { "type": "Point", "coordinates": [ 38.4246076, 55.8524677 ] } },
{ "type": "Feature", "properties": { "full_id": "n4263056849", "osm_id": "4263056849", "osm_type": "node", "historic": "memorial", "tourism": null, "memorial": "plaque", "name:ru": null, "material": null, "war_memorial": null, "description": null, "artwork_type": null, "old_name": null, "official_name": null, "start_date": null, "memorial:conflict": null, "inscription": "Пильняк Б. А.", "subject:wikipedia": "ru:Пильняк, Борис Андреевич", "subject:wikidata": "Q536372", "opening_hours": null, "wikidata": null, "name": "Б. А. Пильняку", "memorial:subject": "Борис Пильняк" }, "geometry": { "type": "Point", "coordinates": [ 38.433774, 55.8548112 ] } },
{ "type": "Feature", "properties": { "full_id": "n4264171355", "osm_id": "4264171355", "osm_type": "node", "historic": "memorial", "tourism": null, "memorial": "plaque", "name:ru": null, "material": null, "war_memorial": null, "description": null, "artwork_type": null, "old_name": null, "official_name": null, "start_date": null, "memorial:conflict": null, "inscription": "Сущенко А. Д.", "subject:wikipedia": null, "subject:wikidata": null, "opening_hours": null, "wikidata": null, "name": "Мемориальная доска Сущенко А.Д.", "memorial:subject": null }, "geometry": { "type": "Point", "coordinates": [ 38.4551648, 55.8584255 ] } },
{ "type": "Feature", "properties": { "full_id": "n4264190700", "osm_id": "4264190700", "osm_type": "node", "historic": "memorial", "tourism": null, "memorial": null, "name:ru": null, "material": null, "war_memorial": null, "description": null, "artwork_type": null, "old_name": null, "official_name": null, "start_date": null, "memorial:conflict": null, "inscription": null, "subject:wikipedia": null, "subject:wikidata": null, "opening_hours": null, "wikidata": null, "name": "209-му Богородскому пехотному полку", "memorial:subject": null }, "geometry": { "type": "Point", "coordinates": [ 38.4459342, 55.8570107 ] } },
{ "type": "Feature", "properties": { "full_id": "n4264218407", "osm_id": "4264218407", "osm_type": "node", "historic": null, "tourism": "artwork", "memorial": null, "name:ru": null, "material": null, "war_memorial": null, "description": null, "artwork_type": "sgraffito", "old_name": null, "official_name": null, "start_date": null, "memorial:conflict": null, "inscription": null, "subject:wikipedia": null, "subject:wikidata": null, "opening_hours": null, "wikidata": "Q123189062", "name": "Мемориальная стена революционеров", "memorial:subject": null }, "geometry": { "type": "Point", "coordinates": [ 38.4376166, 55.8548586 ] } },
{ "type": "Feature", "properties": { "full_id": "n4264229851", "osm_id": "4264229851", "osm_type": "node", "historic": "memorial", "tourism": null, "memorial": "plaque", "name:ru": null, "material": null, "war_memorial": null, "description": null, "artwork_type": null, "old_name": null, "official_name": null, "start_date": null, "memorial:conflict": null, "inscription": "Лондон Т. И.", "subject:wikipedia": null, "subject:wikidata": null, "opening_hours": null, "wikidata": null, "name": "Мемориальная доска Теодор Лондон", "memorial:subject": null }, "geometry": { "type": "Point", "coordinates": [ 38.4329261, 55.8530207 ] } },
{ "type": "Feature", "properties": { "full_id": "n4264486995", "osm_id": "4264486995", "osm_type": "node", "historic": "memorial", "tourism": null, "memorial": "plaque", "name:ru": null, "material": null, "war_memorial": null, "description": null, "artwork_type": null, "old_name": null, "official_name": null, "start_date": null, "memorial:conflict": null, "inscription": "Мемориальная доска Плешакову А.С.", "subject:wikipedia": null, "subject:wikidata": null, "opening_hours": null, "wikidata": null, "name": "Плешакову А. С.", "memorial:subject": null }, "geometry": { "type": "Point", "coordinates": [ 38.4466629, 55.8555661 ] } },
{ "type": "Feature", "properties": { "full_id": "n4264502450", "osm_id": "4264502450", "osm_type": "node", "historic": null, "tourism": "artwork", "memorial": null, "name:ru": null, "material": null, "war_memorial": null, "description": null, "artwork_type": "sculpture", "old_name": null, "official_name": null, "start_date": null, "memorial:conflict": null, "inscription": null, "subject:wikipedia": null, "subject:wikidata": null, "opening_hours": null, "wikidata": null, "name": "Белка из \"Сказки о царе Салтане\"", "memorial:subject": null }, "geometry": { "type": "Point", "coordinates": [ 38.4426087, 55.854678 ] } },
{ "type": "Feature", "properties": { "full_id": "n4264507251", "osm_id": "4264507251", "osm_type": "node", "historic": "memorial", "tourism": null, "memorial": "plaque", "name:ru": null, "material": null, "war_memorial": null, "description": null, "artwork_type": null, "old_name": null, "official_name": null, "start_date": null, "memorial:conflict": null, "inscription": "Пудовкин Денис", "subject:wikipedia": null, "subject:wikidata": null, "opening_hours": null, "wikidata": null, "name": null, "memorial:subject": null }, "geometry": { "type": "Point", "coordinates": [ 38.4411654, 55.8543843 ] } },
{ "type": "Feature", "properties": { "full_id": "n4264762696", "osm_id": "4264762696", "osm_type": "node", "historic": "memorial", "tourism": null, "memorial": "plaque", "name:ru": null, "material": null, "war_memorial": null, "description": null, "artwork_type": null, "old_name": null, "official_name": null, "start_date": null, "memorial:conflict": null, "inscription": "Воздушно-десантные штабы времён ВОВ", "subject:wikipedia": null, "subject:wikidata": null, "opening_hours": null, "wikidata": null, "name": null, "memorial:subject": null }, "geometry": { "type": "Point", "coordinates": [ 38.4379632, 55.851586 ] } },
{ "type": "Feature", "properties": { "full_id": "n4539616069", "osm_id": "4539616069", "osm_type": "node", "historic": "memorial", "tourism": null, "memorial": null, "name:ru": null, "material": null, "war_memorial": null, "description": null, "artwork_type": null, "old_name": null, "official_name": null, "start_date": null, "memorial:conflict": null, "inscription": null, "subject:wikipedia": null, "subject:wikidata": null, "opening_hours": null, "wikidata": null, "name": "Пожарный автомобиль", "memorial:subject": null }, "geometry": { "type": "Point", "coordinates": [ 38.4486914, 55.8694608 ] } },
{ "type": "Feature", "properties": { "full_id": "n4731205234", "osm_id": "4731205234", "osm_type": "node", "historic": "memorial", "tourism": null, "memorial": "sculpture", "name:ru": null, "material": null, "war_memorial": null, "description": null, "artwork_type": null, "old_name": null, "official_name": null, "start_date": null, "memorial:conflict": null, "inscription": "Пускай ты умер... \nНо в песне смелых \nИ сильных духом \nВсегда ты будешь \nЖивым примером", "subject:wikipedia": null, "subject:wikidata": null, "opening_hours": null, "wikidata": null, "name": "Памятник Борцам Революции", "memorial:subject": null }, "geometry": { "type": "Point", "coordinates": [ 38.4605457, 55.8583047 ] } },
{ "type": "Feature", "properties": { "full_id": "n6050882553", "osm_id": "6050882553", "osm_type": "node", "historic": "memorial", "tourism": null, "memorial": "plaque", "name:ru": null, "material": null, "war_memorial": null, "description": null, "artwork_type": null, "old_name": null, "official_name": null, "start_date": null, "memorial:conflict": null, "inscription": "Константин Богородский", "subject:wikipedia": null, "subject:wikidata": null, "opening_hours": null, "wikidata": null, "name": "Мемориальная доска", "memorial:subject": null }, "geometry": { "type": "Point", "coordinates": [ 38.4377879, 55.853797 ] } },
{ "type": "Feature", "properties": { "full_id": "n6050932670", "osm_id": "6050932670", "osm_type": "node", "historic": null, "tourism": "artwork", "memorial": null, "name:ru": null, "material": null, "war_memorial": null, "description": null, "artwork_type": null, "old_name": null, "official_name": null, "start_date": null, "memorial:conflict": null, "inscription": null, "subject:wikipedia": null, "subject:wikidata": null, "opening_hours": null, "wikidata": null, "name": "Глобус", "memorial:subject": null }, "geometry": { "type": "Point", "coordinates": [ 38.4508942, 55.8606803 ] } },
{ "type": "Feature", "properties": { "full_id": "n6051034397", "osm_id": "6051034397", "osm_type": "node", "historic": "memorial", "tourism": null, "memorial": "plaque", "name:ru": null, "material": null, "war_memorial": null, "description": null, "artwork_type": null, "old_name": null, "official_name": null, "start_date": null, "memorial:conflict": null, "inscription": "Дом Куприяновых", "subject:wikipedia": null, "subject:wikidata": null, "opening_hours": null, "wikidata": null, "name": null, "memorial:subject": null }, "geometry": { "type": "Point", "coordinates": [ 38.4436302, 55.858338 ] } },
{ "type": "Feature", "properties": { "full_id": "n6051074914", "osm_id": "6051074914", "osm_type": "node", "historic": "memorial", "tourism": null, "memorial": "plaque", "name:ru": null, "material": null, "war_memorial": null, "description": null, "artwork_type": null, "old_name": null, "official_name": null, "start_date": null, "memorial:conflict": null, "inscription": "Юрий Стосков", "subject:wikipedia": null, "subject:wikidata": null, "opening_hours": null, "wikidata": null, "name": "Стаскову Ю.", "memorial:subject": null }, "geometry": { "type": "Point", "coordinates": [ 38.4472583, 55.8561669 ] } },
{ "type": "Feature", "properties": { "full_id": "n6530730642", "osm_id": "6530730642", "osm_type": "node", "historic": "memorial", "tourism": null, "memorial": "statue", "name:ru": null, "material": null, "war_memorial": null, "description": null, "artwork_type": null, "old_name": null, "official_name": null, "start_date": null, "memorial:conflict": null, "inscription": null, "subject:wikipedia": null, "subject:wikidata": null, "opening_hours": null, "wikidata": null, "name": "В. И. Ленину", "memorial:subject": null }, "geometry": { "type": "Point", "coordinates": [ 38.4511356, 55.8739037 ] } },
{ "type": "Feature", "properties": { "full_id": "n6596046385", "osm_id": "6596046385", "osm_type": "node", "historic": "memorial", "tourism": null, "memorial": "stone", "name:ru": null, "material": "stone", "war_memorial": null, "description": null, "artwork_type": null, "old_name": null, "official_name": null, "start_date": null, "memorial:conflict": null, "inscription": null, "subject:wikipedia": null, "subject:wikidata": null, "opening_hours": null, "wikidata": null, "name": "Памятник Анатолию Климову", "memorial:subject": null }, "geometry": { "type": "Point", "coordinates": [ 38.4598207, 55.8586067 ] } },
{ "type": "Feature", "properties": { "full_id": "n6680092185", "osm_id": "6680092185", "osm_type": "node", "historic": "memorial", "tourism": null, "memorial": null, "name:ru": null, "material": null, "war_memorial": null, "description": null, "artwork_type": null, "old_name": null, "official_name": null, "start_date": null, "memorial:conflict": "Holocaust", "inscription": null, "subject:wikipedia": null, "subject:wikidata": null, "opening_hours": null, "wikidata": null, "name": "Несовершеннолетним узникам фашизма", "memorial:subject": null }, "geometry": { "type": "Point", "coordinates": [ 38.4433179, 55.8528581 ] } },
{ "type": "Feature", "properties": { "full_id": "n6680094685", "osm_id": "6680094685", "osm_type": "node", "historic": "memorial", "tourism": null, "memorial": null, "name:ru": null, "material": null, "war_memorial": null, "description": null, "artwork_type": null, "old_name": null, "official_name": null, "start_date": null, "memorial:conflict": "Soviet_Repressions", "inscription": null, "subject:wikipedia": null, "subject:wikidata": null, "opening_hours": null, "wikidata": null, "name": "Жертвам политических репрессий", "memorial:subject": null }, "geometry": { "type": "Point", "coordinates": [ 38.4435249, 55.8531364 ] } },
{ "type": "Feature", "properties": { "full_id": "n6680469787", "osm_id": "6680469787", "osm_type": "node", "historic": "memorial", "tourism": null, "memorial": "bust", "name:ru": null, "material": null, "war_memorial": null, "description": null, "artwork_type": null, "old_name": null, "official_name": null, "start_date": null, "memorial:conflict": null, "inscription": null, "subject:wikipedia": "ru:Стосков, Юрий Викторович", "subject:wikidata": "Q4443186", "opening_hours": null, "wikidata": null, "name": "Ю. В. Стоскову", "memorial:subject": "Юрий Стосков" }, "geometry": { "type": "Point", "coordinates": [ 38.4398237, 55.8550192 ] } },
{ "type": "Feature", "properties": { "full_id": "n6720393585", "osm_id": "6720393585", "osm_type": "node", "historic": null, "tourism": "artwork", "memorial": null, "name:ru": null, "material": null, "war_memorial": null, "description": null, "artwork_type": "graffiti", "old_name": null, "official_name": null, "start_date": null, "memorial:conflict": null, "inscription": null, "subject:wikipedia": null, "subject:wikidata": null, "opening_hours": null, "wikidata": null, "name": "Граффити «Наследники Победы»", "memorial:subject": null }, "geometry": { "type": "Point", "coordinates": [ 38.4431256, 55.8554959 ] } },
{ "type": "Feature", "properties": { "full_id": "n6720403085", "osm_id": "6720403085", "osm_type": "node", "historic": "memorial", "tourism": null, "memorial": "plaque", "name:ru": null, "material": null, "war_memorial": null, "description": null, "artwork_type": null, "old_name": null, "official_name": null, "start_date": null, "memorial:conflict": null, "inscription": "Мемориальная доска Мироновой Е.М.", "subject:wikipedia": null, "subject:wikidata": null, "opening_hours": null, "wikidata": null, "name": "Мироновой Е.М.", "memorial:subject": null }, "geometry": { "type": "Point", "coordinates": [ 38.446657, 55.8558397 ] } },
{ "type": "Feature", "properties": { "full_id": "n6742338387", "osm_id": "6742338387", "osm_type": "node", "historic": null, "tourism": "artwork", "memorial": null, "name:ru": null, "material": null, "war_memorial": null, "description": null, "artwork_type": null, "old_name": null, "official_name": null, "start_date": null, "memorial:conflict": null, "inscription": null, "subject:wikipedia": null, "subject:wikidata": null, "opening_hours": null, "wikidata": null, "name": "Идолы", "memorial:subject": null }, "geometry": { "type": "Point", "coordinates": [ 38.4981033, 55.850876 ] } },
{ "type": "Feature", "properties": { "full_id": "n7532337062", "osm_id": "7532337062", "osm_type": "node", "historic": null, "tourism": "artwork", "memorial": null, "name:ru": "Паровоз Братьев Черепановых", "material": null, "war_memorial": null, "description": null, "artwork_type": null, "old_name": null, "official_name": null, "start_date": null, "memorial:conflict": null, "inscription": null, "subject:wikipedia": "ru:Паровозы Черепановых", "subject:wikidata": "Q4345735", "opening_hours": null, "wikidata": null, "name": "Паровоз Братьев Черепановых", "memorial:subject": null }, "geometry": { "type": "Point", "coordinates": [ 38.4796585, 55.8787091 ] } },
{ "type": "Feature", "properties": { "full_id": "n11216197835", "osm_id": "11216197835", "osm_type": "node", "historic": null, "tourism": "viewpoint", "memorial": null, "name:ru": null, "material": null, "war_memorial": null, "description": null, "artwork_type": null, "old_name": null, "official_name": null, "start_date": null, "memorial:conflict": null, "inscription": null, "subject:wikipedia": null, "subject:wikidata": null, "opening_hours": null, "wikidata": null, "name": null, "memorial:subject": null }, "geometry": { "type": "Point", "coordinates": [ 38.4436277, 55.8599596 ] } },
{ "type": "Feature", "properties": { "full_id": "n11216197836", "osm_id": "11216197836", "osm_type": "node", "historic": null, "tourism": "viewpoint", "memorial": null, "name:ru": null, "material": null, "war_memorial": null, "description": null, "artwork_type": null, "old_name": null, "official_name": null, "start_date": null, "memorial:conflict": null, "inscription": null, "subject:wikipedia": null, "subject:wikidata": null, "opening_hours": null, "wikidata": null, "name": null, "memorial:subject": null }, "geometry": { "type": "Point", "coordinates": [ 38.4455927, 55.8609202 ] } },
{ "type": "Feature", "properties": { "full_id": "n11216240649", "osm_id": "11216240649", "osm_type": "node", "historic": null, "tourism": "viewpoint", "memorial": null, "name:ru": null, "material": null, "war_memorial": null, "description": null, "artwork_type": null, "old_name": null, "official_name": null, "start_date": null, "memorial:conflict": null, "inscription": null, "subject:wikipedia": null, "subject:wikidata": null, "opening_hours": null, "wikidata": null, "name": null, "memorial:subject": null }, "geometry": { "type": "Point", "coordinates": [ 38.4473794, 55.8620829 ] } },
{ "type": "Feature", "properties": { "full_id": "n11216247237", "osm_id": "11216247237", "osm_type": "node", "historic": null, "tourism": "viewpoint", "memorial": null, "name:ru": null, "material": null, "war_memorial": null, "description": null, "artwork_type": null, "old_name": null, "official_name": null, "start_date": null, "memorial:conflict": null, "inscription": null, "subject:wikipedia": null, "subject:wikidata": null, "opening_hours": null, "wikidata": null, "name": null, "memorial:subject": null }, "geometry": { "type": "Point", "coordinates": [ 38.446844, 55.8616881 ] } },
{ "type": "Feature", "properties": { "full_id": "n11217591073", "osm_id": "11217591073", "osm_type": "node", "historic": null, "tourism": "viewpoint", "memorial": null, "name:ru": null, "material": null, "war_memorial": null, "description": null, "artwork_type": null, "old_name": null, "official_name": null, "start_date": null, "memorial:conflict": null, "inscription": null, "subject:wikipedia": null, "subject:wikidata": null, "opening_hours": null, "wikidata": null, "name": null, "memorial:subject": null }, "geometry": { "type": "Point", "coordinates": [ 38.4392501, 55.8583774 ] } },
{ "type": "Feature", "properties": { "full_id": "n12980398580", "osm_id": "12980398580", "osm_type": "node", "historic": "memorial", "tourism": null, "memorial": "stele", "name:ru": null, "material": null, "war_memorial": null, "description": null, "artwork_type": null, "old_name": null, "official_name": null, "start_date": null, "memorial:conflict": null, "inscription": null, "subject:wikipedia": null, "subject:wikidata": null, "opening_hours": null, "wikidata": null, "name": "Восточные электрические сети", "memorial:subject": null }, "geometry": { "type": "Point", "coordinates": [ 38.4129104, 55.8455212 ] } }
]
}
