{
"type": "FeatureCollection",
"name": "poi",
"crs": { "type": "name", "properties": { "name": "urn:ogc:def:crs:OGC:1.3:CRS84" } },
"features": [
{ "type": "Feature", "properties": { "full_id": "n13150182829", "osm_id": "13150182829", "osm_type": "node", "amenity": "theatre", "theatre:type": "amphi", "name": null }, "geometry": { "type": "Point", "coordinates": [ 39.4836531, 50.2002249 ] } },
{ "type": "Feature", "properties": { "full_id": null, "osm_id": null, "osm_type": null, "amenity": "square", "theatre:type": null, "name": null }, "geometry": { "type": "Point", "coordinates": [ 39.496712511147244, 50.205150171218897 ] } }
]
}
