{
"type": "FeatureCollection",
"name": "food",
"crs": { "type": "name", "properties": { "name": "urn:ogc:def:crs:OGC:1.3:CRS84" } },
"features": [
{ "type": "Feature", "properties": { "full_id": "n1292017767", "osm_id": "1292017767", "osm_type": "node", "amenity": "cafe", "fast_food": null, "takeaway": null, "opening_hours": null, "check_date": null, "name": "Золушка", "addr:street": "улица Денисова", "addr:housenumber": "17А", "addr:city": "Ливны" }, "geometry": { "type": "Point", "coordinates": [ 37.5743041, 52.4060176 ] } },
{ "type": "Feature", "properties": { "full_id": "n9097699125", "osm_id": "9097699125", "osm_type": "node", "amenity": "cafe", "fast_food": null, "takeaway": null, "opening_hours": null, "check_date": null, "name": "Фортуна салат-бар", "addr:street": "улица Мира", "addr:housenumber": "191Б", "addr:city": "Ливны" }, "geometry": { "type": "Point", "coordinates": [ 37.5754313, 52.4059014 ] } },
{ "type": "Feature", "properties": { "full_id": "n9097699132", "osm_id": "9097699132", "osm_type": "node", "amenity": "fast_food", "fast_food": null, "takeaway": null, "opening_hours": null, "check_date": null, "name": "Шаурма в пите", "addr:street": "улица Мира", "addr:housenumber": "183", "addr:city": "Ливны" }, "geometry": { "type": "Point", "coordinates": [ 37.5761505, 52.4061464 ] } },
{ "type": "Feature", "properties": { "full_id": "n9097728106", "osm_id": "9097728106", "osm_type": "node", "amenity": "fast_food", "fast_food": null, "takeaway": null, "opening_hours": null, "check_date": null, "name": "Русский аппетит", "addr:street": null, "addr:housenumber": null, "addr:city": "Ливны" }, "geometry": { "type": "Point", "coordinates": [ 37.5735006, 52.4063149 ] } },
{ "type": "Feature", "properties": { "full_id": "n9097750510", "osm_id": "9097750510", "osm_type": "node", "amenity": "fast_food", "fast_food": null, "takeaway": null, "opening_hours": null, "check_date": null, "name": "Шаурма", "addr:street": "улица Денисова", "addr:housenumber": "17Б", "addr:city": "Ливны" }, "geometry": { "type": "Point", "coordinates": [ 37.5737039, 52.4065517 ] } },
{ "type": "Feature", "properties": { "full_id": "n9103556811", "osm_id": "9103556811", "osm_type": "node", "amenity": "cafe", "fast_food": null, "takeaway": null, "opening_hours": null, "check_date": null, "name": "Тир Богатыря Кафе", "addr:street": "улица Селищева", "addr:housenumber": "1", "addr:city": "Ливны" }, "geometry": { "type": "Point", "coordinates": [ 37.5723579, 52.4068238 ] } },
{ "type": "Feature", "properties": { "full_id": "n9103564227", "osm_id": "9103564227", "osm_type": "node", "amenity": "cafe", "fast_food": null, "takeaway": null, "opening_hours": null, "check_date": null, "name": "Мото-Мото суши-бар на Рабочем", "addr:street": "улица Мира", "addr:housenumber": "180А", "addr:city": "Ливны" }, "geometry": { "type": "Point", "coordinates": [ 37.57099, 52.4051155 ] } },
{ "type": "Feature", "properties": { "full_id": "n9103564233", "osm_id": "9103564233", "osm_type": "node", "amenity": "cafe", "fast_food": null, "takeaway": null, "opening_hours": null, "check_date": null, "name": "Япона Мама суши-бар", "addr:street": "улица Мира", "addr:housenumber": "184", "addr:city": "Ливны" }, "geometry": { "type": "Point", "coordinates": [ 37.569724, 52.4046377 ] } },
{ "type": "Feature", "properties": { "full_id": "n9103564237", "osm_id": "9103564237", "osm_type": "node", "amenity": "fast_food", "fast_food": null, "takeaway": null, "opening_hours": null, "check_date": null, "name": "Шаурма на Мира 184", "addr:street": "улица Мира", "addr:housenumber": "184", "addr:city": "Ливны" }, "geometry": { "type": "Point", "coordinates": [ 37.5691768, 52.4044773 ] } },
{ "type": "Feature", "properties": { "full_id": "n9103624366", "osm_id": "9103624366", "osm_type": "node", "amenity": "cafe", "fast_food": null, "takeaway": null, "opening_hours": null, "check_date": null, "name": "Ракушка кафе", "addr:street": "Индустриальная улица", "addr:housenumber": "32", "addr:city": "Ливны" }, "geometry": { "type": "Point", "coordinates": [ 37.5635608, 52.4035203 ] } },
{ "type": "Feature", "properties": { "full_id": "n9122364952", "osm_id": "9122364952", "osm_type": "node", "amenity": "cafe", "fast_food": null, "takeaway": null, "opening_hours": null, "check_date": null, "name": "Кокос кофейня", "addr:street": "улица Гайдара", "addr:housenumber": "2А", "addr:city": "Ливны" }, "geometry": { "type": "Point", "coordinates": [ 37.5802417, 52.410153 ] } },
{ "type": "Feature", "properties": { "full_id": "n11942009845", "osm_id": "11942009845", "osm_type": "node", "amenity": "cafe", "fast_food": null, "takeaway": "yes", "opening_hours": "08:00-21:00", "check_date": "2024-05-31", "name": "Кулинария «Олимп»", "addr:street": null, "addr:housenumber": null, "addr:city": null }, "geometry": { "type": "Point", "coordinates": [ 37.5695904, 52.4041535 ] } },
{ "type": "Feature", "properties": { "full_id": "n11987227387", "osm_id": "11987227387", "osm_type": "node", "amenity": "cafe", "fast_food": null, "takeaway": "yes", "opening_hours": "08:00-21:00", "check_date": "2024-05-31", "name": "Кулинария «Олимп»", "addr:street": null, "addr:housenumber": null, "addr:city": null }, "geometry": { "type": "Point", "coordinates": [ 37.5801811, 52.410233 ] } },
{ "type": "Feature", "properties": { "full_id": "n11989697438", "osm_id": "11989697438", "osm_type": "node", "amenity": "fast_food", "fast_food": "cafeteria", "takeaway": "yes", "opening_hours": "Mo-Fr 08:00-13:00,14:00-18:00", "check_date": null, "name": null, "addr:street": null, "addr:housenumber": null, "addr:city": null }, "geometry": { "type": "Point", "coordinates": [ 37.5675414, 52.4121198 ] } },
{ "type": "Feature", "properties": { "full_id": "w574296944", "osm_id": "574296944", "osm_type": "way", "amenity": "cafe", "fast_food": null, "takeaway": null, "opening_hours": null, "check_date": null, "name": "Тополек кафе", "addr:street": "Индустриальная улица", "addr:housenumber": "23А", "addr:city": "Ливны" }, "geometry": { "type": "Point", "coordinates": [ 37.563005958769068, 52.403785431846941 ] } },
{ "type": "Feature", "properties": { "full_id": "w114007453", "osm_id": "114007453", "osm_type": "way", "amenity": "restaurant", "fast_food": null, "takeaway": null, "opening_hours": null, "check_date": null, "name": "Легран", "addr:street": "Октябрьская улица", "addr:housenumber": "1Ж", "addr:city": "Ливны" }, "geometry": { "type": "Point", "coordinates": [ 37.580677344534429, 52.412580233821558 ] } },
{ "type": "Feature", "properties": { "full_id": "w984674276", "osm_id": "984674276", "osm_type": "way", "amenity": "fast_food", "fast_food": null, "takeaway": null, "opening_hours": null, "check_date": null, "name": "Обжорка пирожковая", "addr:street": null, "addr:housenumber": null, "addr:city": "Ливны" }, "geometry": { "type": "Point", "coordinates": [ 37.571639092463009, 52.405266029394731 ] } },
{ "type": "Feature", "properties": { "full_id": "w985077072", "osm_id": "985077072", "osm_type": "way", "amenity": "cafe", "fast_food": null, "takeaway": null, "opening_hours": null, "check_date": null, "name": "Песочница кафе", "addr:street": "улица Денисова", "addr:housenumber": "2А", "addr:city": "Ливны" }, "geometry": { "type": "Point", "coordinates": [ 37.5703575, 52.41047245 ] } },
{ "type": "Feature", "properties": { "full_id": "w984666807", "osm_id": "984666807", "osm_type": "way", "amenity": "cafe", "fast_food": null, "takeaway": null, "opening_hours": null, "check_date": null, "name": "Кулинария Олимп на Рабочем", "addr:street": "улица Мира", "addr:housenumber": "199А", "addr:city": "Ливны" }, "geometry": { "type": "Point", "coordinates": [ 37.570720432191649, 52.404532945177458 ] } },
{ "type": "Feature", "properties": { "full_id": "w984674274", "osm_id": "984674274", "osm_type": "way", "amenity": "fast_food", "fast_food": null, "takeaway": null, "opening_hours": null, "check_date": null, "name": "Шаурма СВШ", "addr:street": null, "addr:housenumber": null, "addr:city": "Ливны" }, "geometry": { "type": "Point", "coordinates": [ 37.57216861879381, 52.405391667175941 ] } }
]
}
