{
"type": "FeatureCollection",
"name": "rel",
"crs": { "type": "name", "properties": { "name": "urn:ogc:def:crs:OGC:1.3:CRS84" } },
"features": [
{ "type": "Feature", "properties": { "full_id": "w269562616", "osm_id": "269562616", "osm_type": "way", "amenity": "place_of_worship", "religion": "christian", "name": "Храм Георгия Победоносца", "building": "yes", "addr:street": "Октябрьская улица", "addr:housenumber": "90", "addr:city": "Ливны" }, "geometry": { "type": "Point", "coordinates": [ 37.573138738316139, 52.41115368476693 ] } }
]
}
