{
"type": "FeatureCollection",
"name": "PoI_old",
"crs": { "type": "name", "properties": { "name": "urn:ogc:def:crs:OGC:1.3:CRS84" } },
"features": [
{ "type": "Feature", "properties": { "full_id": "n1374395316", "osm_id": "1374395316", "osm_type": "node", "religion": null, "amenity": null, "tourism": "museum", "name": "Музей песни XX века", "building": null }, "geometry": { "type": "Point", "coordinates": [ 42.1566238, 56.2470496 ] } },
{ "type": "Feature", "properties": { "full_id": "n1377323754", "osm_id": "1377323754", "osm_type": "node", "religion": null, "amenity": "cinema", "tourism": null, "name": "Ярополье", "building": null }, "geometry": { "type": "Point", "coordinates": [ 42.1547874, 56.2456594 ] } },
{ "type": "Feature", "properties": { "full_id": "w47473917", "osm_id": "47473917", "osm_type": "way", "religion": null, "amenity": null, "tourism": null, "name": null, "building": "yes" }, "geometry": { "type": "Point", "coordinates": [ 42.124010586409462, 56.240402483217999 ] } },
{ "type": "Feature", "properties": { "full_id": "w89449976", "osm_id": "89449976", "osm_type": "way", "religion": "christian", "amenity": "grave_yard", "tourism": null, "name": null, "building": null }, "geometry": { "type": "Point", "coordinates": [ 42.147159367010531, 56.242507120588904 ] } },
{ "type": "Feature", "properties": { "full_id": "w155607953", "osm_id": "155607953", "osm_type": "way", "religion": "christian", "amenity": "place_of_worship", "tourism": null, "name": "Церковь Введения во Храм Пресвятой Богородицы", "building": "church" }, "geometry": { "type": "Point", "coordinates": [ 42.159549718111172, 56.243727799228651 ] } },
{ "type": "Feature", "properties": { "full_id": "w90915872", "osm_id": "90915872", "osm_type": "way", "religion": "christian", "amenity": "grave_yard", "tourism": null, "name": null, "building": null }, "geometry": { "type": "Point", "coordinates": [ 42.146244392154387, 56.248235865391521 ] } },
{ "type": "Feature", "properties": { "full_id": "w113719136", "osm_id": "113719136", "osm_type": "way", "religion": null, "amenity": "community_centre", "tourism": null, "name": "Районный дом культуры", "building": "yes" }, "geometry": { "type": "Point", "coordinates": [ 42.149424244612312, 56.248390417878234 ] } },
{ "type": "Feature", "properties": { "full_id": "w46148337", "osm_id": "46148337", "osm_type": "way", "religion": "christian", "amenity": "place_of_worship", "tourism": null, "name": "Церковь Троицы Живоначальной", "building": "church" }, "geometry": { "type": "Point", "coordinates": [ 42.164929623514318, 56.240891079427193 ] } },
{ "type": "Feature", "properties": { "full_id": "w868803782", "osm_id": "868803782", "osm_type": "way", "religion": "christian", "amenity": "monastery", "tourism": null, "name": "Введенский мужской монастырь", "building": null }, "geometry": { "type": "Point", "coordinates": [ 42.159738178313646, 56.243767518999931 ] } },
{ "type": "Feature", "properties": { "full_id": "w45349725", "osm_id": "45349725", "osm_type": "way", "religion": null, "amenity": "community_centre", "tourism": null, "name": "Дом культуры Спутник", "building": "yes" }, "geometry": { "type": "Point", "coordinates": [ 42.133074986837066, 56.247558383135065 ] } },
{ "type": "Feature", "properties": { "full_id": "w46678699", "osm_id": "46678699", "osm_type": "way", "religion": null, "amenity": null, "tourism": "museum", "name": null, "building": "yes" }, "geometry": { "type": "Point", "coordinates": [ 42.145553967995639, 56.249369770953201 ] } },
{ "type": "Feature", "properties": { "full_id": "w46678701", "osm_id": "46678701", "osm_type": "way", "religion": "christian", "amenity": "place_of_worship", "tourism": null, "name": "Благовещенский собор", "building": "cathedral" }, "geometry": { "type": "Point", "coordinates": [ 42.145706685098034, 56.248012781782109 ] } },
{ "type": "Feature", "properties": { "full_id": "w89449977", "osm_id": "89449977", "osm_type": "way", "religion": "christian", "amenity": "place_of_worship", "tourism": null, "name": "Церковь Покрова Пресвятой Богородицы", "building": "church" }, "geometry": { "type": "Point", "coordinates": [ 42.146726097961739, 56.241909531163799 ] } },
{ "type": "Feature", "properties": { "full_id": "w90854940", "osm_id": "90854940", "osm_type": "way", "religion": "christian", "amenity": "place_of_worship", "tourism": null, "name": null, "building": "yes" }, "geometry": { "type": "Point", "coordinates": [ 42.159443697567525, 56.247170532924841 ] } }
]
}
