{
"type": "FeatureCollection",
"name": "fd",
"crs": { "type": "name", "properties": { "name": "urn:ogc:def:crs:OGC:1.3:CRS84" } },
"features": [
{ "type": "Feature", "properties": { "full_id": "n603689865", "osm_id": "603689865", "osm_type": "node", "amenity": "restaurant", "full_name": null, "cafe": null, "shop": null, "name:ru": null, "contact:facebook": null, "brand:wikipedia": null, "brand:wikidata": null, "brand:ru": null, "brand:en": null, "brand": null, "level": null, "bar": null, "air_conditioning": null, "addr:floor": null, "entrance": null, "ref": null, "operator": null, "contact:vk": null, "delivery": null, "name:en": null, "outdoor_seating": null, "indoor_seating": null, "wheelchair": null, "contact:instagram": null, "payment:visa": null, "payment:mastercard": null, "payment:cash": null, "old_name:en": null, "old_name": null, "drive_through": null, "diet:vegetarian": null, "contact:website": null, "contact:email": null, "capacity": null, "cuisine": null, "check_date": null, "website": null, "takeaway": null, "smoking": null, "phone": null, "opening_hours": null, "internet_access:fee": null, "internet_access": null, "contact:phone": null, "addr:street": null, "addr:postcode": null, "addr:housenumber": null, "addr:city": null, "name": "Величъ" }, "geometry": { "type": "Point", "coordinates": [ 36.8609682, 55.7487204 ] } },
{ "type": "Feature", "properties": { "full_id": "n603695109", "osm_id": "603695109", "osm_type": "node", "amenity": "cafe", "full_name": null, "cafe": null, "shop": null, "name:ru": null, "contact:facebook": null, "brand:wikipedia": null, "brand:wikidata": null, "brand:ru": null, "brand:en": null, "brand": null, "level": null, "bar": null, "air_conditioning": null, "addr:floor": null, "entrance": null, "ref": null, "operator": null, "contact:vk": null, "delivery": null, "name:en": null, "outdoor_seating": null, "indoor_seating": null, "wheelchair": null, "contact:instagram": null, "payment:visa": null, "payment:mastercard": null, "payment:cash": null, "old_name:en": null, "old_name": null, "drive_through": null, "diet:vegetarian": null, "contact:website": null, "contact:email": null, "capacity": null, "cuisine": null, "check_date": null, "website": "http://www.vesna-cafe.ru", "takeaway": "yes", "smoking": "no", "phone": "+7 964 5851221", "opening_hours": "Mo-Th 10:00-22:00; Fr-Sa 10:00-24:00; Su 10:00-22:00", "internet_access:fee": "yes", "internet_access": "wlan", "contact:phone": "+7 495 5977209", "addr:street": "Московская улица", "addr:postcode": "143180", "addr:housenumber": "11", "addr:city": "Звенигород", "name": "Весна" }, "geometry": { "type": "Point", "coordinates": [ 36.855322, 55.730557 ] } },
{ "type": "Feature", "properties": { "full_id": "n640222034", "osm_id": "640222034", "osm_type": "node", "amenity": "cafe", "full_name": null, "cafe": null, "shop": null, "name:ru": null, "contact:facebook": null, "brand:wikipedia": null, "brand:wikidata": null, "brand:ru": null, "brand:en": null, "brand": null, "level": null, "bar": null, "air_conditioning": null, "addr:floor": null, "entrance": null, "ref": null, "operator": null, "contact:vk": null, "delivery": null, "name:en": null, "outdoor_seating": null, "indoor_seating": null, "wheelchair": null, "contact:instagram": null, "payment:visa": null, "payment:mastercard": null, "payment:cash": null, "old_name:en": null, "old_name": null, "drive_through": null, "diet:vegetarian": null, "contact:website": null, "contact:email": null, "capacity": null, "cuisine": "russian", "check_date": "2023-11-18", "website": null, "takeaway": null, "smoking": null, "phone": null, "opening_hours": "Mo-Su 08:00-20:00", "internet_access:fee": null, "internet_access": null, "contact:phone": null, "addr:street": null, "addr:postcode": null, "addr:housenumber": null, "addr:city": null, "name": "Вятский край" }, "geometry": { "type": "Point", "coordinates": [ 36.8581814, 55.7299164 ] } },
{ "type": "Feature", "properties": { "full_id": "n966641766", "osm_id": "966641766", "osm_type": "node", "amenity": "fast_food", "full_name": null, "cafe": null, "shop": null, "name:ru": null, "contact:facebook": null, "brand:wikipedia": null, "brand:wikidata": null, "brand:ru": null, "brand:en": null, "brand": null, "level": null, "bar": null, "air_conditioning": null, "addr:floor": null, "entrance": null, "ref": null, "operator": null, "contact:vk": null, "delivery": null, "name:en": null, "outdoor_seating": null, "indoor_seating": null, "wheelchair": null, "contact:instagram": null, "payment:visa": null, "payment:mastercard": null, "payment:cash": null, "old_name:en": null, "old_name": null, "drive_through": null, "diet:vegetarian": null, "contact:website": null, "contact:email": null, "capacity": null, "cuisine": "kebab", "check_date": "2023-11-18", "website": null, "takeaway": null, "smoking": null, "phone": null, "opening_hours": null, "internet_access:fee": null, "internet_access": null, "contact:phone": null, "addr:street": null, "addr:postcode": null, "addr:housenumber": null, "addr:city": null, "name": null }, "geometry": { "type": "Point", "coordinates": [ 36.8550006, 55.7296452 ] } },
{ "type": "Feature", "properties": { "full_id": "n1396096832", "osm_id": "1396096832", "osm_type": "node", "amenity": "restaurant", "full_name": null, "cafe": null, "shop": null, "name:ru": null, "contact:facebook": null, "brand:wikipedia": null, "brand:wikidata": null, "brand:ru": null, "brand:en": null, "brand": null, "level": null, "bar": null, "air_conditioning": null, "addr:floor": null, "entrance": null, "ref": null, "operator": null, "contact:vk": null, "delivery": null, "name:en": null, "outdoor_seating": null, "indoor_seating": null, "wheelchair": null, "contact:instagram": null, "payment:visa": null, "payment:mastercard": null, "payment:cash": null, "old_name:en": null, "old_name": null, "drive_through": null, "diet:vegetarian": null, "contact:website": null, "contact:email": null, "capacity": "60", "cuisine": null, "check_date": null, "website": "https://restoran-osobnyak.ru/", "takeaway": null, "smoking": null, "phone": "+7 966 0248194", "opening_hours": "11:00-03:00", "internet_access:fee": null, "internet_access": null, "contact:phone": null, "addr:street": null, "addr:postcode": null, "addr:housenumber": null, "addr:city": null, "name": "Особняк" }, "geometry": { "type": "Point", "coordinates": [ 36.8498886, 55.7299266 ] } },
{ "type": "Feature", "properties": { "full_id": "n2446955407", "osm_id": "2446955407", "osm_type": "node", "amenity": "fast_food", "full_name": null, "cafe": null, "shop": null, "name:ru": null, "contact:facebook": null, "brand:wikipedia": null, "brand:wikidata": null, "brand:ru": null, "brand:en": null, "brand": null, "level": null, "bar": null, "air_conditioning": null, "addr:floor": null, "entrance": null, "ref": null, "operator": null, "contact:vk": null, "delivery": null, "name:en": null, "outdoor_seating": null, "indoor_seating": null, "wheelchair": null, "contact:instagram": null, "payment:visa": "yes", "payment:mastercard": "yes", "payment:cash": "yes", "old_name:en": "McDonald’s", "old_name": "Макдоналдс", "drive_through": "yes", "diet:vegetarian": "no", "contact:website": "https://vkusnoitochka.ru/", "contact:email": "info@qsrsystem.ru", "capacity": null, "cuisine": "burger", "check_date": "2023-11-18", "website": null, "takeaway": "yes", "smoking": null, "phone": null, "opening_hours": "00:00-03:00,04:00-24:00", "internet_access:fee": null, "internet_access": null, "contact:phone": "+7 495 5971195", "addr:street": null, "addr:postcode": null, "addr:housenumber": null, "addr:city": null, "name": "Вкусно — и точка" }, "geometry": { "type": "Point", "coordinates": [ 36.8618584, 55.7284336 ] } },
{ "type": "Feature", "properties": { "full_id": "n2694308338", "osm_id": "2694308338", "osm_type": "node", "amenity": "cafe", "full_name": null, "cafe": null, "shop": null, "name:ru": null, "contact:facebook": null, "brand:wikipedia": null, "brand:wikidata": null, "brand:ru": null, "brand:en": null, "brand": null, "level": null, "bar": null, "air_conditioning": null, "addr:floor": null, "entrance": null, "ref": null, "operator": null, "contact:vk": null, "delivery": null, "name:en": null, "outdoor_seating": null, "indoor_seating": null, "wheelchair": "no", "contact:instagram": "https://www.instagram.com/chekhovbakery/", "payment:visa": null, "payment:mastercard": null, "payment:cash": null, "old_name:en": null, "old_name": null, "drive_through": null, "diet:vegetarian": null, "contact:website": null, "contact:email": null, "capacity": null, "cuisine": "cake", "check_date": "2024-06-21", "website": null, "takeaway": null, "smoking": null, "phone": null, "opening_hours": "Mo-Fr 09:00-21:00; Sa,Su 09:00-21:30", "internet_access:fee": null, "internet_access": null, "contact:phone": null, "addr:street": null, "addr:postcode": null, "addr:housenumber": null, "addr:city": null, "name": "Здесь был Чехов" }, "geometry": { "type": "Point", "coordinates": [ 36.8574244, 55.7299466 ] } },
{ "type": "Feature", "properties": { "full_id": "n3366232132", "osm_id": "3366232132", "osm_type": "node", "amenity": "cafe", "full_name": null, "cafe": null, "shop": null, "name:ru": null, "contact:facebook": null, "brand:wikipedia": null, "brand:wikidata": null, "brand:ru": null, "brand:en": null, "brand": null, "level": null, "bar": null, "air_conditioning": null, "addr:floor": null, "entrance": null, "ref": null, "operator": null, "contact:vk": null, "delivery": null, "name:en": null, "outdoor_seating": "no", "indoor_seating": "no", "wheelchair": null, "contact:instagram": null, "payment:visa": null, "payment:mastercard": null, "payment:cash": null, "old_name:en": null, "old_name": null, "drive_through": null, "diet:vegetarian": null, "contact:website": null, "contact:email": null, "capacity": null, "cuisine": "kebab", "check_date": null, "website": null, "takeaway": "only", "smoking": null, "phone": null, "opening_hours": null, "internet_access:fee": null, "internet_access": null, "contact:phone": null, "addr:street": "Московская улица", "addr:postcode": null, "addr:housenumber": "8", "addr:city": null, "name": null }, "geometry": { "type": "Point", "coordinates": [ 36.8519795, 55.7303893 ] } },
{ "type": "Feature", "properties": { "full_id": "n3366659711", "osm_id": "3366659711", "osm_type": "node", "amenity": "restaurant", "full_name": null, "cafe": null, "shop": null, "name:ru": null, "contact:facebook": null, "brand:wikipedia": null, "brand:wikidata": null, "brand:ru": null, "brand:en": null, "brand": null, "level": null, "bar": null, "air_conditioning": null, "addr:floor": null, "entrance": null, "ref": null, "operator": null, "contact:vk": null, "delivery": null, "name:en": null, "outdoor_seating": null, "indoor_seating": null, "wheelchair": null, "contact:instagram": null, "payment:visa": null, "payment:mastercard": null, "payment:cash": null, "old_name:en": null, "old_name": null, "drive_through": null, "diet:vegetarian": null, "contact:website": null, "contact:email": null, "capacity": null, "cuisine": null, "check_date": null, "website": "http://www.pristan.club", "takeaway": null, "smoking": null, "phone": "+7 925 4738838", "opening_hours": "Mo-Th 12:00-23:00; Fr-Sa 12:00-01:00; Su 12:00-23:00", "internet_access:fee": null, "internet_access": null, "contact:phone": null, "addr:street": "улица Фрунзе", "addr:postcode": null, "addr:housenumber": "8А", "addr:city": "Звенигород", "name": "Пристань" }, "geometry": { "type": "Point", "coordinates": [ 36.8454454, 55.7309875 ] } },
{ "type": "Feature", "properties": { "full_id": "n3666854193", "osm_id": "3666854193", "osm_type": "node", "amenity": "cafe", "full_name": null, "cafe": null, "shop": null, "name:ru": null, "contact:facebook": null, "brand:wikipedia": null, "brand:wikidata": null, "brand:ru": null, "brand:en": null, "brand": null, "level": null, "bar": null, "air_conditioning": null, "addr:floor": null, "entrance": null, "ref": null, "operator": null, "contact:vk": null, "delivery": null, "name:en": null, "outdoor_seating": null, "indoor_seating": null, "wheelchair": null, "contact:instagram": null, "payment:visa": null, "payment:mastercard": null, "payment:cash": null, "old_name:en": null, "old_name": null, "drive_through": null, "diet:vegetarian": null, "contact:website": null, "contact:email": null, "capacity": null, "cuisine": null, "check_date": null, "website": null, "takeaway": null, "smoking": "no", "phone": null, "opening_hours": "24/7", "internet_access:fee": null, "internet_access": null, "contact:phone": null, "addr:street": null, "addr:postcode": null, "addr:housenumber": null, "addr:city": null, "name": "Зерно" }, "geometry": { "type": "Point", "coordinates": [ 36.8872774, 55.747699 ] } },
{ "type": "Feature", "properties": { "full_id": "n4365261189", "osm_id": "4365261189", "osm_type": "node", "amenity": "cafe", "full_name": null, "cafe": null, "shop": null, "name:ru": null, "contact:facebook": null, "brand:wikipedia": null, "brand:wikidata": null, "brand:ru": null, "brand:en": null, "brand": null, "level": null, "bar": null, "air_conditioning": null, "addr:floor": null, "entrance": null, "ref": null, "operator": null, "contact:vk": null, "delivery": null, "name:en": null, "outdoor_seating": null, "indoor_seating": null, "wheelchair": null, "contact:instagram": null, "payment:visa": null, "payment:mastercard": null, "payment:cash": null, "old_name:en": null, "old_name": null, "drive_through": null, "diet:vegetarian": null, "contact:website": null, "contact:email": null, "capacity": null, "cuisine": null, "check_date": "2023-11-18", "website": null, "takeaway": null, "smoking": null, "phone": null, "opening_hours": null, "internet_access:fee": null, "internet_access": null, "contact:phone": null, "addr:street": null, "addr:postcode": null, "addr:housenumber": null, "addr:city": null, "name": "Луковка" }, "geometry": { "type": "Point", "coordinates": [ 36.8573723, 55.7297185 ] } },
{ "type": "Feature", "properties": { "full_id": "n4834689322", "osm_id": "4834689322", "osm_type": "node", "amenity": "restaurant", "full_name": null, "cafe": null, "shop": null, "name:ru": null, "contact:facebook": null, "brand:wikipedia": null, "brand:wikidata": null, "brand:ru": null, "brand:en": null, "brand": null, "level": null, "bar": null, "air_conditioning": null, "addr:floor": null, "entrance": null, "ref": null, "operator": null, "contact:vk": null, "delivery": null, "name:en": "L'Atelier", "outdoor_seating": null, "indoor_seating": null, "wheelchair": null, "contact:instagram": null, "payment:visa": null, "payment:mastercard": null, "payment:cash": null, "old_name:en": null, "old_name": null, "drive_through": null, "diet:vegetarian": null, "contact:website": null, "contact:email": null, "capacity": null, "cuisine": "french", "check_date": "2023-11-18", "website": null, "takeaway": null, "smoking": null, "phone": "+7 495 5977028", "opening_hours": null, "internet_access:fee": null, "internet_access": null, "contact:phone": null, "addr:street": null, "addr:postcode": null, "addr:housenumber": null, "addr:city": null, "name": "Ателье" }, "geometry": { "type": "Point", "coordinates": [ 36.8532916, 55.7301374 ] } },
{ "type": "Feature", "properties": { "full_id": "n4907039768", "osm_id": "4907039768", "osm_type": "node", "amenity": "cafe", "full_name": null, "cafe": null, "shop": null, "name:ru": null, "contact:facebook": null, "brand:wikipedia": null, "brand:wikidata": null, "brand:ru": null, "brand:en": null, "brand": null, "level": null, "bar": null, "air_conditioning": null, "addr:floor": null, "entrance": null, "ref": null, "operator": null, "contact:vk": null, "delivery": null, "name:en": null, "outdoor_seating": null, "indoor_seating": null, "wheelchair": null, "contact:instagram": null, "payment:visa": null, "payment:mastercard": null, "payment:cash": null, "old_name:en": null, "old_name": null, "drive_through": null, "diet:vegetarian": null, "contact:website": null, "contact:email": null, "capacity": null, "cuisine": "italian;japanese", "check_date": null, "website": "https://www.yugata-group.ru/", "takeaway": null, "smoking": null, "phone": "+7 925 5438067", "opening_hours": "11:00-24:00", "internet_access:fee": null, "internet_access": null, "contact:phone": null, "addr:street": "Пролетарская улица", "addr:postcode": null, "addr:housenumber": "49", "addr:city": "Звенигород", "name": "Югата" }, "geometry": { "type": "Point", "coordinates": [ 36.8565553, 55.7368251 ] } },
{ "type": "Feature", "properties": { "full_id": "n4909262103", "osm_id": "4909262103", "osm_type": "node", "amenity": "fast_food", "full_name": null, "cafe": null, "shop": null, "name:ru": null, "contact:facebook": null, "brand:wikipedia": null, "brand:wikidata": null, "brand:ru": null, "brand:en": null, "brand": null, "level": null, "bar": null, "air_conditioning": null, "addr:floor": null, "entrance": null, "ref": null, "operator": null, "contact:vk": null, "delivery": "yes", "name:en": null, "outdoor_seating": null, "indoor_seating": null, "wheelchair": null, "contact:instagram": null, "payment:visa": null, "payment:mastercard": null, "payment:cash": null, "old_name:en": null, "old_name": null, "drive_through": null, "diet:vegetarian": null, "contact:website": null, "contact:email": null, "capacity": null, "cuisine": "pizza", "check_date": null, "website": "http://www.vpzven.ru", "takeaway": null, "smoking": null, "phone": "+7 495 1208088", "opening_hours": "10:00-23:00", "internet_access:fee": null, "internet_access": null, "contact:phone": null, "addr:street": null, "addr:postcode": null, "addr:housenumber": null, "addr:city": null, "name": "Ваша пицца" }, "geometry": { "type": "Point", "coordinates": [ 36.8595217, 55.740727 ] } },
{ "type": "Feature", "properties": { "full_id": "n5536256221", "osm_id": "5536256221", "osm_type": "node", "amenity": "cafe", "full_name": null, "cafe": null, "shop": null, "name:ru": null, "contact:facebook": null, "brand:wikipedia": null, "brand:wikidata": null, "brand:ru": null, "brand:en": null, "brand": null, "level": null, "bar": null, "air_conditioning": null, "addr:floor": null, "entrance": null, "ref": null, "operator": null, "contact:vk": null, "delivery": null, "name:en": null, "outdoor_seating": null, "indoor_seating": null, "wheelchair": null, "contact:instagram": null, "payment:visa": null, "payment:mastercard": null, "payment:cash": null, "old_name:en": null, "old_name": null, "drive_through": null, "diet:vegetarian": null, "contact:website": null, "contact:email": null, "capacity": null, "cuisine": "coffee_shop", "check_date": null, "website": "https://www.instagram.com/vespresso_zv/", "takeaway": null, "smoking": null, "phone": "+7 977 3930790", "opening_hours": "Mo-Su 08:00-21:00", "internet_access:fee": null, "internet_access": null, "contact:phone": null, "addr:street": null, "addr:postcode": null, "addr:housenumber": null, "addr:city": null, "name": "Vespresso" }, "geometry": { "type": "Point", "coordinates": [ 36.8600605, 55.7409398 ] } },
{ "type": "Feature", "properties": { "full_id": "n5975577662", "osm_id": "5975577662", "osm_type": "node", "amenity": "fast_food", "full_name": null, "cafe": null, "shop": null, "name:ru": null, "contact:facebook": null, "brand:wikipedia": null, "brand:wikidata": null, "brand:ru": null, "brand:en": null, "brand": null, "level": null, "bar": null, "air_conditioning": null, "addr:floor": null, "entrance": null, "ref": "ТЦ Победа", "operator": "Империя кофе", "contact:vk": "https://vk.com/takeandwake", "delivery": null, "name:en": null, "outdoor_seating": null, "indoor_seating": null, "wheelchair": null, "contact:instagram": "https://instagram.com/takeandwake", "payment:visa": null, "payment:mastercard": null, "payment:cash": null, "old_name:en": null, "old_name": null, "drive_through": null, "diet:vegetarian": null, "contact:website": "http://xn--c1acdayy6b.xn--p1ai/", "contact:email": "uk@takeandwake.ru", "capacity": null, "cuisine": "coffee_shop", "check_date": "2023-11-18", "website": null, "takeaway": "yes", "smoking": null, "phone": null, "opening_hours": "Mo-Su 09:00-20:00", "internet_access:fee": null, "internet_access": null, "contact:phone": "+7 800 7073549", "addr:street": null, "addr:postcode": null, "addr:housenumber": null, "addr:city": null, "name": "Take and Wake" }, "geometry": { "type": "Point", "coordinates": [ 36.8557679, 55.7301833 ] } },
{ "type": "Feature", "properties": { "full_id": "n7904636258", "osm_id": "7904636258", "osm_type": "node", "amenity": null, "full_name": null, "cafe": null, "shop": null, "name:ru": null, "contact:facebook": null, "brand:wikipedia": null, "brand:wikidata": null, "brand:ru": null, "brand:en": null, "brand": null, "level": null, "bar": null, "air_conditioning": null, "addr:floor": null, "entrance": "main", "ref": null, "operator": null, "contact:vk": null, "delivery": null, "name:en": null, "outdoor_seating": null, "indoor_seating": null, "wheelchair": null, "contact:instagram": null, "payment:visa": null, "payment:mastercard": null, "payment:cash": null, "old_name:en": null, "old_name": null, "drive_through": null, "diet:vegetarian": null, "contact:website": null, "contact:email": null, "capacity": null, "cuisine": null, "check_date": null, "website": null, "takeaway": null, "smoking": null, "phone": null, "opening_hours": null, "internet_access:fee": null, "internet_access": null, "contact:phone": null, "addr:street": null, "addr:postcode": null, "addr:housenumber": null, "addr:city": null, "name": null }, "geometry": { "type": "Point", "coordinates": [ 36.8114576, 55.7350082 ] } },
{ "type": "Feature", "properties": { "full_id": "n8241545018", "osm_id": "8241545018", "osm_type": "node", "amenity": "restaurant", "full_name": null, "cafe": null, "shop": null, "name:ru": null, "contact:facebook": null, "brand:wikipedia": null, "brand:wikidata": null, "brand:ru": null, "brand:en": null, "brand": null, "level": "0", "bar": "yes", "air_conditioning": "yes", "addr:floor": "1", "entrance": null, "ref": null, "operator": null, "contact:vk": null, "delivery": null, "name:en": null, "outdoor_seating": "yes", "indoor_seating": "yes", "wheelchair": "no", "contact:instagram": "https://www.instagram.com/bratec_krolik_rest/", "payment:visa": null, "payment:mastercard": null, "payment:cash": null, "old_name:en": null, "old_name": null, "drive_through": null, "diet:vegetarian": null, "contact:website": "https://brateckrolikzven.ru/", "contact:email": null, "capacity": null, "cuisine": null, "check_date": "2022-08-20", "website": null, "takeaway": null, "smoking": null, "phone": "+7 965 249-92-91", "opening_hours": "Mo-Su 11:00-23:00", "internet_access:fee": null, "internet_access": null, "contact:phone": null, "addr:street": null, "addr:postcode": null, "addr:housenumber": null, "addr:city": null, "name": "Братец Кролик" }, "geometry": { "type": "Point", "coordinates": [ 36.8568499, 55.7294167 ] } },
{ "type": "Feature", "properties": { "full_id": "n8439398885", "osm_id": "8439398885", "osm_type": "node", "amenity": "cafe", "full_name": null, "cafe": null, "shop": null, "name:ru": null, "contact:facebook": null, "brand:wikipedia": null, "brand:wikidata": null, "brand:ru": null, "brand:en": null, "brand": null, "level": null, "bar": null, "air_conditioning": null, "addr:floor": null, "entrance": null, "ref": null, "operator": null, "contact:vk": null, "delivery": null, "name:en": null, "outdoor_seating": null, "indoor_seating": null, "wheelchair": null, "contact:instagram": "https://www.instagram.com/traktir_yersh", "payment:visa": null, "payment:mastercard": null, "payment:cash": null, "old_name:en": null, "old_name": null, "drive_through": null, "diet:vegetarian": null, "contact:website": null, "contact:email": null, "capacity": null, "cuisine": null, "check_date": "2023-11-18", "website": null, "takeaway": null, "smoking": null, "phone": null, "opening_hours": "Mo-Su 10:00-24:00", "internet_access:fee": null, "internet_access": null, "contact:phone": "+79852334714", "addr:street": null, "addr:postcode": null, "addr:housenumber": null, "addr:city": null, "name": "Ёрш" }, "geometry": { "type": "Point", "coordinates": [ 36.856764, 55.7297908 ] } },
{ "type": "Feature", "properties": { "full_id": "n8439398894", "osm_id": "8439398894", "osm_type": "node", "amenity": "fast_food", "full_name": null, "cafe": null, "shop": null, "name:ru": "Додо Пицца", "contact:facebook": "https://www.facebook.com/dodopizza/", "brand:wikipedia": "ru:Додо Пицца", "brand:wikidata": "Q61949318", "brand:ru": "Додо Пицца", "brand:en": "Dodo Pizza", "brand": "Додо Пицца", "level": null, "bar": null, "air_conditioning": null, "addr:floor": null, "entrance": null, "ref": null, "operator": null, "contact:vk": "https://vk.com/dodo", "delivery": "yes", "name:en": "Dodo Pizza", "outdoor_seating": null, "indoor_seating": null, "wheelchair": null, "contact:instagram": "https://www.instagram.com/dodopizza", "payment:visa": null, "payment:mastercard": null, "payment:cash": null, "old_name:en": null, "old_name": null, "drive_through": null, "diet:vegetarian": "yes", "contact:website": "https://dodopizza.ru", "contact:email": "feedback@dodopizza.com", "capacity": null, "cuisine": "pizza", "check_date": "2023-11-18", "website": null, "takeaway": "yes", "smoking": null, "phone": null, "opening_hours": null, "internet_access:fee": null, "internet_access": null, "contact:phone": "+7 800 3020060", "addr:street": null, "addr:postcode": null, "addr:housenumber": null, "addr:city": null, "name": "Додо Пицца" }, "geometry": { "type": "Point", "coordinates": [ 36.8563529, 55.7297251 ] } },
{ "type": "Feature", "properties": { "full_id": "n8439398896", "osm_id": "8439398896", "osm_type": "node", "amenity": "cafe", "full_name": null, "cafe": null, "shop": null, "name:ru": null, "contact:facebook": null, "brand:wikipedia": null, "brand:wikidata": null, "brand:ru": null, "brand:en": null, "brand": null, "level": null, "bar": null, "air_conditioning": null, "addr:floor": null, "entrance": null, "ref": null, "operator": null, "contact:vk": null, "delivery": null, "name:en": null, "outdoor_seating": null, "indoor_seating": null, "wheelchair": null, "contact:instagram": null, "payment:visa": null, "payment:mastercard": null, "payment:cash": null, "old_name:en": null, "old_name": null, "drive_through": null, "diet:vegetarian": null, "contact:website": "https://pizzasushiwok.ru/", "contact:email": null, "capacity": null, "cuisine": null, "check_date": "2024-06-21", "website": null, "takeaway": null, "smoking": null, "phone": null, "opening_hours": null, "internet_access:fee": null, "internet_access": null, "contact:phone": null, "addr:street": null, "addr:postcode": null, "addr:housenumber": null, "addr:city": null, "name": "PizzaSushiWok" }, "geometry": { "type": "Point", "coordinates": [ 36.8556574, 55.729856 ] } },
{ "type": "Feature", "properties": { "full_id": "n8622671358", "osm_id": "8622671358", "osm_type": "node", "amenity": "fast_food", "full_name": null, "cafe": null, "shop": null, "name:ru": null, "contact:facebook": null, "brand:wikipedia": null, "brand:wikidata": null, "brand:ru": null, "brand:en": null, "brand": null, "level": null, "bar": null, "air_conditioning": null, "addr:floor": null, "entrance": null, "ref": null, "operator": null, "contact:vk": null, "delivery": null, "name:en": null, "outdoor_seating": null, "indoor_seating": null, "wheelchair": null, "contact:instagram": null, "payment:visa": null, "payment:mastercard": null, "payment:cash": null, "old_name:en": null, "old_name": null, "drive_through": null, "diet:vegetarian": null, "contact:website": null, "contact:email": null, "capacity": null, "cuisine": null, "check_date": null, "website": null, "takeaway": null, "smoking": null, "phone": null, "opening_hours": null, "internet_access:fee": null, "internet_access": null, "contact:phone": null, "addr:street": null, "addr:postcode": null, "addr:housenumber": null, "addr:city": null, "name": "Аппетитно" }, "geometry": { "type": "Point", "coordinates": [ 36.8627371, 55.728289 ] } },
{ "type": "Feature", "properties": { "full_id": "n8622671359", "osm_id": "8622671359", "osm_type": "node", "amenity": "cafe", "full_name": null, "cafe": null, "shop": null, "name:ru": null, "contact:facebook": null, "brand:wikipedia": null, "brand:wikidata": null, "brand:ru": null, "brand:en": null, "brand": null, "level": null, "bar": null, "air_conditioning": null, "addr:floor": null, "entrance": null, "ref": null, "operator": null, "contact:vk": null, "delivery": null, "name:en": null, "outdoor_seating": null, "indoor_seating": null, "wheelchair": null, "contact:instagram": null, "payment:visa": null, "payment:mastercard": null, "payment:cash": null, "old_name:en": null, "old_name": null, "drive_through": null, "diet:vegetarian": null, "contact:website": null, "contact:email": null, "capacity": null, "cuisine": "coffee_shop", "check_date": "2023-11-18", "website": null, "takeaway": null, "smoking": null, "phone": null, "opening_hours": null, "internet_access:fee": null, "internet_access": null, "contact:phone": null, "addr:street": null, "addr:postcode": null, "addr:housenumber": null, "addr:city": null, "name": "Coffee Bean" }, "geometry": { "type": "Point", "coordinates": [ 36.8620142, 55.7284544 ] } },
{ "type": "Feature", "properties": { "full_id": "n8623393019", "osm_id": "8623393019", "osm_type": "node", "amenity": "cafe", "full_name": null, "cafe": null, "shop": null, "name:ru": "Азия Микс", "contact:facebook": null, "brand:wikipedia": null, "brand:wikidata": null, "brand:ru": null, "brand:en": null, "brand": null, "level": null, "bar": null, "air_conditioning": "yes", "addr:floor": null, "entrance": null, "ref": null, "operator": null, "contact:vk": null, "delivery": null, "name:en": null, "outdoor_seating": "yes", "indoor_seating": "yes", "wheelchair": null, "contact:instagram": "https://www.instagram.com/asia.mix/", "payment:visa": null, "payment:mastercard": null, "payment:cash": null, "old_name:en": null, "old_name": null, "drive_through": null, "diet:vegetarian": null, "contact:website": "https://asiamixcafe.ru/", "contact:email": null, "capacity": null, "cuisine": "asian", "check_date": "2023-11-18", "website": null, "takeaway": null, "smoking": null, "phone": null, "opening_hours": "Mo-Su 10:00-23:00", "internet_access:fee": null, "internet_access": null, "contact:phone": "+7 977 365-30-35", "addr:street": null, "addr:postcode": null, "addr:housenumber": null, "addr:city": null, "name": "Asia Mix" }, "geometry": { "type": "Point", "coordinates": [ 36.8563347, 55.7294837 ] } },
{ "type": "Feature", "properties": { "full_id": "n8623393020", "osm_id": "8623393020", "osm_type": "node", "amenity": "cafe", "full_name": null, "cafe": null, "shop": "bakery", "name:ru": null, "contact:facebook": null, "brand:wikipedia": null, "brand:wikidata": null, "brand:ru": null, "brand:en": null, "brand": null, "level": null, "bar": null, "air_conditioning": null, "addr:floor": null, "entrance": null, "ref": null, "operator": null, "contact:vk": null, "delivery": null, "name:en": null, "outdoor_seating": null, "indoor_seating": null, "wheelchair": null, "contact:instagram": "https://www.instagram.com/hlebisir_zvenigorod/", "payment:visa": null, "payment:mastercard": null, "payment:cash": null, "old_name:en": null, "old_name": null, "drive_through": null, "diet:vegetarian": null, "contact:website": null, "contact:email": null, "capacity": null, "cuisine": null, "check_date": null, "website": null, "takeaway": null, "smoking": null, "phone": null, "opening_hours": null, "internet_access:fee": null, "internet_access": null, "contact:phone": null, "addr:street": null, "addr:postcode": null, "addr:housenumber": null, "addr:city": null, "name": "Хлеб и сыр" }, "geometry": { "type": "Point", "coordinates": [ 36.8565693, 55.7296068 ] } },
{ "type": "Feature", "properties": { "full_id": "n10970814607", "osm_id": "10970814607", "osm_type": "node", "amenity": "cafe", "full_name": null, "cafe": null, "shop": null, "name:ru": null, "contact:facebook": null, "brand:wikipedia": null, "brand:wikidata": null, "brand:ru": null, "brand:en": null, "brand": null, "level": null, "bar": null, "air_conditioning": null, "addr:floor": null, "entrance": null, "ref": null, "operator": null, "contact:vk": null, "delivery": null, "name:en": null, "outdoor_seating": null, "indoor_seating": null, "wheelchair": null, "contact:instagram": null, "payment:visa": null, "payment:mastercard": null, "payment:cash": null, "old_name:en": null, "old_name": null, "drive_through": null, "diet:vegetarian": null, "contact:website": null, "contact:email": null, "capacity": null, "cuisine": null, "check_date": null, "website": null, "takeaway": null, "smoking": null, "phone": null, "opening_hours": null, "internet_access:fee": null, "internet_access": null, "contact:phone": null, "addr:street": null, "addr:postcode": null, "addr:housenumber": null, "addr:city": null, "name": "Столовая \"Старый город\"" }, "geometry": { "type": "Point", "coordinates": [ 36.8526417, 55.7305251 ] } },
{ "type": "Feature", "properties": { "full_id": "n11360097285", "osm_id": "11360097285", "osm_type": "node", "amenity": "fast_food", "full_name": null, "cafe": null, "shop": null, "name:ru": "Суши Wok", "contact:facebook": null, "brand:wikipedia": null, "brand:wikidata": "Q25444754", "brand:ru": "Суши Wok", "brand:en": "Sushi Wok", "brand": "Суши Wok", "level": null, "bar": null, "air_conditioning": null, "addr:floor": null, "entrance": null, "ref": null, "operator": null, "contact:vk": null, "delivery": null, "name:en": "Sushi Wok", "outdoor_seating": null, "indoor_seating": null, "wheelchair": null, "contact:instagram": null, "payment:visa": null, "payment:mastercard": null, "payment:cash": null, "old_name:en": null, "old_name": null, "drive_through": null, "diet:vegetarian": null, "contact:website": null, "contact:email": null, "capacity": null, "cuisine": "asian", "check_date": "2023-11-18", "website": null, "takeaway": "yes", "smoking": null, "phone": null, "opening_hours": "10:00-23:00", "internet_access:fee": null, "internet_access": null, "contact:phone": null, "addr:street": null, "addr:postcode": null, "addr:housenumber": null, "addr:city": null, "name": "Суши Wok" }, "geometry": { "type": "Point", "coordinates": [ 36.8569058, 55.7300982 ] } },
{ "type": "Feature", "properties": { "full_id": "n11360097330", "osm_id": "11360097330", "osm_type": "node", "amenity": "cafe", "full_name": null, "cafe": null, "shop": null, "name:ru": null, "contact:facebook": null, "brand:wikipedia": null, "brand:wikidata": null, "brand:ru": null, "brand:en": null, "brand": null, "level": null, "bar": null, "air_conditioning": null, "addr:floor": null, "entrance": null, "ref": null, "operator": null, "contact:vk": null, "delivery": null, "name:en": null, "outdoor_seating": null, "indoor_seating": null, "wheelchair": null, "contact:instagram": null, "payment:visa": null, "payment:mastercard": null, "payment:cash": null, "old_name:en": null, "old_name": null, "drive_through": null, "diet:vegetarian": null, "contact:website": null, "contact:email": null, "capacity": null, "cuisine": "coffee_shop", "check_date": "2023-11-18", "website": null, "takeaway": null, "smoking": null, "phone": null, "opening_hours": "Mo-Fr 08:00-22:00; Sa-Su 10:00-21:00", "internet_access:fee": null, "internet_access": null, "contact:phone": null, "addr:street": null, "addr:postcode": null, "addr:housenumber": null, "addr:city": null, "name": "Coffee Moose" }, "geometry": { "type": "Point", "coordinates": [ 36.8600217, 55.7287461 ] } },
{ "type": "Feature", "properties": { "full_id": "n11360106374", "osm_id": "11360106374", "osm_type": "node", "amenity": "cafe", "full_name": "Анти-кафе «Вне времени»", "cafe": "time-cafe", "shop": null, "name:ru": null, "contact:facebook": null, "brand:wikipedia": null, "brand:wikidata": null, "brand:ru": null, "brand:en": null, "brand": null, "level": "-1", "bar": null, "air_conditioning": null, "addr:floor": "-1", "entrance": null, "ref": null, "operator": null, "contact:vk": null, "delivery": null, "name:en": null, "outdoor_seating": null, "indoor_seating": null, "wheelchair": "no", "contact:instagram": null, "payment:visa": null, "payment:mastercard": null, "payment:cash": null, "old_name:en": null, "old_name": null, "drive_through": null, "diet:vegetarian": null, "contact:website": null, "contact:email": null, "capacity": null, "cuisine": null, "check_date": "2023-11-18", "website": null, "takeaway": null, "smoking": null, "phone": null, "opening_hours": null, "internet_access:fee": null, "internet_access": null, "contact:phone": null, "addr:street": null, "addr:postcode": null, "addr:housenumber": null, "addr:city": null, "name": "Вне времени" }, "geometry": { "type": "Point", "coordinates": [ 36.8596281, 55.7286799 ] } },
{ "type": "Feature", "properties": { "full_id": "n11360259737", "osm_id": "11360259737", "osm_type": "node", "amenity": "fast_food", "full_name": null, "cafe": null, "shop": null, "name:ru": null, "contact:facebook": null, "brand:wikipedia": null, "brand:wikidata": null, "brand:ru": null, "brand:en": null, "brand": null, "level": null, "bar": null, "air_conditioning": null, "addr:floor": null, "entrance": null, "ref": null, "operator": null, "contact:vk": null, "delivery": null, "name:en": null, "outdoor_seating": null, "indoor_seating": null, "wheelchair": null, "contact:instagram": null, "payment:visa": null, "payment:mastercard": null, "payment:cash": null, "old_name:en": null, "old_name": null, "drive_through": null, "diet:vegetarian": null, "contact:website": null, "contact:email": null, "capacity": null, "cuisine": "pizza", "check_date": "2024-06-21", "website": null, "takeaway": null, "smoking": null, "phone": null, "opening_hours": null, "internet_access:fee": null, "internet_access": null, "contact:phone": null, "addr:street": null, "addr:postcode": null, "addr:housenumber": null, "addr:city": null, "name": "Scrochiarella" }, "geometry": { "type": "Point", "coordinates": [ 36.857497, 55.7297064 ] } },
{ "type": "Feature", "properties": { "full_id": "n11360259744", "osm_id": "11360259744", "osm_type": "node", "amenity": "cafe", "full_name": null, "cafe": null, "shop": null, "name:ru": null, "contact:facebook": null, "brand:wikipedia": null, "brand:wikidata": null, "brand:ru": null, "brand:en": null, "brand": null, "level": "0", "bar": null, "air_conditioning": null, "addr:floor": "1", "entrance": null, "ref": null, "operator": "ООО «Мидийное место Звенигород»", "contact:vk": null, "delivery": null, "name:en": null, "outdoor_seating": null, "indoor_seating": null, "wheelchair": null, "contact:instagram": null, "payment:visa": null, "payment:mastercard": null, "payment:cash": null, "old_name:en": null, "old_name": null, "drive_through": null, "diet:vegetarian": null, "contact:website": "https://www.midiynoe-mesto.ru", "contact:email": "midiya.1@yandex.ru", "capacity": null, "cuisine": "seafood", "check_date": "2024-06-21", "website": null, "takeaway": null, "smoking": null, "phone": null, "opening_hours": "11:00-23:00", "internet_access:fee": null, "internet_access": null, "contact:phone": "+7 905 5431331", "addr:street": null, "addr:postcode": null, "addr:housenumber": null, "addr:city": null, "name": "Мидийное место" }, "geometry": { "type": "Point", "coordinates": [ 36.8609848, 55.7288875 ] } },
{ "type": "Feature", "properties": { "full_id": "n11360276909", "osm_id": "11360276909", "osm_type": "node", "amenity": "cafe", "full_name": null, "cafe": null, "shop": null, "name:ru": null, "contact:facebook": null, "brand:wikipedia": null, "brand:wikidata": null, "brand:ru": null, "brand:en": null, "brand": null, "level": null, "bar": null, "air_conditioning": null, "addr:floor": null, "entrance": null, "ref": null, "operator": null, "contact:vk": null, "delivery": null, "name:en": null, "outdoor_seating": null, "indoor_seating": null, "wheelchair": "no", "contact:instagram": null, "payment:visa": null, "payment:mastercard": null, "payment:cash": null, "old_name:en": null, "old_name": null, "drive_through": null, "diet:vegetarian": null, "contact:website": null, "contact:email": null, "capacity": null, "cuisine": null, "check_date": "2023-11-18", "website": null, "takeaway": null, "smoking": null, "phone": null, "opening_hours": "Mo-Th 09:00-21:00; Fr-Su 09:00-22:00", "internet_access:fee": null, "internet_access": null, "contact:phone": null, "addr:street": null, "addr:postcode": null, "addr:housenumber": null, "addr:city": null, "name": "Пончик и чай" }, "geometry": { "type": "Point", "coordinates": [ 36.8566283, 55.729801 ] } },
{ "type": "Feature", "properties": { "full_id": "n11360276921", "osm_id": "11360276921", "osm_type": "node", "amenity": "cafe", "full_name": null, "cafe": null, "shop": null, "name:ru": null, "contact:facebook": null, "brand:wikipedia": null, "brand:wikidata": null, "brand:ru": null, "brand:en": null, "brand": null, "level": null, "bar": null, "air_conditioning": null, "addr:floor": null, "entrance": null, "ref": null, "operator": null, "contact:vk": null, "delivery": null, "name:en": null, "outdoor_seating": null, "indoor_seating": null, "wheelchair": null, "contact:instagram": null, "payment:visa": null, "payment:mastercard": null, "payment:cash": null, "old_name:en": null, "old_name": null, "drive_through": null, "diet:vegetarian": null, "contact:website": null, "contact:email": null, "capacity": null, "cuisine": "coffee_shop", "check_date": "2023-11-18", "website": null, "takeaway": null, "smoking": null, "phone": null, "opening_hours": "Mo-Fr 08:00-22:00; Sa-Su 10:00-21:00", "internet_access:fee": null, "internet_access": null, "contact:phone": null, "addr:street": null, "addr:postcode": null, "addr:housenumber": null, "addr:city": null, "name": "Coffee Moose" }, "geometry": { "type": "Point", "coordinates": [ 36.8600216, 55.7287461 ] } },
{ "type": "Feature", "properties": { "full_id": "n11360276925", "osm_id": "11360276925", "osm_type": "node", "amenity": "cafe", "full_name": "Анти-кафе «Вне времени»", "cafe": "time-cafe", "shop": null, "name:ru": null, "contact:facebook": null, "brand:wikipedia": null, "brand:wikidata": null, "brand:ru": null, "brand:en": null, "brand": null, "level": "-1", "bar": null, "air_conditioning": null, "addr:floor": "-1", "entrance": null, "ref": null, "operator": null, "contact:vk": null, "delivery": null, "name:en": null, "outdoor_seating": null, "indoor_seating": null, "wheelchair": "no", "contact:instagram": null, "payment:visa": null, "payment:mastercard": null, "payment:cash": null, "old_name:en": null, "old_name": null, "drive_through": null, "diet:vegetarian": null, "contact:website": null, "contact:email": null, "capacity": null, "cuisine": null, "check_date": "2023-11-18", "website": null, "takeaway": null, "smoking": null, "phone": null, "opening_hours": null, "internet_access:fee": null, "internet_access": null, "contact:phone": null, "addr:street": null, "addr:postcode": null, "addr:housenumber": null, "addr:city": null, "name": "Вне времени" }, "geometry": { "type": "Point", "coordinates": [ 36.859628, 55.7286798 ] } },
{ "type": "Feature", "properties": { "full_id": "n11572633579", "osm_id": "11572633579", "osm_type": "node", "amenity": "fast_food", "full_name": null, "cafe": null, "shop": null, "name:ru": null, "contact:facebook": null, "brand:wikipedia": null, "brand:wikidata": null, "brand:ru": null, "brand:en": null, "brand": null, "level": null, "bar": null, "air_conditioning": null, "addr:floor": null, "entrance": null, "ref": null, "operator": null, "contact:vk": null, "delivery": null, "name:en": null, "outdoor_seating": null, "indoor_seating": null, "wheelchair": null, "contact:instagram": null, "payment:visa": null, "payment:mastercard": null, "payment:cash": null, "old_name:en": null, "old_name": null, "drive_through": null, "diet:vegetarian": null, "contact:website": "https://kioto.pro/zvenigorod", "contact:email": "Kioto.zvenigorod@mail.ru", "capacity": null, "cuisine": "sushi", "check_date": null, "website": null, "takeaway": null, "smoking": null, "phone": null, "opening_hours": "Mo-Su 11:00-23:00", "internet_access:fee": null, "internet_access": null, "contact:phone": "+7 495 7775797;+7 926 0217555", "addr:street": null, "addr:postcode": null, "addr:housenumber": null, "addr:city": null, "name": "Киото" }, "geometry": { "type": "Point", "coordinates": [ 36.8566954, 55.7369026 ] } },
{ "type": "Feature", "properties": { "full_id": "n12001082648", "osm_id": "12001082648", "osm_type": "node", "amenity": null, "full_name": null, "cafe": null, "shop": null, "name:ru": null, "contact:facebook": null, "brand:wikipedia": null, "brand:wikidata": null, "brand:ru": null, "brand:en": null, "brand": null, "level": null, "bar": null, "air_conditioning": null, "addr:floor": null, "entrance": "yes", "ref": null, "operator": null, "contact:vk": null, "delivery": null, "name:en": null, "outdoor_seating": null, "indoor_seating": null, "wheelchair": null, "contact:instagram": null, "payment:visa": null, "payment:mastercard": null, "payment:cash": null, "old_name:en": null, "old_name": null, "drive_through": null, "diet:vegetarian": null, "contact:website": null, "contact:email": null, "capacity": null, "cuisine": null, "check_date": null, "website": null, "takeaway": null, "smoking": null, "phone": null, "opening_hours": null, "internet_access:fee": null, "internet_access": null, "contact:phone": null, "addr:street": null, "addr:postcode": null, "addr:housenumber": null, "addr:city": null, "name": null }, "geometry": { "type": "Point", "coordinates": [ 36.811217, 55.7350882 ] } },
{ "type": "Feature", "properties": { "full_id": "n12613400398", "osm_id": "12613400398", "osm_type": "node", "amenity": "restaurant", "full_name": null, "cafe": null, "shop": null, "name:ru": null, "contact:facebook": null, "brand:wikipedia": null, "brand:wikidata": null, "brand:ru": null, "brand:en": null, "brand": "BOSS", "level": null, "bar": null, "air_conditioning": null, "addr:floor": null, "entrance": null, "ref": null, "operator": null, "contact:vk": null, "delivery": null, "name:en": null, "outdoor_seating": null, "indoor_seating": null, "wheelchair": null, "contact:instagram": null, "payment:visa": null, "payment:mastercard": null, "payment:cash": null, "old_name:en": null, "old_name": null, "drive_through": null, "diet:vegetarian": null, "contact:website": null, "contact:email": null, "capacity": null, "cuisine": null, "check_date": null, "website": "https://bossbar.online/", "takeaway": null, "smoking": null, "phone": "+79854447070", "opening_hours": null, "internet_access:fee": null, "internet_access": null, "contact:phone": null, "addr:street": "Московская улица", "addr:postcode": null, "addr:housenumber": "17", "addr:city": "Звенигород", "name": "Boss" }, "geometry": { "type": "Point", "coordinates": [ 36.8559186, 55.7301322 ] } },
{ "type": "Feature", "properties": { "full_id": "n12620052396", "osm_id": "12620052396", "osm_type": "node", "amenity": "fast_food", "full_name": null, "cafe": null, "shop": null, "name:ru": null, "contact:facebook": null, "brand:wikipedia": null, "brand:wikidata": null, "brand:ru": null, "brand:en": null, "brand": null, "level": null, "bar": null, "air_conditioning": null, "addr:floor": null, "entrance": null, "ref": null, "operator": null, "contact:vk": null, "delivery": null, "name:en": null, "outdoor_seating": null, "indoor_seating": null, "wheelchair": null, "contact:instagram": null, "payment:visa": null, "payment:mastercard": null, "payment:cash": null, "old_name:en": null, "old_name": null, "drive_through": null, "diet:vegetarian": null, "contact:website": "https://zvenigorod.mokkano.ru", "contact:email": "help@mokkano.ru", "capacity": null, "cuisine": "sushi", "check_date": null, "website": null, "takeaway": null, "smoking": null, "phone": null, "opening_hours": "Fr-Su 11:00-23:00; Mo-Th 11:00-22:45", "internet_access:fee": null, "internet_access": null, "contact:phone": "+7 499 3023015", "addr:street": null, "addr:postcode": null, "addr:housenumber": null, "addr:city": null, "name": "Моккано" }, "geometry": { "type": "Point", "coordinates": [ 36.8559571, 55.7295388 ] } },
{ "type": "Feature", "properties": { "full_id": "n13342811402", "osm_id": "13342811402", "osm_type": "node", "amenity": "cafe", "full_name": null, "cafe": null, "shop": null, "name:ru": null, "contact:facebook": null, "brand:wikipedia": null, "brand:wikidata": null, "brand:ru": null, "brand:en": null, "brand": null, "level": null, "bar": null, "air_conditioning": null, "addr:floor": null, "entrance": null, "ref": null, "operator": null, "contact:vk": null, "delivery": null, "name:en": null, "outdoor_seating": null, "indoor_seating": null, "wheelchair": null, "contact:instagram": null, "payment:visa": null, "payment:mastercard": null, "payment:cash": null, "old_name:en": null, "old_name": null, "drive_through": null, "diet:vegetarian": null, "contact:website": null, "contact:email": null, "capacity": null, "cuisine": "coffee_shop", "check_date": null, "website": "http://domcoffelove.ru", "takeaway": null, "smoking": null, "phone": null, "opening_hours": "Mo-Fr 08:00-22:00; Sa-Su 09:00-22:00", "internet_access:fee": null, "internet_access": null, "contact:phone": null, "addr:street": "Московская улица", "addr:postcode": null, "addr:housenumber": "10", "addr:city": null, "name": "Дом" }, "geometry": { "type": "Point", "coordinates": [ 36.8525893, 55.730258 ] } },
{ "type": "Feature", "properties": { "full_id": "n13502985601", "osm_id": "13502985601", "osm_type": "node", "amenity": "cafe", "full_name": null, "cafe": null, "shop": null, "name:ru": null, "contact:facebook": null, "brand:wikipedia": null, "brand:wikidata": null, "brand:ru": null, "brand:en": null, "brand": null, "level": null, "bar": null, "air_conditioning": null, "addr:floor": null, "entrance": null, "ref": null, "operator": null, "contact:vk": null, "delivery": null, "name:en": null, "outdoor_seating": null, "indoor_seating": null, "wheelchair": null, "contact:instagram": null, "payment:visa": null, "payment:mastercard": null, "payment:cash": null, "old_name:en": null, "old_name": null, "drive_through": null, "diet:vegetarian": null, "contact:website": null, "contact:email": null, "capacity": null, "cuisine": null, "check_date": null, "website": null, "takeaway": null, "smoking": null, "phone": null, "opening_hours": null, "internet_access:fee": null, "internet_access": null, "contact:phone": null, "addr:street": "Московская улица", "addr:postcode": null, "addr:housenumber": null, "addr:city": null, "name": "Кофейня \"ДОМ\"" }, "geometry": { "type": "Point", "coordinates": [ 36.8523899, 55.7302855 ] } }
]
}
