{
"type": "FeatureCollection",
"name": "food",
"crs": { "type": "name", "properties": { "name": "urn:ogc:def:crs:OGC:1.3:CRS84" } },
"features": [
{ "type": "Feature", "properties": { "full_id": "n334760277", "osm_id": "334760277", "osm_type": "node", "amenity": null, "religion": null, "access:conditional": null, "foot": null, "bicycle": null, "traffic_signals:direction": null, "public_transport": null, "bus": null, "start_date": null, "ref:temples.ru": null, "ref:sobory.ru": null, "name:ru": null, "denomination": null, "community:gender": null, "traffic_signals:vibration": null, "traffic_signals:sound": null, "highway": null, "crossing:island": null, "crossing": null, "button_operated": null, "access": null, "wikipedia": null, "wikidata": null, "name": null, "entrance": null, "motor_vehicle": null, "barrier": null }, "geometry": { "type": "Point", "coordinates": [ 37.3850513, 55.8093072 ] } },
{ "type": "Feature", "properties": { "full_id": "n673245436", "osm_id": "673245436", "osm_type": "node", "amenity": null, "religion": null, "access:conditional": null, "foot": null, "bicycle": null, "traffic_signals:direction": null, "public_transport": null, "bus": null, "start_date": null, "ref:temples.ru": null, "ref:sobory.ru": null, "name:ru": null, "denomination": null, "community:gender": null, "traffic_signals:vibration": null, "traffic_signals:sound": null, "highway": null, "crossing:island": null, "crossing": null, "button_operated": null, "access": null, "wikipedia": null, "wikidata": null, "name": null, "entrance": null, "motor_vehicle": null, "barrier": "gate" }, "geometry": { "type": "Point", "coordinates": [ 37.3729761, 55.8074873 ] } },
{ "type": "Feature", "properties": { "full_id": "n977855731", "osm_id": "977855731", "osm_type": "node", "amenity": null, "religion": null, "access:conditional": null, "foot": null, "bicycle": null, "traffic_signals:direction": null, "public_transport": null, "bus": null, "start_date": null, "ref:temples.ru": null, "ref:sobory.ru": null, "name:ru": null, "denomination": null, "community:gender": null, "traffic_signals:vibration": null, "traffic_signals:sound": null, "highway": null, "crossing:island": null, "crossing": null, "button_operated": null, "access": null, "wikipedia": null, "wikidata": null, "name": null, "entrance": null, "motor_vehicle": null, "barrier": null }, "geometry": { "type": "Point", "coordinates": [ 37.4021617, 55.6988389 ] } },
{ "type": "Feature", "properties": { "full_id": "n1011639485", "osm_id": "1011639485", "osm_type": "node", "amenity": null, "religion": null, "access:conditional": null, "foot": null, "bicycle": null, "traffic_signals:direction": null, "public_transport": null, "bus": null, "start_date": null, "ref:temples.ru": null, "ref:sobory.ru": null, "name:ru": null, "denomination": null, "community:gender": null, "traffic_signals:vibration": null, "traffic_signals:sound": null, "highway": null, "crossing:island": null, "crossing": null, "button_operated": null, "access": null, "wikipedia": null, "wikidata": null, "name": null, "entrance": null, "motor_vehicle": "delivery", "barrier": "lift_gate" }, "geometry": { "type": "Point", "coordinates": [ 37.3203502, 55.8003887 ] } },
{ "type": "Feature", "properties": { "full_id": "n1168499275", "osm_id": "1168499275", "osm_type": "node", "amenity": null, "religion": null, "access:conditional": null, "foot": null, "bicycle": null, "traffic_signals:direction": null, "public_transport": null, "bus": null, "start_date": null, "ref:temples.ru": null, "ref:sobory.ru": null, "name:ru": null, "denomination": null, "community:gender": null, "traffic_signals:vibration": "no", "traffic_signals:sound": "yes", "highway": "crossing", "crossing:island": "no", "crossing": "traffic_signals", "button_operated": "no", "access": null, "wikipedia": null, "wikidata": null, "name": null, "entrance": null, "motor_vehicle": null, "barrier": null }, "geometry": { "type": "Point", "coordinates": [ 37.4545089, 55.709095 ] } },
{ "type": "Feature", "properties": { "full_id": "n1364615754", "osm_id": "1364615754", "osm_type": "node", "amenity": null, "religion": null, "access:conditional": null, "foot": null, "bicycle": null, "traffic_signals:direction": null, "public_transport": null, "bus": null, "start_date": null, "ref:temples.ru": null, "ref:sobory.ru": null, "name:ru": null, "denomination": null, "community:gender": null, "traffic_signals:vibration": null, "traffic_signals:sound": null, "highway": null, "crossing:island": null, "crossing": null, "button_operated": null, "access": null, "wikipedia": null, "wikidata": null, "name": null, "entrance": null, "motor_vehicle": null, "barrier": null }, "geometry": { "type": "Point", "coordinates": [ 37.3772042, 55.7290798 ] } },
{ "type": "Feature", "properties": { "full_id": "n1693317866", "osm_id": "1693317866", "osm_type": "node", "amenity": null, "religion": null, "access:conditional": null, "foot": null, "bicycle": null, "traffic_signals:direction": null, "public_transport": null, "bus": null, "start_date": null, "ref:temples.ru": null, "ref:sobory.ru": null, "name:ru": null, "denomination": null, "community:gender": null, "traffic_signals:vibration": null, "traffic_signals:sound": null, "highway": null, "crossing:island": null, "crossing": null, "button_operated": null, "access": null, "wikipedia": null, "wikidata": null, "name": null, "entrance": null, "motor_vehicle": null, "barrier": null }, "geometry": { "type": "Point", "coordinates": [ 37.3653882, 55.7718121 ] } },
{ "type": "Feature", "properties": { "full_id": "n2081317284", "osm_id": "2081317284", "osm_type": "node", "amenity": null, "religion": null, "access:conditional": null, "foot": null, "bicycle": null, "traffic_signals:direction": null, "public_transport": null, "bus": null, "start_date": null, "ref:temples.ru": null, "ref:sobory.ru": null, "name:ru": null, "denomination": null, "community:gender": null, "traffic_signals:vibration": null, "traffic_signals:sound": null, "highway": "crossing", "crossing:island": null, "crossing": "uncontrolled", "button_operated": null, "access": null, "wikipedia": null, "wikidata": null, "name": null, "entrance": null, "motor_vehicle": null, "barrier": null }, "geometry": { "type": "Point", "coordinates": [ 37.4486773, 55.7093511 ] } },
{ "type": "Feature", "properties": { "full_id": "n2565946442", "osm_id": "2565946442", "osm_type": "node", "amenity": null, "religion": null, "access:conditional": null, "foot": null, "bicycle": null, "traffic_signals:direction": null, "public_transport": "stop_position", "bus": "yes", "start_date": null, "ref:temples.ru": null, "ref:sobory.ru": null, "name:ru": null, "denomination": null, "community:gender": null, "traffic_signals:vibration": null, "traffic_signals:sound": null, "highway": null, "crossing:island": null, "crossing": null, "button_operated": null, "access": null, "wikipedia": null, "wikidata": null, "name": "Аминьево", "entrance": null, "motor_vehicle": null, "barrier": null }, "geometry": { "type": "Point", "coordinates": [ 37.4492588, 55.7094672 ] } },
{ "type": "Feature", "properties": { "full_id": "n3942321318", "osm_id": "3942321318", "osm_type": "node", "amenity": null, "religion": null, "access:conditional": null, "foot": null, "bicycle": null, "traffic_signals:direction": null, "public_transport": null, "bus": null, "start_date": null, "ref:temples.ru": null, "ref:sobory.ru": null, "name:ru": null, "denomination": null, "community:gender": null, "traffic_signals:vibration": null, "traffic_signals:sound": null, "highway": null, "crossing:island": null, "crossing": null, "button_operated": null, "access": null, "wikipedia": null, "wikidata": null, "name": null, "entrance": null, "motor_vehicle": null, "barrier": "gate" }, "geometry": { "type": "Point", "coordinates": [ 37.3672629, 55.6912203 ] } },
{ "type": "Feature", "properties": { "full_id": "n4303004662", "osm_id": "4303004662", "osm_type": "node", "amenity": null, "religion": null, "access:conditional": null, "foot": null, "bicycle": null, "traffic_signals:direction": null, "public_transport": null, "bus": null, "start_date": null, "ref:temples.ru": null, "ref:sobory.ru": null, "name:ru": null, "denomination": null, "community:gender": null, "traffic_signals:vibration": null, "traffic_signals:sound": null, "highway": "crossing", "crossing:island": null, "crossing": null, "button_operated": null, "access": null, "wikipedia": null, "wikidata": null, "name": null, "entrance": null, "motor_vehicle": null, "barrier": null }, "geometry": { "type": "Point", "coordinates": [ 37.3588167, 55.78206 ] } },
{ "type": "Feature", "properties": { "full_id": "n4353294242", "osm_id": "4353294242", "osm_type": "node", "amenity": null, "religion": null, "access:conditional": null, "foot": null, "bicycle": null, "traffic_signals:direction": null, "public_transport": null, "bus": null, "start_date": null, "ref:temples.ru": null, "ref:sobory.ru": null, "name:ru": null, "denomination": null, "community:gender": null, "traffic_signals:vibration": null, "traffic_signals:sound": null, "highway": null, "crossing:island": null, "crossing": null, "button_operated": null, "access": "private", "wikipedia": null, "wikidata": null, "name": null, "entrance": null, "motor_vehicle": null, "barrier": "gate" }, "geometry": { "type": "Point", "coordinates": [ 37.3301859, 55.6818282 ] } },
{ "type": "Feature", "properties": { "full_id": "n4353294284", "osm_id": "4353294284", "osm_type": "node", "amenity": null, "religion": null, "access:conditional": null, "foot": null, "bicycle": null, "traffic_signals:direction": null, "public_transport": null, "bus": null, "start_date": null, "ref:temples.ru": null, "ref:sobory.ru": null, "name:ru": null, "denomination": null, "community:gender": null, "traffic_signals:vibration": null, "traffic_signals:sound": null, "highway": null, "crossing:island": null, "crossing": null, "button_operated": null, "access": "private", "wikipedia": null, "wikidata": null, "name": null, "entrance": null, "motor_vehicle": null, "barrier": "gate" }, "geometry": { "type": "Point", "coordinates": [ 37.3277389, 55.6835881 ] } },
{ "type": "Feature", "properties": { "full_id": "n4630567353", "osm_id": "4630567353", "osm_type": "node", "amenity": null, "religion": null, "access:conditional": null, "foot": null, "bicycle": null, "traffic_signals:direction": null, "public_transport": null, "bus": null, "start_date": null, "ref:temples.ru": null, "ref:sobory.ru": null, "name:ru": null, "denomination": null, "community:gender": null, "traffic_signals:vibration": null, "traffic_signals:sound": null, "highway": null, "crossing:island": null, "crossing": null, "button_operated": null, "access": "no", "wikipedia": null, "wikidata": null, "name": null, "entrance": null, "motor_vehicle": null, "barrier": "gate" }, "geometry": { "type": "Point", "coordinates": [ 37.3553748, 55.7005137 ] } },
{ "type": "Feature", "properties": { "full_id": "n4630570689", "osm_id": "4630570689", "osm_type": "node", "amenity": null, "religion": null, "access:conditional": null, "foot": null, "bicycle": null, "traffic_signals:direction": null, "public_transport": null, "bus": null, "start_date": null, "ref:temples.ru": null, "ref:sobory.ru": null, "name:ru": null, "denomination": null, "community:gender": null, "traffic_signals:vibration": null, "traffic_signals:sound": null, "highway": null, "crossing:island": null, "crossing": null, "button_operated": null, "access": "yes", "wikipedia": null, "wikidata": null, "name": null, "entrance": null, "motor_vehicle": null, "barrier": "gate" }, "geometry": { "type": "Point", "coordinates": [ 37.3556726, 55.7041767 ] } },
{ "type": "Feature", "properties": { "full_id": "n4902804991", "osm_id": "4902804991", "osm_type": "node", "amenity": null, "religion": null, "access:conditional": null, "foot": null, "bicycle": null, "traffic_signals:direction": "forward", "public_transport": null, "bus": null, "start_date": null, "ref:temples.ru": null, "ref:sobory.ru": null, "name:ru": null, "denomination": null, "community:gender": null, "traffic_signals:vibration": null, "traffic_signals:sound": null, "highway": "traffic_signals", "crossing:island": null, "crossing": null, "button_operated": null, "access": null, "wikipedia": null, "wikidata": null, "name": null, "entrance": null, "motor_vehicle": null, "barrier": null }, "geometry": { "type": "Point", "coordinates": [ 37.4544181, 55.7091031 ] } },
{ "type": "Feature", "properties": { "full_id": "n5340537045", "osm_id": "5340537045", "osm_type": "node", "amenity": null, "religion": null, "access:conditional": null, "foot": null, "bicycle": null, "traffic_signals:direction": null, "public_transport": null, "bus": null, "start_date": null, "ref:temples.ru": null, "ref:sobory.ru": null, "name:ru": null, "denomination": null, "community:gender": null, "traffic_signals:vibration": null, "traffic_signals:sound": null, "highway": "crossing", "crossing:island": null, "crossing": "uncontrolled", "button_operated": null, "access": null, "wikipedia": null, "wikidata": null, "name": null, "entrance": null, "motor_vehicle": null, "barrier": null }, "geometry": { "type": "Point", "coordinates": [ 37.3594889, 55.7839671 ] } },
{ "type": "Feature", "properties": { "full_id": "n10816943659", "osm_id": "10816943659", "osm_type": "node", "amenity": null, "religion": null, "access:conditional": null, "foot": "yes", "bicycle": "yes", "traffic_signals:direction": null, "public_transport": null, "bus": null, "start_date": null, "ref:temples.ru": null, "ref:sobory.ru": null, "name:ru": null, "denomination": null, "community:gender": null, "traffic_signals:vibration": null, "traffic_signals:sound": null, "highway": null, "crossing:island": null, "crossing": null, "button_operated": null, "access": null, "wikipedia": null, "wikidata": null, "name": null, "entrance": null, "motor_vehicle": null, "barrier": "entrance" }, "geometry": { "type": "Point", "coordinates": [ 37.3631736, 55.7007258 ] } },
{ "type": "Feature", "properties": { "full_id": "n10828855048", "osm_id": "10828855048", "osm_type": "node", "amenity": null, "religion": null, "access:conditional": null, "foot": null, "bicycle": null, "traffic_signals:direction": null, "public_transport": "stop_position", "bus": "yes", "start_date": null, "ref:temples.ru": null, "ref:sobory.ru": null, "name:ru": null, "denomination": null, "community:gender": null, "traffic_signals:vibration": null, "traffic_signals:sound": null, "highway": null, "crossing:island": null, "crossing": null, "button_operated": null, "access": null, "wikipedia": null, "wikidata": null, "name": "Аминьево", "entrance": null, "motor_vehicle": null, "barrier": null }, "geometry": { "type": "Point", "coordinates": [ 37.4485246, 55.7088756 ] } },
{ "type": "Feature", "properties": { "full_id": "n11710992865", "osm_id": "11710992865", "osm_type": "node", "amenity": null, "religion": null, "access:conditional": "no @ (Mo-Su 21:30-07:00)", "foot": null, "bicycle": null, "traffic_signals:direction": null, "public_transport": null, "bus": null, "start_date": null, "ref:temples.ru": null, "ref:sobory.ru": null, "name:ru": null, "denomination": null, "community:gender": null, "traffic_signals:vibration": null, "traffic_signals:sound": null, "highway": null, "crossing:island": null, "crossing": null, "button_operated": null, "access": null, "wikipedia": null, "wikidata": null, "name": null, "entrance": null, "motor_vehicle": null, "barrier": "gate" }, "geometry": { "type": "Point", "coordinates": [ 37.3535713, 55.7004573 ] } },
{ "type": "Feature", "properties": { "full_id": "n11928545968", "osm_id": "11928545968", "osm_type": "node", "amenity": null, "religion": null, "access:conditional": null, "foot": null, "bicycle": null, "traffic_signals:direction": null, "public_transport": null, "bus": null, "start_date": null, "ref:temples.ru": null, "ref:sobory.ru": null, "name:ru": null, "denomination": null, "community:gender": null, "traffic_signals:vibration": null, "traffic_signals:sound": null, "highway": null, "crossing:island": null, "crossing": null, "button_operated": null, "access": "private", "wikipedia": null, "wikidata": null, "name": null, "entrance": null, "motor_vehicle": null, "barrier": "gate" }, "geometry": { "type": "Point", "coordinates": [ 37.328777, 55.6844884 ] } },
{ "type": "Feature", "properties": { "full_id": "w175852915", "osm_id": "175852915", "osm_type": "way", "amenity": "place_of_worship", "religion": "christian", "access:conditional": null, "foot": null, "bicycle": null, "traffic_signals:direction": null, "public_transport": null, "bus": null, "start_date": "1805..1823", "ref:temples.ru": "2593", "ref:sobory.ru": null, "name:ru": null, "denomination": "russian_orthodox", "community:gender": null, "traffic_signals:vibration": null, "traffic_signals:sound": null, "highway": null, "crossing:island": null, "crossing": null, "button_operated": null, "access": null, "wikipedia": null, "wikidata": null, "name": "Церковь Рождества Христова", "entrance": null, "motor_vehicle": null, "barrier": null }, "geometry": { "type": "Point", "coordinates": [ 36.83535124300392, 55.725615212689249 ] } },
{ "type": "Feature", "properties": { "full_id": "w236513632", "osm_id": "236513632", "osm_type": "way", "amenity": "place_of_worship", "religion": "christian", "access:conditional": null, "foot": null, "bicycle": null, "traffic_signals:direction": null, "public_transport": null, "bus": null, "start_date": null, "ref:temples.ru": null, "ref:sobory.ru": null, "name:ru": null, "denomination": "baptist", "community:gender": null, "traffic_signals:vibration": null, "traffic_signals:sound": null, "highway": null, "crossing:island": null, "crossing": null, "button_operated": null, "access": null, "wikipedia": null, "wikidata": null, "name": "Church of Evangelical Christian Baptist", "entrance": null, "motor_vehicle": null, "barrier": null }, "geometry": { "type": "Point", "coordinates": [ 36.84585715, 55.7374308 ] } },
{ "type": "Feature", "properties": { "full_id": "w175840798", "osm_id": "175840798", "osm_type": "way", "amenity": "place_of_worship", "religion": "christian", "access:conditional": null, "foot": null, "bicycle": null, "traffic_signals:direction": null, "public_transport": null, "bus": null, "start_date": "mid 1990s", "ref:temples.ru": "2594", "ref:sobory.ru": null, "name:ru": null, "denomination": "russian_orthodox", "community:gender": null, "traffic_signals:vibration": null, "traffic_signals:sound": null, "highway": null, "crossing:island": null, "crossing": null, "button_operated": null, "access": null, "wikipedia": null, "wikidata": null, "name": "Церковь Воскресения Христова", "entrance": null, "motor_vehicle": null, "barrier": null }, "geometry": { "type": "Point", "coordinates": [ 36.845272816649647, 55.723364799906193 ] } },
{ "type": "Feature", "properties": { "full_id": "w309140157", "osm_id": "309140157", "osm_type": "way", "amenity": "place_of_worship", "religion": "christian", "access:conditional": null, "foot": null, "bicycle": null, "traffic_signals:direction": null, "public_transport": null, "bus": null, "start_date": "2000..2002", "ref:temples.ru": "2591", "ref:sobory.ru": null, "name:ru": null, "denomination": "russian_orthodox", "community:gender": null, "traffic_signals:vibration": null, "traffic_signals:sound": null, "highway": null, "crossing:island": null, "crossing": null, "button_operated": null, "access": null, "wikipedia": null, "wikidata": null, "name": "Церковь Богоявления Господня", "entrance": null, "motor_vehicle": null, "barrier": null }, "geometry": { "type": "Point", "coordinates": [ 36.84068525, 55.73295575 ] } },
{ "type": "Feature", "properties": { "full_id": "w332176127", "osm_id": "332176127", "osm_type": "way", "amenity": "place_of_worship", "religion": "christian", "access:conditional": null, "foot": null, "bicycle": null, "traffic_signals:direction": null, "public_transport": null, "bus": null, "start_date": "2003..2007", "ref:temples.ru": "2499", "ref:sobory.ru": null, "name:ru": "Церковь Вознесения Господня", "denomination": "russian_orthodox", "community:gender": null, "traffic_signals:vibration": null, "traffic_signals:sound": null, "highway": null, "crossing:island": null, "crossing": null, "button_operated": null, "access": null, "wikipedia": null, "wikidata": null, "name": "Церковь Вознесения Господня", "entrance": null, "motor_vehicle": null, "barrier": null }, "geometry": { "type": "Point", "coordinates": [ 36.85120705, 55.7302914 ] } },
{ "type": "Feature", "properties": { "full_id": "w309140156", "osm_id": "309140156", "osm_type": "way", "amenity": "place_of_worship", "religion": "christian", "access:conditional": null, "foot": null, "bicycle": null, "traffic_signals:direction": null, "public_transport": null, "bus": null, "start_date": "1390s", "ref:temples.ru": "2590", "ref:sobory.ru": null, "name:ru": null, "denomination": "russian_orthodox", "community:gender": null, "traffic_signals:vibration": null, "traffic_signals:sound": null, "highway": null, "crossing:island": null, "crossing": null, "button_operated": null, "access": null, "wikipedia": "ru:Успенский собор на Городке", "wikidata": "Q4478069", "name": "Собор Успения Пресвятой Богородицы", "entrance": null, "motor_vehicle": null, "barrier": null }, "geometry": { "type": "Point", "coordinates": [ 36.84022855, 55.7331062 ] } },
{ "type": "Feature", "properties": { "full_id": "w52506468", "osm_id": "52506468", "osm_type": "way", "amenity": "place_of_worship", "religion": "christian", "access:conditional": null, "foot": null, "bicycle": null, "traffic_signals:direction": null, "public_transport": null, "bus": null, "start_date": "1898..1902", "ref:temples.ru": "2592", "ref:sobory.ru": "00495", "name:ru": "Церковь Александра Невского", "denomination": "russian_orthodox", "community:gender": null, "traffic_signals:vibration": null, "traffic_signals:sound": null, "highway": null, "crossing:island": null, "crossing": null, "button_operated": null, "access": null, "wikipedia": null, "wikidata": null, "name": "Церковь Александра Невского", "entrance": null, "motor_vehicle": null, "barrier": null }, "geometry": { "type": "Point", "coordinates": [ 36.860539550873071, 55.729405888657645 ] } }
]
}
