{
"type": "FeatureCollection",
"name": "game",
"crs": { "type": "name", "properties": { "name": "urn:ogc:def:crs:OGC:1.3:CRS84" } },
"features": [
{ "type": "Feature", "properties": { "full_id": "n1336015950", "osm_id": "1336015950", "osm_type": "node", "amenity": "kindergarten", "leisure": null, "surface": null, "opening_hours": null, "barrier": null, "access": null, "name:ru": "Центр раннего развития \"Золушка\"", "name": "Центр раннего развития \"Золушка\"" }, "geometry": { "type": "Point", "coordinates": [ 36.8537069, 55.7321034 ] } },
{ "type": "Feature", "properties": { "full_id": "n8430090807", "osm_id": "8430090807", "osm_type": "node", "amenity": null, "leisure": null, "surface": null, "opening_hours": null, "barrier": "gate", "access": "private", "name:ru": null, "name": null }, "geometry": { "type": "Point", "coordinates": [ 36.8723588, 55.7249594 ] } },
{ "type": "Feature", "properties": { "full_id": "n8698389940", "osm_id": "8698389940", "osm_type": "node", "amenity": null, "leisure": "playground", "surface": null, "opening_hours": "24/7", "barrier": null, "access": null, "name:ru": null, "name": "Поляна Сказок" }, "geometry": { "type": "Point", "coordinates": [ 36.8521267, 55.7457043 ] } },
{ "type": "Feature", "properties": { "full_id": "n10578742401", "osm_id": "10578742401", "osm_type": "node", "amenity": null, "leisure": null, "surface": null, "opening_hours": null, "barrier": "wicket_gate", "access": "private", "name:ru": null, "name": null }, "geometry": { "type": "Point", "coordinates": [ 36.8723082, 55.7249366 ] } },
{ "type": "Feature", "properties": { "full_id": "n11360097308", "osm_id": "11360097308", "osm_type": "node", "amenity": null, "leisure": "playground", "surface": "tartan", "opening_hours": null, "barrier": null, "access": "yes", "name:ru": null, "name": null }, "geometry": { "type": "Point", "coordinates": [ 36.8551153, 55.7313776 ] } },
{ "type": "Feature", "properties": { "full_id": "n11360097335", "osm_id": "11360097335", "osm_type": "node", "amenity": null, "leisure": "playground", "surface": null, "opening_hours": null, "barrier": null, "access": null, "name:ru": null, "name": null }, "geometry": { "type": "Point", "coordinates": [ 36.8488907, 55.7310954 ] } },
{ "type": "Feature", "properties": { "full_id": "n11360097361", "osm_id": "11360097361", "osm_type": "node", "amenity": null, "leisure": "playground", "surface": null, "opening_hours": null, "barrier": null, "access": null, "name:ru": null, "name": null }, "geometry": { "type": "Point", "coordinates": [ 36.8614561, 55.7279911 ] } },
{ "type": "Feature", "properties": { "full_id": "n11360276918", "osm_id": "11360276918", "osm_type": "node", "amenity": null, "leisure": "playground", "surface": null, "opening_hours": null, "barrier": null, "access": null, "name:ru": null, "name": null }, "geometry": { "type": "Point", "coordinates": [ 36.8614561, 55.727991 ] } },
{ "type": "Feature", "properties": { "full_id": "n11953463027", "osm_id": "11953463027", "osm_type": "node", "amenity": null, "leisure": "playground", "surface": null, "opening_hours": null, "barrier": null, "access": null, "name:ru": null, "name": null }, "geometry": { "type": "Point", "coordinates": [ 36.8037017, 55.7214712 ] } },
{ "type": "Feature", "properties": { "full_id": "w1295044773", "osm_id": "1295044773", "osm_type": "way", "amenity": null, "leisure": "playground", "surface": null, "opening_hours": null, "barrier": null, "access": null, "name:ru": null, "name": null }, "geometry": { "type": "Point", "coordinates": [ 36.806134, 55.7379975 ] } },
{ "type": "Feature", "properties": { "full_id": "w1134811013", "osm_id": "1134811013", "osm_type": "way", "amenity": null, "leisure": "playground", "surface": null, "opening_hours": null, "barrier": null, "access": null, "name:ru": null, "name": null }, "geometry": { "type": "Point", "coordinates": [ 36.875690748325283, 55.724172472817564 ] } },
{ "type": "Feature", "properties": { "full_id": "w1134811015", "osm_id": "1134811015", "osm_type": "way", "amenity": null, "leisure": "playground", "surface": null, "opening_hours": null, "barrier": null, "access": null, "name:ru": null, "name": null }, "geometry": { "type": "Point", "coordinates": [ 36.87579409243439, 55.724148745166282 ] } },
{ "type": "Feature", "properties": { "full_id": "w908915319", "osm_id": "908915319", "osm_type": "way", "amenity": null, "leisure": "playground", "surface": null, "opening_hours": null, "barrier": null, "access": null, "name:ru": null, "name": null }, "geometry": { "type": "Point", "coordinates": [ 36.85776645, 55.7312269 ] } },
{ "type": "Feature", "properties": { "full_id": "w929894520", "osm_id": "929894520", "osm_type": "way", "amenity": null, "leisure": "playground", "surface": null, "opening_hours": null, "barrier": null, "access": null, "name:ru": null, "name": null }, "geometry": { "type": "Point", "coordinates": [ 36.858912429164953, 55.728577852074785 ] } },
{ "type": "Feature", "properties": { "full_id": "w907876459", "osm_id": "907876459", "osm_type": "way", "amenity": null, "leisure": "playground", "surface": null, "opening_hours": null, "barrier": null, "access": null, "name:ru": null, "name": null }, "geometry": { "type": "Point", "coordinates": [ 36.858521203121484, 55.727285868334761 ] } },
{ "type": "Feature", "properties": { "full_id": "w908538465", "osm_id": "908538465", "osm_type": "way", "amenity": null, "leisure": "playground", "surface": null, "opening_hours": null, "barrier": null, "access": null, "name:ru": null, "name": null }, "geometry": { "type": "Point", "coordinates": [ 36.872781643092985, 55.74242031937527 ] } },
{ "type": "Feature", "properties": { "full_id": "w1064279368", "osm_id": "1064279368", "osm_type": "way", "amenity": null, "leisure": "playground", "surface": "sand", "opening_hours": null, "barrier": null, "access": "yes", "name:ru": null, "name": null }, "geometry": { "type": "Point", "coordinates": [ 36.83238902817336, 55.72773123115774 ] } },
{ "type": "Feature", "properties": { "full_id": "w1064279370", "osm_id": "1064279370", "osm_type": "way", "amenity": null, "leisure": "playground", "surface": null, "opening_hours": null, "barrier": null, "access": null, "name:ru": null, "name": null }, "geometry": { "type": "Point", "coordinates": [ 36.833385545368834, 55.725673342094467 ] } },
{ "type": "Feature", "properties": { "full_id": "w996234188", "osm_id": "996234188", "osm_type": "way", "amenity": null, "leisure": "playground", "surface": null, "opening_hours": null, "barrier": null, "access": null, "name:ru": null, "name": null }, "geometry": { "type": "Point", "coordinates": [ 36.880435510493584, 55.744995412415257 ] } },
{ "type": "Feature", "properties": { "full_id": "w1053934775", "osm_id": "1053934775", "osm_type": "way", "amenity": null, "leisure": "playground", "surface": null, "opening_hours": null, "barrier": null, "access": null, "name:ru": null, "name": null }, "geometry": { "type": "Point", "coordinates": [ 36.8559989, 55.742679499999987 ] } },
{ "type": "Feature", "properties": { "full_id": "w626428857", "osm_id": "626428857", "osm_type": "way", "amenity": null, "leisure": "playground", "surface": "ground", "opening_hours": null, "barrier": null, "access": "yes", "name:ru": null, "name": null }, "geometry": { "type": "Point", "coordinates": [ 36.8661488, 55.7418084 ] } },
{ "type": "Feature", "properties": { "full_id": "w675001779", "osm_id": "675001779", "osm_type": "way", "amenity": "kindergarten", "leisure": null, "surface": null, "opening_hours": null, "barrier": "fence", "access": null, "name:ru": null, "name": null }, "geometry": { "type": "Point", "coordinates": [ 36.857523448759302, 55.741271614738984 ] } },
{ "type": "Feature", "properties": { "full_id": "w495926904", "osm_id": "495926904", "osm_type": "way", "amenity": null, "leisure": "playground", "surface": null, "opening_hours": null, "barrier": null, "access": null, "name:ru": null, "name": null }, "geometry": { "type": "Point", "coordinates": [ 36.86717084673289, 55.741573632126808 ] } },
{ "type": "Feature", "properties": { "full_id": "w539217687", "osm_id": "539217687", "osm_type": "way", "amenity": null, "leisure": "playground", "surface": null, "opening_hours": null, "barrier": null, "access": null, "name:ru": null, "name": null }, "geometry": { "type": "Point", "coordinates": [ 36.8725232, 55.7218742 ] } },
{ "type": "Feature", "properties": { "full_id": "w907876407", "osm_id": "907876407", "osm_type": "way", "amenity": null, "leisure": "playground", "surface": null, "opening_hours": null, "barrier": null, "access": null, "name:ru": null, "name": null }, "geometry": { "type": "Point", "coordinates": [ 36.87313425, 55.72424645 ] } },
{ "type": "Feature", "properties": { "full_id": "w907876411", "osm_id": "907876411", "osm_type": "way", "amenity": null, "leisure": "playground", "surface": null, "opening_hours": null, "barrier": null, "access": null, "name:ru": null, "name": null }, "geometry": { "type": "Point", "coordinates": [ 36.87014702867792, 55.721397272662621 ] } },
{ "type": "Feature", "properties": { "full_id": "w729567082", "osm_id": "729567082", "osm_type": "way", "amenity": null, "leisure": "playground", "surface": null, "opening_hours": null, "barrier": null, "access": null, "name:ru": null, "name": null }, "geometry": { "type": "Point", "coordinates": [ 36.855461293375207, 55.739856545615744 ] } },
{ "type": "Feature", "properties": { "full_id": "w907876392", "osm_id": "907876392", "osm_type": "way", "amenity": "kindergarten", "leisure": null, "surface": null, "opening_hours": null, "barrier": "fence", "access": null, "name:ru": null, "name": "Солнышко" }, "geometry": { "type": "Point", "coordinates": [ 36.867707816604522, 55.72441808831033 ] } },
{ "type": "Feature", "properties": { "full_id": "w58108977", "osm_id": "58108977", "osm_type": "way", "amenity": "kindergarten", "leisure": null, "surface": null, "opening_hours": null, "barrier": null, "access": null, "name:ru": "Детский сад № 5 «Ласточка»", "name": "Детский сад № 5 «Ласточка»" }, "geometry": { "type": "Point", "coordinates": [ 36.867048217144017, 55.740714133425726 ] } },
{ "type": "Feature", "properties": { "full_id": "w81541483", "osm_id": "81541483", "osm_type": "way", "amenity": null, "leisure": "playground", "surface": null, "opening_hours": null, "barrier": null, "access": null, "name:ru": null, "name": null }, "geometry": { "type": "Point", "coordinates": [ 36.864885529847854, 55.742759590989849 ] } },
{ "type": "Feature", "properties": { "full_id": "r15355029", "osm_id": "15355029", "osm_type": "relation", "amenity": "kindergarten", "leisure": null, "surface": null, "opening_hours": null, "barrier": null, "access": null, "name:ru": null, "name": "Детский сад №8" }, "geometry": { "type": "Point", "coordinates": [ 36.871300627108063, 55.725067084383994 ] } },
{ "type": "Feature", "properties": { "full_id": "w372033121", "osm_id": "372033121", "osm_type": "way", "amenity": null, "leisure": "playground", "surface": "tartan", "opening_hours": null, "barrier": null, "access": "yes", "name:ru": null, "name": null }, "geometry": { "type": "Point", "coordinates": [ 36.856595222315796, 55.730903702806771 ] } },
{ "type": "Feature", "properties": { "full_id": "w433141730", "osm_id": "433141730", "osm_type": "way", "amenity": "kindergarten", "leisure": null, "surface": null, "opening_hours": null, "barrier": null, "access": null, "name:ru": null, "name": null }, "geometry": { "type": "Point", "coordinates": [ 36.880136679836575, 55.744553587092007 ] } },
{ "type": "Feature", "properties": { "full_id": "w114508123", "osm_id": "114508123", "osm_type": "way", "amenity": "kindergarten", "leisure": null, "surface": null, "opening_hours": null, "barrier": null, "access": null, "name:ru": null, "name": "Звёздочка" }, "geometry": { "type": "Point", "coordinates": [ 36.854361330298666, 55.732547147416305 ] } },
{ "type": "Feature", "properties": { "full_id": "w172323423", "osm_id": "172323423", "osm_type": "way", "amenity": null, "leisure": "playground", "surface": null, "opening_hours": null, "barrier": null, "access": null, "name:ru": null, "name": null }, "geometry": { "type": "Point", "coordinates": [ 36.854069328843984, 55.731310554128235 ] } },
{ "type": "Feature", "properties": { "full_id": "w1295010078", "osm_id": "1295010078", "osm_type": "way", "amenity": null, "leisure": "playground", "surface": "tartan", "opening_hours": null, "barrier": null, "access": "yes", "name:ru": null, "name": null }, "geometry": { "type": "Point", "coordinates": [ 36.811110577944348, 55.735227171698327 ] } },
{ "type": "Feature", "properties": { "full_id": null, "osm_id": null, "osm_type": null, "amenity": null, "leisure": null, "surface": null, "opening_hours": null, "barrier": null, "access": null, "name:ru": null, "name": null }, "geometry": { "type": "Point", "coordinates": [ 36.850312428559775, 55.731071129618236 ] } }
]
}
