{
"type": "FeatureCollection",
"name": "tour",
"crs": { "type": "name", "properties": { "name": "urn:ogc:def:crs:OGC:1.3:CRS84" } },
"features": [
{ "type": "Feature", "properties": { "full_id": "n465491345", "osm_id": "465491345", "osm_type": "node", "historic": "memorial", "tourism": null, "memorial": "statue", "payment:debit_cards": null, "payment:credit_cards": null, "payment:cash": null, "addr:floor": null, "entrance": null, "check_date": null, "opening_hours": null, "level": null, "contact:website": null, "memorial:subject": null, "artwork_type": null, "artwork_subject": null, "subject:wikimedia_commons": null, "name:ca": null, "material": null, "subject:wikipedia": null, "subject:wikidata": null, "subject": null, "start_date": null, "name:ru": null, "name:en": null, "description": null, "wheelchair": null, "direction": null, "name": "Савве Старожевскому и Юрию Звенигородскому" }, "geometry": { "type": "Point", "coordinates": [ 36.8600486, 55.7290988 ] } },
{ "type": "Feature", "properties": { "full_id": "n1357454480", "osm_id": "1357454480", "osm_type": "node", "historic": "memorial", "tourism": null, "memorial": "statue", "payment:debit_cards": null, "payment:credit_cards": null, "payment:cash": null, "addr:floor": null, "entrance": null, "check_date": null, "opening_hours": null, "level": null, "contact:website": null, "memorial:subject": null, "artwork_type": null, "artwork_subject": null, "subject:wikimedia_commons": "File:Anton_Chekhov_with_bow-tie_sepia_image.jpg", "name:ca": "Anton Txèkhov", "material": "metal", "subject:wikipedia": "ru:Чехов, Антон Павлович", "subject:wikidata": "Q5685", "subject": null, "start_date": null, "name:ru": null, "name:en": null, "description": null, "wheelchair": null, "direction": null, "name": "А.П. Чехов" }, "geometry": { "type": "Point", "coordinates": [ 36.8537199, 55.7299905 ] } },
{ "type": "Feature", "properties": { "full_id": "n2002311388", "osm_id": "2002311388", "osm_type": "node", "historic": null, "tourism": "museum", "memorial": null, "payment:debit_cards": null, "payment:credit_cards": null, "payment:cash": null, "addr:floor": null, "entrance": null, "check_date": null, "opening_hours": null, "level": null, "contact:website": null, "memorial:subject": null, "artwork_type": null, "artwork_subject": null, "subject:wikimedia_commons": null, "name:ca": null, "material": null, "subject:wikipedia": null, "subject:wikidata": null, "subject": null, "start_date": null, "name:ru": "Дом А. П. Чехова", "name:en": null, "description": null, "wheelchair": null, "direction": null, "name": "Дом А. П. Чехова" }, "geometry": { "type": "Point", "coordinates": [ 36.8471077, 55.7352353 ] } },
{ "type": "Feature", "properties": { "full_id": "n2121257395", "osm_id": "2121257395", "osm_type": "node", "historic": "memorial", "tourism": null, "memorial": "plaque", "payment:debit_cards": null, "payment:credit_cards": null, "payment:cash": null, "addr:floor": null, "entrance": null, "check_date": null, "opening_hours": null, "level": null, "contact:website": null, "memorial:subject": null, "artwork_type": null, "artwork_subject": null, "subject:wikimedia_commons": null, "name:ca": null, "material": null, "subject:wikipedia": null, "subject:wikidata": null, "subject": null, "start_date": null, "name:ru": null, "name:en": null, "description": null, "wheelchair": null, "direction": null, "name": "К. И. Макарову" }, "geometry": { "type": "Point", "coordinates": [ 36.8550722, 55.7277706 ] } },
{ "type": "Feature", "properties": { "full_id": "n2199317523", "osm_id": "2199317523", "osm_type": "node", "historic": null, "tourism": "artwork", "memorial": null, "payment:debit_cards": null, "payment:credit_cards": null, "payment:cash": null, "addr:floor": null, "entrance": null, "check_date": null, "opening_hours": null, "level": null, "contact:website": null, "memorial:subject": null, "artwork_type": "sculpture", "artwork_subject": "Лошадь", "subject:wikimedia_commons": null, "name:ca": null, "material": null, "subject:wikipedia": null, "subject:wikidata": null, "subject": null, "start_date": null, "name:ru": null, "name:en": null, "description": null, "wheelchair": null, "direction": null, "name": null }, "geometry": { "type": "Point", "coordinates": [ 36.8592156, 55.7218239 ] } },
{ "type": "Feature", "properties": { "full_id": "n3631772004", "osm_id": "3631772004", "osm_type": "node", "historic": "memorial", "tourism": null, "memorial": "bust", "payment:debit_cards": null, "payment:credit_cards": null, "payment:cash": null, "addr:floor": null, "entrance": null, "check_date": null, "opening_hours": null, "level": null, "contact:website": null, "memorial:subject": null, "artwork_type": null, "artwork_subject": null, "subject:wikimedia_commons": null, "name:ca": null, "material": null, "subject:wikipedia": null, "subject:wikidata": null, "subject": null, "start_date": null, "name:ru": null, "name:en": null, "description": null, "wheelchair": null, "direction": null, "name": "А. П. Чехову" }, "geometry": { "type": "Point", "coordinates": [ 36.8478089, 55.7359031 ] } },
{ "type": "Feature", "properties": { "full_id": "n4834628822", "osm_id": "4834628822", "osm_type": "node", "historic": "memorial", "tourism": null, "memorial": null, "payment:debit_cards": null, "payment:credit_cards": null, "payment:cash": null, "addr:floor": null, "entrance": null, "check_date": null, "opening_hours": null, "level": null, "contact:website": null, "memorial:subject": "Любовь Петровна Орлова", "artwork_type": null, "artwork_subject": null, "subject:wikimedia_commons": null, "name:ca": null, "material": null, "subject:wikipedia": "ru:Орлова, Любовь Петровна", "subject:wikidata": "Q236229", "subject": null, "start_date": null, "name:ru": null, "name:en": null, "description": null, "wheelchair": null, "direction": null, "name": "Л. П. Орловой" }, "geometry": { "type": "Point", "coordinates": [ 36.85512, 55.73023 ] } },
{ "type": "Feature", "properties": { "full_id": "n5605392021", "osm_id": "5605392021", "osm_type": "node", "historic": null, "tourism": "viewpoint", "memorial": null, "payment:debit_cards": null, "payment:credit_cards": null, "payment:cash": null, "addr:floor": null, "entrance": null, "check_date": null, "opening_hours": null, "level": null, "contact:website": null, "memorial:subject": null, "artwork_type": null, "artwork_subject": null, "subject:wikimedia_commons": null, "name:ca": null, "material": null, "subject:wikipedia": null, "subject:wikidata": null, "subject": null, "start_date": null, "name:ru": null, "name:en": null, "description": null, "wheelchair": null, "direction": null, "name": null }, "geometry": { "type": "Point", "coordinates": [ 36.8503258, 55.7281548 ] } },
{ "type": "Feature", "properties": { "full_id": "n6236132593", "osm_id": "6236132593", "osm_type": "node", "historic": "memorial", "tourism": null, "memorial": "stone", "payment:debit_cards": null, "payment:credit_cards": null, "payment:cash": null, "addr:floor": null, "entrance": null, "check_date": null, "opening_hours": null, "level": null, "contact:website": null, "memorial:subject": null, "artwork_type": null, "artwork_subject": null, "subject:wikimedia_commons": null, "name:ca": null, "material": null, "subject:wikipedia": null, "subject:wikidata": null, "subject": null, "start_date": null, "name:ru": null, "name:en": null, "description": null, "wheelchair": null, "direction": null, "name": null }, "geometry": { "type": "Point", "coordinates": [ 36.8500864, 55.7307773 ] } },
{ "type": "Feature", "properties": { "full_id": "n7756949285", "osm_id": "7756949285", "osm_type": "node", "historic": null, "tourism": "museum", "memorial": null, "payment:debit_cards": null, "payment:credit_cards": null, "payment:cash": null, "addr:floor": null, "entrance": null, "check_date": null, "opening_hours": "Mo-Su 11:00-18:00", "level": "1", "contact:website": "http://ussrmuseum.ru", "memorial:subject": null, "artwork_type": null, "artwork_subject": null, "subject:wikimedia_commons": null, "name:ca": null, "material": null, "subject:wikipedia": null, "subject:wikidata": null, "subject": null, "start_date": null, "name:ru": null, "name:en": "Back in USSR", "description": null, "wheelchair": null, "direction": null, "name": "Назад в СССР" }, "geometry": { "type": "Point", "coordinates": [ 36.85266, 55.73062 ] } },
{ "type": "Feature", "properties": { "full_id": "n7781692290", "osm_id": "7781692290", "osm_type": "node", "historic": "memorial", "tourism": null, "memorial": null, "payment:debit_cards": null, "payment:credit_cards": null, "payment:cash": null, "addr:floor": null, "entrance": null, "check_date": null, "opening_hours": null, "level": null, "contact:website": null, "memorial:subject": null, "artwork_type": null, "artwork_subject": null, "subject:wikimedia_commons": null, "name:ca": null, "material": null, "subject:wikipedia": null, "subject:wikidata": null, "subject": null, "start_date": null, "name:ru": null, "name:en": null, "description": null, "wheelchair": null, "direction": null, "name": null }, "geometry": { "type": "Point", "coordinates": [ 36.8655028, 55.7350356 ] } },
{ "type": "Feature", "properties": { "full_id": "n8436028655", "osm_id": "8436028655", "osm_type": "node", "historic": "memorial", "tourism": null, "memorial": "stele", "payment:debit_cards": null, "payment:credit_cards": null, "payment:cash": null, "addr:floor": null, "entrance": null, "check_date": null, "opening_hours": null, "level": null, "contact:website": null, "memorial:subject": null, "artwork_type": null, "artwork_subject": null, "subject:wikimedia_commons": null, "name:ca": null, "material": null, "subject:wikipedia": null, "subject:wikidata": null, "subject": null, "start_date": null, "name:ru": null, "name:en": null, "description": null, "wheelchair": null, "direction": null, "name": null }, "geometry": { "type": "Point", "coordinates": [ 36.8581217, 55.7359977 ] } },
{ "type": "Feature", "properties": { "full_id": "n8439398913", "osm_id": "8439398913", "osm_type": "node", "historic": "memorial", "tourism": null, "memorial": "plaque", "payment:debit_cards": null, "payment:credit_cards": null, "payment:cash": null, "addr:floor": null, "entrance": null, "check_date": null, "opening_hours": null, "level": null, "contact:website": null, "memorial:subject": null, "artwork_type": null, "artwork_subject": null, "subject:wikimedia_commons": null, "name:ca": null, "material": null, "subject:wikipedia": null, "subject:wikidata": null, "subject": null, "start_date": null, "name:ru": null, "name:en": null, "description": null, "wheelchair": null, "direction": null, "name": null }, "geometry": { "type": "Point", "coordinates": [ 36.8575024, 55.7299183 ] } },
{ "type": "Feature", "properties": { "full_id": "n13028487155", "osm_id": "13028487155", "osm_type": "node", "historic": null, "tourism": "museum", "memorial": null, "payment:debit_cards": "yes", "payment:credit_cards": "yes", "payment:cash": "yes", "addr:floor": "3", "entrance": null, "check_date": "2025-07-27", "opening_hours": null, "level": null, "contact:website": null, "memorial:subject": null, "artwork_type": null, "artwork_subject": null, "subject:wikimedia_commons": null, "name:ca": null, "material": null, "subject:wikipedia": null, "subject:wikidata": null, "subject": null, "start_date": null, "name:ru": "Лего", "name:en": null, "description": null, "wheelchair": null, "direction": null, "name": "Лего" }, "geometry": { "type": "Point", "coordinates": [ 36.8248119, 55.7331657 ] } },
{ "type": "Feature", "properties": { "full_id": "n13143920642", "osm_id": "13143920642", "osm_type": "node", "historic": null, "tourism": "artwork", "memorial": null, "payment:debit_cards": null, "payment:credit_cards": null, "payment:cash": null, "addr:floor": null, "entrance": null, "check_date": null, "opening_hours": null, "level": null, "contact:website": null, "memorial:subject": null, "artwork_type": null, "artwork_subject": null, "subject:wikimedia_commons": null, "name:ca": null, "material": null, "subject:wikipedia": null, "subject:wikidata": null, "subject": null, "start_date": null, "name:ru": null, "name:en": null, "description": null, "wheelchair": null, "direction": null, "name": "Колокол" }, "geometry": { "type": "Point", "coordinates": [ 36.8489291, 55.7307456 ] } },
{ "type": "Feature", "properties": { "full_id": "w195721832", "osm_id": "195721832", "osm_type": "way", "historic": null, "tourism": "museum", "memorial": null, "payment:debit_cards": null, "payment:credit_cards": null, "payment:cash": null, "addr:floor": null, "entrance": null, "check_date": null, "opening_hours": "Mo-Su 10:00-20:00", "level": null, "contact:website": null, "memorial:subject": null, "artwork_type": null, "artwork_subject": null, "subject:wikimedia_commons": null, "name:ca": null, "material": null, "subject:wikipedia": null, "subject:wikidata": null, "subject": null, "start_date": null, "name:ru": null, "name:en": null, "description": null, "wheelchair": null, "direction": null, "name": "Музей Русского Десерта" }, "geometry": { "type": "Point", "coordinates": [ 36.848023783634623, 55.731057971041636 ] } },
{ "type": "Feature", "properties": { "full_id": "w50384198", "osm_id": "50384198", "osm_type": "way", "historic": null, "tourism": "museum", "memorial": null, "payment:debit_cards": null, "payment:credit_cards": null, "payment:cash": null, "addr:floor": null, "entrance": null, "check_date": null, "opening_hours": null, "level": null, "contact:website": null, "memorial:subject": null, "artwork_type": null, "artwork_subject": null, "subject:wikimedia_commons": null, "name:ca": null, "material": null, "subject:wikipedia": null, "subject:wikidata": null, "subject": null, "start_date": null, "name:ru": "Звенигородский манеж", "name:en": null, "description": null, "wheelchair": null, "direction": null, "name": "Звенигородский манеж" }, "geometry": { "type": "Point", "coordinates": [ 36.859589144336304, 55.729921335161954 ] } },
{ "type": "Feature", "properties": { "full_id": null, "osm_id": null, "osm_type": null, "historic": null, "tourism": null, "memorial": null, "payment:debit_cards": null, "payment:credit_cards": null, "payment:cash": null, "addr:floor": null, "entrance": null, "check_date": null, "opening_hours": null, "level": null, "contact:website": null, "memorial:subject": null, "artwork_type": null, "artwork_subject": null, "subject:wikimedia_commons": null, "name:ca": null, "material": null, "subject:wikipedia": null, "subject:wikidata": null, "subject": null, "start_date": null, "name:ru": null, "name:en": null, "description": null, "wheelchair": null, "direction": null, "name": null }, "geometry": { "type": "Point", "coordinates": [ 36.84259311596653, 55.73445058744749 ] } }
]
}
