{
"type": "FeatureCollection",
"name": "game",
"crs": { "type": "name", "properties": { "name": "urn:ogc:def:crs:OGC:1.3:CRS84" } },
"features": [
{ "type": "Feature", "properties": { "full_id": "n2188189584", "osm_id": "2188189584", "osm_type": "node", "amenity": "kindergarten", "name": "Детский сад №12 \"Рябинка\"", "addr:street": "улица Энтузиастов", "addr:postcode": "157510", "addr:housenumber": "12", "addr:city": "Ветлужский" }, "geometry": { "type": "Point", "coordinates": [ 45.4768559, 58.392291 ] } },
{ "type": "Feature", "properties": { "full_id": "w991311627", "osm_id": "991311627", "osm_type": "way", "amenity": "kindergarten", "name": null, "addr:street": null, "addr:postcode": null, "addr:housenumber": null, "addr:city": null }, "geometry": { "type": "Point", "coordinates": [ 45.501728580323466, 58.370036400197769 ] } },
{ "type": "Feature", "properties": { "full_id": "w1152497017", "osm_id": "1152497017", "osm_type": "way", "amenity": "kindergarten", "name": "Прогимназия № 15 \"Солнышко\"", "addr:street": null, "addr:postcode": null, "addr:housenumber": null, "addr:city": null }, "geometry": { "type": "Point", "coordinates": [ 45.505478795877053, 58.386217577142183 ] } },
{ "type": "Feature", "properties": { "full_id": "w1152497014", "osm_id": "1152497014", "osm_type": "way", "amenity": "kindergarten", "name": "Детский сад №2 \"Журавушка\"", "addr:street": null, "addr:postcode": null, "addr:housenumber": null, "addr:city": null }, "geometry": { "type": "Point", "coordinates": [ 45.495598034375242, 58.388258019490991 ] } },
{ "type": "Feature", "properties": { "full_id": "w199832439", "osm_id": "199832439", "osm_type": "way", "amenity": "kindergarten", "name": "Детский сад №3", "addr:street": "улица Победы", "addr:postcode": "157510", "addr:housenumber": "63", "addr:city": "Ветлужский" }, "geometry": { "type": "Point", "coordinates": [ 45.471013209239224, 58.389555199458968 ] } },
{ "type": "Feature", "properties": { "full_id": "w753750272", "osm_id": "753750272", "osm_type": "way", "amenity": null, "name": null, "addr:street": null, "addr:postcode": null, "addr:housenumber": null, "addr:city": null }, "geometry": { "type": "Point", "coordinates": [ 45.492584397302188, 58.383189789086828 ] } },
{ "type": "Feature", "properties": { "full_id": "w554232248", "osm_id": "554232248", "osm_type": "way", "amenity": "kindergarten", "name": "Детский сад № 7 \"Золотой ключик\"", "addr:street": null, "addr:postcode": null, "addr:housenumber": null, "addr:city": null }, "geometry": { "type": "Point", "coordinates": [ 45.50818729741615, 58.374532617616545 ] } },
{ "type": "Feature", "properties": { "full_id": "w99207223", "osm_id": "99207223", "osm_type": "way", "amenity": "kindergarten", "name": "Детский сад №17 \"Сказка\"", "addr:street": "улица Адмирала Виноградова", "addr:postcode": "157501", "addr:housenumber": "55", "addr:city": "Шарья" }, "geometry": { "type": "Point", "coordinates": [ 45.501618555221555, 58.370079395453068 ] } },
{ "type": "Feature", "properties": { "full_id": null, "osm_id": null, "osm_type": null, "amenity": null, "name": null, "addr:street": null, "addr:postcode": null, "addr:housenumber": null, "addr:city": null }, "geometry": { "type": "Point", "coordinates": [ 45.499328180479651, 58.369903011533971 ] } },
{ "type": "Feature", "properties": { "full_id": null, "osm_id": null, "osm_type": null, "amenity": null, "name": null, "addr:street": null, "addr:postcode": null, "addr:housenumber": null, "addr:city": null }, "geometry": { "type": "Point", "coordinates": [ 45.496539674382205, 58.375686251934418 ] } },
{ "type": "Feature", "properties": { "full_id": null, "osm_id": null, "osm_type": null, "amenity": null, "name": null, "addr:street": null, "addr:postcode": null, "addr:housenumber": null, "addr:city": null }, "geometry": { "type": "Point", "coordinates": [ 45.50240047477719, 58.383007602358354 ] } },
{ "type": "Feature", "properties": { "full_id": null, "osm_id": null, "osm_type": null, "amenity": null, "name": null, "addr:street": null, "addr:postcode": null, "addr:housenumber": null, "addr:city": null }, "geometry": { "type": "Point", "coordinates": [ 45.507198009073001, 58.383502190190008 ] } },
{ "type": "Feature", "properties": { "full_id": null, "osm_id": null, "osm_type": null, "amenity": null, "name": null, "addr:street": null, "addr:postcode": null, "addr:housenumber": null, "addr:city": null }, "geometry": { "type": "Point", "coordinates": [ 45.511395448584906, 58.38299830829169 ] } },
{ "type": "Feature", "properties": { "full_id": null, "osm_id": null, "osm_type": null, "amenity": null, "name": null, "addr:street": null, "addr:postcode": null, "addr:housenumber": null, "addr:city": null }, "geometry": { "type": "Point", "coordinates": [ 45.518028353994147, 58.385298645781248 ] } },
{ "type": "Feature", "properties": { "full_id": null, "osm_id": null, "osm_type": null, "amenity": null, "name": null, "addr:street": null, "addr:postcode": null, "addr:housenumber": null, "addr:city": null }, "geometry": { "type": "Point", "coordinates": [ 45.518410705112039, 58.386144390668704 ] } },
{ "type": "Feature", "properties": { "full_id": null, "osm_id": null, "osm_type": null, "amenity": null, "name": null, "addr:street": null, "addr:postcode": null, "addr:housenumber": null, "addr:city": null }, "geometry": { "type": "Point", "coordinates": [ 45.517589100252152, 58.384416305857137 ] } },
{ "type": "Feature", "properties": { "full_id": null, "osm_id": null, "osm_type": null, "amenity": null, "name": null, "addr:street": null, "addr:postcode": null, "addr:housenumber": null, "addr:city": null }, "geometry": { "type": "Point", "coordinates": [ 45.518212396628272, 58.383498481689379 ] } },
{ "type": "Feature", "properties": { "full_id": null, "osm_id": null, "osm_type": null, "amenity": null, "name": null, "addr:street": null, "addr:postcode": null, "addr:housenumber": null, "addr:city": null }, "geometry": { "type": "Point", "coordinates": [ 45.493430610621566, 58.389391598762209 ] } },
{ "type": "Feature", "properties": { "full_id": null, "osm_id": null, "osm_type": null, "amenity": null, "name": null, "addr:street": null, "addr:postcode": null, "addr:housenumber": null, "addr:city": null }, "geometry": { "type": "Point", "coordinates": [ 45.474372080219645, 58.393623740835693 ] } }
]
}
