{
"type": "FeatureCollection",
"name": "highway_point",
"crs": { "type": "name", "properties": { "name": "urn:ogc:def:crs:OGC:1.3:CRS84" } },
"features": [
{ "type": "Feature", "properties": { "full_id": "n295817012", "osm_id": "295817012", "osm_type": "node", "highway": "traffic_signals", "crossing:markings": null, "shelter": null, "bin": null, "bench": null, "barrier": null, "direction": null, "public_transport": null, "bus": null, "traffic_sign:direction": null, "traffic_sign": null, "name": null, "railway": null, "crossing": null, "horse": null, "bicycle": null, "traffic_signals": null }, "geometry": { "type": "Point", "coordinates": [ 45.5136449, 58.3787832 ] } },
{ "type": "Feature", "properties": { "full_id": "n295852376", "osm_id": "295852376", "osm_type": "node", "highway": "traffic_signals", "crossing:markings": null, "shelter": null, "bin": null, "bench": null, "barrier": null, "direction": null, "public_transport": null, "bus": null, "traffic_sign:direction": null, "traffic_sign": null, "name": null, "railway": null, "crossing": null, "horse": null, "bicycle": null, "traffic_signals": "signal" }, "geometry": { "type": "Point", "coordinates": [ 45.5139488, 58.3800029 ] } },
{ "type": "Feature", "properties": { "full_id": "n781819435", "osm_id": "781819435", "osm_type": "node", "highway": "traffic_signals", "crossing:markings": null, "shelter": null, "bin": null, "bench": null, "barrier": null, "direction": null, "public_transport": null, "bus": null, "traffic_sign:direction": null, "traffic_sign": null, "name": null, "railway": null, "crossing": null, "horse": "no", "bicycle": "no", "traffic_signals": null }, "geometry": { "type": "Point", "coordinates": [ 45.4962633, 58.3823619 ] } },
{ "type": "Feature", "properties": { "full_id": "n1026089295", "osm_id": "1026089295", "osm_type": "node", "highway": "crossing", "crossing:markings": null, "shelter": null, "bin": null, "bench": null, "barrier": null, "direction": null, "public_transport": null, "bus": null, "traffic_sign:direction": null, "traffic_sign": null, "name": null, "railway": null, "crossing": "uncontrolled", "horse": null, "bicycle": null, "traffic_signals": null }, "geometry": { "type": "Point", "coordinates": [ 45.5232081, 58.3548877 ] } },
{ "type": "Feature", "properties": { "full_id": "n1026395613", "osm_id": "1026395613", "osm_type": "node", "highway": null, "crossing:markings": null, "shelter": null, "bin": null, "bench": null, "barrier": null, "direction": null, "public_transport": null, "bus": null, "traffic_sign:direction": null, "traffic_sign": null, "name": null, "railway": "level_crossing", "crossing": null, "horse": null, "bicycle": null, "traffic_signals": null }, "geometry": { "type": "Point", "coordinates": [ 45.4744013, 58.3964724 ] } },
{ "type": "Feature", "properties": { "full_id": "n1026395926", "osm_id": "1026395926", "osm_type": "node", "highway": "crossing", "crossing:markings": null, "shelter": null, "bin": null, "bench": null, "barrier": null, "direction": null, "public_transport": null, "bus": null, "traffic_sign:direction": null, "traffic_sign": null, "name": null, "railway": null, "crossing": null, "horse": null, "bicycle": null, "traffic_signals": null }, "geometry": { "type": "Point", "coordinates": [ 45.4968808, 58.378211 ] } },
{ "type": "Feature", "properties": { "full_id": "n1026395946", "osm_id": "1026395946", "osm_type": "node", "highway": null, "crossing:markings": null, "shelter": null, "bin": null, "bench": null, "barrier": null, "direction": null, "public_transport": null, "bus": null, "traffic_sign:direction": null, "traffic_sign": null, "name": null, "railway": "level_crossing", "crossing": null, "horse": null, "bicycle": null, "traffic_signals": null }, "geometry": { "type": "Point", "coordinates": [ 45.4777997, 58.3910801 ] } },
{ "type": "Feature", "properties": { "full_id": "n1030521466", "osm_id": "1030521466", "osm_type": "node", "highway": "traffic_signals", "crossing:markings": null, "shelter": null, "bin": null, "bench": null, "barrier": null, "direction": null, "public_transport": null, "bus": null, "traffic_sign:direction": null, "traffic_sign": null, "name": null, "railway": null, "crossing": null, "horse": null, "bicycle": null, "traffic_signals": "signal" }, "geometry": { "type": "Point", "coordinates": [ 45.5119432, 58.3705439 ] } },
{ "type": "Feature", "properties": { "full_id": "n1030521467", "osm_id": "1030521467", "osm_type": "node", "highway": "traffic_signals", "crossing:markings": null, "shelter": null, "bin": null, "bench": null, "barrier": null, "direction": null, "public_transport": null, "bus": null, "traffic_sign:direction": null, "traffic_sign": null, "name": null, "railway": null, "crossing": null, "horse": null, "bicycle": null, "traffic_signals": null }, "geometry": { "type": "Point", "coordinates": [ 45.5124511, 58.3729099 ] } },
{ "type": "Feature", "properties": { "full_id": "n1078680769", "osm_id": "1078680769", "osm_type": "node", "highway": "traffic_signals", "crossing:markings": null, "shelter": null, "bin": null, "bench": null, "barrier": null, "direction": null, "public_transport": null, "bus": null, "traffic_sign:direction": null, "traffic_sign": null, "name": null, "railway": null, "crossing": null, "horse": null, "bicycle": null, "traffic_signals": null }, "geometry": { "type": "Point", "coordinates": [ 45.5117209, 58.3692767 ] } },
{ "type": "Feature", "properties": { "full_id": "n1110358728", "osm_id": "1110358728", "osm_type": "node", "highway": null, "crossing:markings": null, "shelter": null, "bin": null, "bench": null, "barrier": null, "direction": null, "public_transport": null, "bus": null, "traffic_sign:direction": null, "traffic_sign": null, "name": null, "railway": "level_crossing", "crossing": null, "horse": null, "bicycle": null, "traffic_signals": null }, "geometry": { "type": "Point", "coordinates": [ 45.4908837, 58.3721314 ] } },
{ "type": "Feature", "properties": { "full_id": "n1110358975", "osm_id": "1110358975", "osm_type": "node", "highway": null, "crossing:markings": null, "shelter": null, "bin": null, "bench": null, "barrier": null, "direction": null, "public_transport": null, "bus": null, "traffic_sign:direction": null, "traffic_sign": null, "name": null, "railway": "level_crossing", "crossing": null, "horse": null, "bicycle": null, "traffic_signals": null }, "geometry": { "type": "Point", "coordinates": [ 45.4907427, 58.3720587 ] } },
{ "type": "Feature", "properties": { "full_id": "n1147082241", "osm_id": "1147082241", "osm_type": "node", "highway": "traffic_signals", "crossing:markings": null, "shelter": null, "bin": null, "bench": null, "barrier": null, "direction": null, "public_transport": null, "bus": null, "traffic_sign:direction": null, "traffic_sign": null, "name": null, "railway": null, "crossing": null, "horse": "yes", "bicycle": "yes", "traffic_signals": null }, "geometry": { "type": "Point", "coordinates": [ 45.5068441, 58.3826476 ] } },
{ "type": "Feature", "properties": { "full_id": "n1160296554", "osm_id": "1160296554", "osm_type": "node", "highway": null, "crossing:markings": null, "shelter": null, "bin": null, "bench": null, "barrier": null, "direction": null, "public_transport": null, "bus": null, "traffic_sign:direction": null, "traffic_sign": null, "name": null, "railway": "level_crossing", "crossing": null, "horse": null, "bicycle": null, "traffic_signals": null }, "geometry": { "type": "Point", "coordinates": [ 45.5535344, 58.368264 ] } },
{ "type": "Feature", "properties": { "full_id": "n1220192805", "osm_id": "1220192805", "osm_type": "node", "highway": null, "crossing:markings": null, "shelter": null, "bin": null, "bench": null, "barrier": null, "direction": null, "public_transport": null, "bus": null, "traffic_sign:direction": "forward", "traffic_sign": "city_limit", "name": "Шарья", "railway": null, "crossing": null, "horse": null, "bicycle": null, "traffic_signals": null }, "geometry": { "type": "Point", "coordinates": [ 45.4996068, 58.3481863 ] } },
{ "type": "Feature", "properties": { "full_id": "n1315035416", "osm_id": "1315035416", "osm_type": "node", "highway": null, "crossing:markings": null, "shelter": null, "bin": null, "bench": null, "barrier": null, "direction": null, "public_transport": null, "bus": null, "traffic_sign:direction": null, "traffic_sign": null, "name": null, "railway": "level_crossing", "crossing": null, "horse": null, "bicycle": null, "traffic_signals": null }, "geometry": { "type": "Point", "coordinates": [ 45.4728149, 58.3990033 ] } },
{ "type": "Feature", "properties": { "full_id": "n1315035714", "osm_id": "1315035714", "osm_type": "node", "highway": null, "crossing:markings": null, "shelter": null, "bin": null, "bench": null, "barrier": null, "direction": null, "public_transport": null, "bus": null, "traffic_sign:direction": null, "traffic_sign": null, "name": null, "railway": "level_crossing", "crossing": null, "horse": null, "bicycle": null, "traffic_signals": null }, "geometry": { "type": "Point", "coordinates": [ 45.4747493, 58.3989258 ] } },
{ "type": "Feature", "properties": { "full_id": "n1666070946", "osm_id": "1666070946", "osm_type": "node", "highway": "bus_stop", "crossing:markings": null, "shelter": null, "bin": null, "bench": null, "barrier": null, "direction": null, "public_transport": "platform", "bus": "yes", "traffic_sign:direction": null, "traffic_sign": null, "name": "Рембыттехника", "railway": null, "crossing": null, "horse": null, "bicycle": null, "traffic_signals": null }, "geometry": { "type": "Point", "coordinates": [ 45.5236582, 58.3565846 ] } },
{ "type": "Feature", "properties": { "full_id": "n1666179831", "osm_id": "1666179831", "osm_type": "node", "highway": "bus_stop", "crossing:markings": null, "shelter": null, "bin": null, "bench": null, "barrier": null, "direction": null, "public_transport": null, "bus": null, "traffic_sign:direction": null, "traffic_sign": null, "name": "АТП", "railway": null, "crossing": null, "horse": null, "bicycle": null, "traffic_signals": null }, "geometry": { "type": "Point", "coordinates": [ 45.5142925, 58.3805523 ] } },
{ "type": "Feature", "properties": { "full_id": "n1666179834", "osm_id": "1666179834", "osm_type": "node", "highway": "bus_stop", "crossing:markings": null, "shelter": null, "bin": null, "bench": null, "barrier": null, "direction": null, "public_transport": "platform", "bus": "yes", "traffic_sign:direction": null, "traffic_sign": null, "name": "Козлово", "railway": null, "crossing": null, "horse": null, "bicycle": null, "traffic_signals": null }, "geometry": { "type": "Point", "coordinates": [ 45.5012189, 58.3497395 ] } },
{ "type": "Feature", "properties": { "full_id": "n2188167957", "osm_id": "2188167957", "osm_type": "node", "highway": "traffic_signals", "crossing:markings": null, "shelter": null, "bin": null, "bench": null, "barrier": null, "direction": null, "public_transport": null, "bus": null, "traffic_sign:direction": null, "traffic_sign": null, "name": null, "railway": null, "crossing": null, "horse": null, "bicycle": null, "traffic_signals": "signal" }, "geometry": { "type": "Point", "coordinates": [ 45.4952819, 58.3846425 ] } },
{ "type": "Feature", "properties": { "full_id": "n2189834695", "osm_id": "2189834695", "osm_type": "node", "highway": "crossing", "crossing:markings": null, "shelter": null, "bin": null, "bench": null, "barrier": null, "direction": null, "public_transport": null, "bus": null, "traffic_sign:direction": null, "traffic_sign": null, "name": null, "railway": null, "crossing": "uncontrolled", "horse": null, "bicycle": null, "traffic_signals": null }, "geometry": { "type": "Point", "coordinates": [ 45.4962944, 58.3685069 ] } },
{ "type": "Feature", "properties": { "full_id": "n2518549512", "osm_id": "2518549512", "osm_type": "node", "highway": null, "crossing:markings": null, "shelter": null, "bin": null, "bench": null, "barrier": null, "direction": null, "public_transport": null, "bus": null, "traffic_sign:direction": null, "traffic_sign": null, "name": null, "railway": "level_crossing", "crossing": null, "horse": null, "bicycle": null, "traffic_signals": null }, "geometry": { "type": "Point", "coordinates": [ 45.4523417, 58.3896336 ] } },
{ "type": "Feature", "properties": { "full_id": "n3279093217", "osm_id": "3279093217", "osm_type": "node", "highway": null, "crossing:markings": null, "shelter": null, "bin": null, "bench": null, "barrier": null, "direction": null, "public_transport": null, "bus": null, "traffic_sign:direction": null, "traffic_sign": null, "name": null, "railway": "level_crossing", "crossing": null, "horse": null, "bicycle": null, "traffic_signals": null }, "geometry": { "type": "Point", "coordinates": [ 45.4908192, 58.3720992 ] } },
{ "type": "Feature", "properties": { "full_id": "n3279093254", "osm_id": "3279093254", "osm_type": "node", "highway": null, "crossing:markings": null, "shelter": null, "bin": null, "bench": null, "barrier": null, "direction": null, "public_transport": null, "bus": null, "traffic_sign:direction": null, "traffic_sign": null, "name": null, "railway": "level_crossing", "crossing": null, "horse": null, "bicycle": null, "traffic_signals": null }, "geometry": { "type": "Point", "coordinates": [ 45.4374813, 58.3783605 ] } },
{ "type": "Feature", "properties": { "full_id": "n3470913559", "osm_id": "3470913559", "osm_type": "node", "highway": null, "crossing:markings": null, "shelter": null, "bin": null, "bench": null, "barrier": null, "direction": null, "public_transport": null, "bus": null, "traffic_sign:direction": null, "traffic_sign": null, "name": null, "railway": "level_crossing", "crossing": null, "horse": null, "bicycle": null, "traffic_signals": null }, "geometry": { "type": "Point", "coordinates": [ 45.5381161, 58.3677455 ] } },
{ "type": "Feature", "properties": { "full_id": "n3470913561", "osm_id": "3470913561", "osm_type": "node", "highway": null, "crossing:markings": null, "shelter": null, "bin": null, "bench": null, "barrier": null, "direction": null, "public_transport": null, "bus": null, "traffic_sign:direction": null, "traffic_sign": null, "name": null, "railway": "level_crossing", "crossing": null, "horse": null, "bicycle": null, "traffic_signals": null }, "geometry": { "type": "Point", "coordinates": [ 45.5380396, 58.367773 ] } },
{ "type": "Feature", "properties": { "full_id": "n3470913693", "osm_id": "3470913693", "osm_type": "node", "highway": null, "crossing:markings": null, "shelter": null, "bin": null, "bench": null, "barrier": null, "direction": null, "public_transport": null, "bus": null, "traffic_sign:direction": null, "traffic_sign": null, "name": null, "railway": "level_crossing", "crossing": null, "horse": null, "bicycle": null, "traffic_signals": null }, "geometry": { "type": "Point", "coordinates": [ 45.4909159, 58.3721488 ] } },
{ "type": "Feature", "properties": { "full_id": "n3470913706", "osm_id": "3470913706", "osm_type": "node", "highway": null, "crossing:markings": null, "shelter": null, "bin": null, "bench": null, "barrier": null, "direction": null, "public_transport": null, "bus": null, "traffic_sign:direction": null, "traffic_sign": null, "name": null, "railway": "level_crossing", "crossing": null, "horse": null, "bicycle": null, "traffic_signals": null }, "geometry": { "type": "Point", "coordinates": [ 45.4375297, 58.3782147 ] } },
{ "type": "Feature", "properties": { "full_id": "n4210387795", "osm_id": "4210387795", "osm_type": "node", "highway": "traffic_signals", "crossing:markings": null, "shelter": null, "bin": null, "bench": null, "barrier": null, "direction": null, "public_transport": null, "bus": null, "traffic_sign:direction": null, "traffic_sign": null, "name": null, "railway": null, "crossing": null, "horse": null, "bicycle": null, "traffic_signals": "signal" }, "geometry": { "type": "Point", "coordinates": [ 45.4940672, 58.3864458 ] } },
{ "type": "Feature", "properties": { "full_id": "n4550808784", "osm_id": "4550808784", "osm_type": "node", "highway": "give_way", "crossing:markings": null, "shelter": null, "bin": null, "bench": null, "barrier": null, "direction": "forward", "public_transport": null, "bus": null, "traffic_sign:direction": null, "traffic_sign": null, "name": null, "railway": null, "crossing": null, "horse": null, "bicycle": null, "traffic_signals": null }, "geometry": { "type": "Point", "coordinates": [ 45.5836875, 58.3761755 ] } },
{ "type": "Feature", "properties": { "full_id": "n5415676520", "osm_id": "5415676520", "osm_type": "node", "highway": null, "crossing:markings": null, "shelter": null, "bin": null, "bench": null, "barrier": "gate", "direction": null, "public_transport": null, "bus": null, "traffic_sign:direction": null, "traffic_sign": null, "name": null, "railway": null, "crossing": null, "horse": null, "bicycle": null, "traffic_signals": null }, "geometry": { "type": "Point", "coordinates": [ 45.4939306, 58.404046 ] } },
{ "type": "Feature", "properties": { "full_id": "n5415676545", "osm_id": "5415676545", "osm_type": "node", "highway": null, "crossing:markings": null, "shelter": null, "bin": null, "bench": null, "barrier": null, "direction": null, "public_transport": null, "bus": null, "traffic_sign:direction": null, "traffic_sign": null, "name": null, "railway": "level_crossing", "crossing": null, "horse": null, "bicycle": null, "traffic_signals": null }, "geometry": { "type": "Point", "coordinates": [ 45.4792942, 58.4033165 ] } },
{ "type": "Feature", "properties": { "full_id": "n5415676546", "osm_id": "5415676546", "osm_type": "node", "highway": null, "crossing:markings": null, "shelter": null, "bin": null, "bench": null, "barrier": null, "direction": null, "public_transport": null, "bus": null, "traffic_sign:direction": null, "traffic_sign": null, "name": null, "railway": "level_crossing", "crossing": null, "horse": null, "bicycle": null, "traffic_signals": null }, "geometry": { "type": "Point", "coordinates": [ 45.4790193, 58.4033385 ] } },
{ "type": "Feature", "properties": { "full_id": "n5415676548", "osm_id": "5415676548", "osm_type": "node", "highway": null, "crossing:markings": null, "shelter": null, "bin": null, "bench": null, "barrier": null, "direction": null, "public_transport": null, "bus": null, "traffic_sign:direction": null, "traffic_sign": null, "name": null, "railway": "level_crossing", "crossing": null, "horse": null, "bicycle": null, "traffic_signals": null }, "geometry": { "type": "Point", "coordinates": [ 45.4788977, 58.4034206 ] } },
{ "type": "Feature", "properties": { "full_id": "n5415676550", "osm_id": "5415676550", "osm_type": "node", "highway": null, "crossing:markings": null, "shelter": null, "bin": null, "bench": null, "barrier": null, "direction": null, "public_transport": null, "bus": null, "traffic_sign:direction": null, "traffic_sign": null, "name": null, "railway": "level_crossing", "crossing": null, "horse": null, "bicycle": null, "traffic_signals": null }, "geometry": { "type": "Point", "coordinates": [ 45.4794556, 58.4033672 ] } },
{ "type": "Feature", "properties": { "full_id": "n5415676558", "osm_id": "5415676558", "osm_type": "node", "highway": null, "crossing:markings": null, "shelter": null, "bin": null, "bench": null, "barrier": null, "direction": null, "public_transport": null, "bus": null, "traffic_sign:direction": null, "traffic_sign": null, "name": null, "railway": "level_crossing", "crossing": null, "horse": null, "bicycle": null, "traffic_signals": null }, "geometry": { "type": "Point", "coordinates": [ 45.4794931, 58.4033953 ] } },
{ "type": "Feature", "properties": { "full_id": "n5415676559", "osm_id": "5415676559", "osm_type": "node", "highway": null, "crossing:markings": null, "shelter": null, "bin": null, "bench": null, "barrier": null, "direction": null, "public_transport": null, "bus": null, "traffic_sign:direction": null, "traffic_sign": null, "name": null, "railway": "level_crossing", "crossing": null, "horse": null, "bicycle": null, "traffic_signals": null }, "geometry": { "type": "Point", "coordinates": [ 45.478856, 58.4034798 ] } },
{ "type": "Feature", "properties": { "full_id": "n6957432976", "osm_id": "6957432976", "osm_type": "node", "highway": "crossing", "crossing:markings": null, "shelter": null, "bin": null, "bench": null, "barrier": null, "direction": null, "public_transport": null, "bus": null, "traffic_sign:direction": null, "traffic_sign": null, "name": null, "railway": null, "crossing": "uncontrolled", "horse": null, "bicycle": null, "traffic_signals": null }, "geometry": { "type": "Point", "coordinates": [ 45.5119719, 58.3706994 ] } },
{ "type": "Feature", "properties": { "full_id": "n7042346532", "osm_id": "7042346532", "osm_type": "node", "highway": "bus_stop", "crossing:markings": null, "shelter": null, "bin": null, "bench": null, "barrier": null, "direction": null, "public_transport": null, "bus": null, "traffic_sign:direction": null, "traffic_sign": null, "name": "Стройцентр \"Огонёк\"", "railway": null, "crossing": null, "horse": null, "bicycle": null, "traffic_signals": null }, "geometry": { "type": "Point", "coordinates": [ 45.4964688, 58.3811057 ] } },
{ "type": "Feature", "properties": { "full_id": "n7042346533", "osm_id": "7042346533", "osm_type": "node", "highway": "bus_stop", "crossing:markings": null, "shelter": null, "bin": null, "bench": null, "barrier": null, "direction": null, "public_transport": null, "bus": null, "traffic_sign:direction": null, "traffic_sign": null, "name": "Стройцентр \"Огонёк\"", "railway": null, "crossing": null, "horse": null, "bicycle": null, "traffic_signals": null }, "geometry": { "type": "Point", "coordinates": [ 45.4961926, 58.3815866 ] } },
{ "type": "Feature", "properties": { "full_id": "n7042346534", "osm_id": "7042346534", "osm_type": "node", "highway": "bus_stop", "crossing:markings": null, "shelter": null, "bin": null, "bench": null, "barrier": null, "direction": null, "public_transport": "platform", "bus": "yes", "traffic_sign:direction": null, "traffic_sign": null, "name": "Редакция", "railway": null, "crossing": null, "horse": null, "bicycle": null, "traffic_signals": null }, "geometry": { "type": "Point", "coordinates": [ 45.4972688, 58.3823994 ] } },
{ "type": "Feature", "properties": { "full_id": "n7042346535", "osm_id": "7042346535", "osm_type": "node", "highway": "bus_stop", "crossing:markings": null, "shelter": null, "bin": null, "bench": null, "barrier": null, "direction": null, "public_transport": null, "bus": null, "traffic_sign:direction": null, "traffic_sign": null, "name": "Редакция", "railway": null, "crossing": null, "horse": null, "bicycle": null, "traffic_signals": null }, "geometry": { "type": "Point", "coordinates": [ 45.4971877, 58.382256 ] } },
{ "type": "Feature", "properties": { "full_id": "n7042346536", "osm_id": "7042346536", "osm_type": "node", "highway": "bus_stop", "crossing:markings": null, "shelter": null, "bin": null, "bench": null, "barrier": null, "direction": null, "public_transport": null, "bus": null, "traffic_sign:direction": null, "traffic_sign": null, "name": "КПД", "railway": null, "crossing": null, "horse": null, "bicycle": null, "traffic_signals": null }, "geometry": { "type": "Point", "coordinates": [ 45.484014, 58.389312 ] } },
{ "type": "Feature", "properties": { "full_id": "n7042346538", "osm_id": "7042346538", "osm_type": "node", "highway": "bus_stop", "crossing:markings": null, "shelter": null, "bin": null, "bench": null, "barrier": null, "direction": null, "public_transport": null, "bus": null, "traffic_sign:direction": null, "traffic_sign": null, "name": "Парк", "railway": null, "crossing": null, "horse": null, "bicycle": null, "traffic_signals": null }, "geometry": { "type": "Point", "coordinates": [ 45.4956548, 58.3846857 ] } },
{ "type": "Feature", "properties": { "full_id": "n7042346539", "osm_id": "7042346539", "osm_type": "node", "highway": "bus_stop", "crossing:markings": null, "shelter": null, "bin": null, "bench": null, "barrier": null, "direction": null, "public_transport": null, "bus": null, "traffic_sign:direction": null, "traffic_sign": null, "name": "Парк", "railway": null, "crossing": null, "horse": null, "bicycle": null, "traffic_signals": null }, "geometry": { "type": "Point", "coordinates": [ 45.4951224, 58.3850386 ] } },
{ "type": "Feature", "properties": { "full_id": "n7042346540", "osm_id": "7042346540", "osm_type": "node", "highway": "bus_stop", "crossing:markings": null, "shelter": "yes", "bin": "yes", "bench": "yes", "barrier": null, "direction": null, "public_transport": null, "bus": null, "traffic_sign:direction": null, "traffic_sign": null, "name": "Парк", "railway": null, "crossing": null, "horse": null, "bicycle": null, "traffic_signals": null }, "geometry": { "type": "Point", "coordinates": [ 45.4952954, 58.3841971 ] } },
{ "type": "Feature", "properties": { "full_id": "n7179356297", "osm_id": "7179356297", "osm_type": "node", "highway": "crossing", "crossing:markings": null, "shelter": null, "bin": null, "bench": null, "barrier": null, "direction": null, "public_transport": null, "bus": null, "traffic_sign:direction": null, "traffic_sign": null, "name": null, "railway": null, "crossing": null, "horse": null, "bicycle": null, "traffic_signals": null }, "geometry": { "type": "Point", "coordinates": [ 45.4964166, 58.3809835 ] } },
{ "type": "Feature", "properties": { "full_id": "n7246786110", "osm_id": "7246786110", "osm_type": "node", "highway": "speed_camera", "crossing:markings": null, "shelter": null, "bin": null, "bench": null, "barrier": null, "direction": null, "public_transport": null, "bus": null, "traffic_sign:direction": null, "traffic_sign": null, "name": null, "railway": null, "crossing": null, "horse": null, "bicycle": null, "traffic_signals": null }, "geometry": { "type": "Point", "coordinates": [ 45.559854, 58.3443335 ] } },
{ "type": "Feature", "properties": { "full_id": "n7359204479", "osm_id": "7359204479", "osm_type": "node", "highway": "speed_camera", "crossing:markings": null, "shelter": null, "bin": null, "bench": null, "barrier": null, "direction": null, "public_transport": null, "bus": null, "traffic_sign:direction": null, "traffic_sign": null, "name": null, "railway": null, "crossing": null, "horse": null, "bicycle": null, "traffic_signals": null }, "geometry": { "type": "Point", "coordinates": [ 45.507003, 58.3564108 ] } },
{ "type": "Feature", "properties": { "full_id": "n7390708724", "osm_id": "7390708724", "osm_type": "node", "highway": "crossing", "crossing:markings": null, "shelter": null, "bin": null, "bench": null, "barrier": null, "direction": null, "public_transport": null, "bus": null, "traffic_sign:direction": null, "traffic_sign": null, "name": null, "railway": null, "crossing": "uncontrolled", "horse": null, "bicycle": null, "traffic_signals": null }, "geometry": { "type": "Point", "coordinates": [ 45.5440541, 58.3601563 ] } },
{ "type": "Feature", "properties": { "full_id": "n7438323589", "osm_id": "7438323589", "osm_type": "node", "highway": null, "crossing:markings": null, "shelter": null, "bin": null, "bench": null, "barrier": null, "direction": null, "public_transport": null, "bus": null, "traffic_sign:direction": null, "traffic_sign": null, "name": null, "railway": "crossing", "crossing": null, "horse": null, "bicycle": null, "traffic_signals": null }, "geometry": { "type": "Point", "coordinates": [ 45.5028525, 58.3661442 ] } },
{ "type": "Feature", "properties": { "full_id": "n7438323590", "osm_id": "7438323590", "osm_type": "node", "highway": null, "crossing:markings": null, "shelter": null, "bin": null, "bench": null, "barrier": null, "direction": null, "public_transport": null, "bus": null, "traffic_sign:direction": null, "traffic_sign": null, "name": null, "railway": "crossing", "crossing": null, "horse": null, "bicycle": null, "traffic_signals": null }, "geometry": { "type": "Point", "coordinates": [ 45.5029356, 58.3662251 ] } },
{ "type": "Feature", "properties": { "full_id": "n7475330066", "osm_id": "7475330066", "osm_type": "node", "highway": "crossing", "crossing:markings": "zebra", "shelter": null, "bin": null, "bench": null, "barrier": null, "direction": null, "public_transport": null, "bus": null, "traffic_sign:direction": null, "traffic_sign": null, "name": null, "railway": null, "crossing": "traffic_signals", "horse": null, "bicycle": null, "traffic_signals": null }, "geometry": { "type": "Point", "coordinates": [ 45.5117101, 58.3692044 ] } },
{ "type": "Feature", "properties": { "full_id": "n7475330068", "osm_id": "7475330068", "osm_type": "node", "highway": "crossing", "crossing:markings": null, "shelter": null, "bin": null, "bench": null, "barrier": null, "direction": null, "public_transport": null, "bus": null, "traffic_sign:direction": null, "traffic_sign": null, "name": null, "railway": null, "crossing": "uncontrolled", "horse": null, "bicycle": null, "traffic_signals": null }, "geometry": { "type": "Point", "coordinates": [ 45.5130282, 58.3690453 ] } },
{ "type": "Feature", "properties": { "full_id": "n7537712645", "osm_id": "7537712645", "osm_type": "node", "highway": null, "crossing:markings": null, "shelter": null, "bin": null, "bench": null, "barrier": null, "direction": null, "public_transport": null, "bus": null, "traffic_sign:direction": "backward", "traffic_sign": "city_limit", "name": "Шарья", "railway": null, "crossing": null, "horse": null, "bicycle": null, "traffic_signals": null }, "geometry": { "type": "Point", "coordinates": [ 45.5544268, 58.3748981 ] } },
{ "type": "Feature", "properties": { "full_id": "n7537712653", "osm_id": "7537712653", "osm_type": "node", "highway": null, "crossing:markings": null, "shelter": null, "bin": null, "bench": null, "barrier": null, "direction": null, "public_transport": null, "bus": null, "traffic_sign:direction": null, "traffic_sign": null, "name": null, "railway": "level_crossing", "crossing": null, "horse": null, "bicycle": null, "traffic_signals": null }, "geometry": { "type": "Point", "coordinates": [ 45.546594, 58.3711427 ] } },
{ "type": "Feature", "properties": { "full_id": "n7593154104", "osm_id": "7593154104", "osm_type": "node", "highway": null, "crossing:markings": null, "shelter": null, "bin": null, "bench": null, "barrier": null, "direction": null, "public_transport": null, "bus": null, "traffic_sign:direction": null, "traffic_sign": null, "name": null, "railway": "crossing", "crossing": null, "horse": null, "bicycle": null, "traffic_signals": null }, "geometry": { "type": "Point", "coordinates": [ 45.5028914, 58.366185 ] } },
{ "type": "Feature", "properties": { "full_id": "n9131932705", "osm_id": "9131932705", "osm_type": "node", "highway": "crossing", "crossing:markings": null, "shelter": null, "bin": null, "bench": null, "barrier": null, "direction": null, "public_transport": null, "bus": null, "traffic_sign:direction": null, "traffic_sign": null, "name": null, "railway": null, "crossing": "uncontrolled", "horse": null, "bicycle": null, "traffic_signals": null }, "geometry": { "type": "Point", "coordinates": [ 45.5210372, 58.4118457 ] } },
{ "type": "Feature", "properties": { "full_id": "n9159167735", "osm_id": "9159167735", "osm_type": "node", "highway": "crossing", "crossing:markings": null, "shelter": null, "bin": null, "bench": null, "barrier": null, "direction": null, "public_transport": null, "bus": null, "traffic_sign:direction": null, "traffic_sign": null, "name": null, "railway": null, "crossing": "traffic_signals", "horse": null, "bicycle": null, "traffic_signals": null }, "geometry": { "type": "Point", "coordinates": [ 45.5115629, 58.3692878 ] } },
{ "type": "Feature", "properties": { "full_id": "n9159167736", "osm_id": "9159167736", "osm_type": "node", "highway": "crossing", "crossing:markings": null, "shelter": null, "bin": null, "bench": null, "barrier": null, "direction": null, "public_transport": null, "bus": null, "traffic_sign:direction": null, "traffic_sign": null, "name": null, "railway": null, "crossing": "uncontrolled", "horse": null, "bicycle": null, "traffic_signals": null }, "geometry": { "type": "Point", "coordinates": [ 45.5117896, 58.3705756 ] } },
{ "type": "Feature", "properties": { "full_id": "n10002252174", "osm_id": "10002252174", "osm_type": "node", "highway": "give_way", "crossing:markings": null, "shelter": null, "bin": null, "bench": null, "barrier": null, "direction": "forward", "public_transport": null, "bus": null, "traffic_sign:direction": null, "traffic_sign": null, "name": null, "railway": null, "crossing": null, "horse": null, "bicycle": null, "traffic_signals": null }, "geometry": { "type": "Point", "coordinates": [ 45.5837773, 58.37478 ] } },
{ "type": "Feature", "properties": { "full_id": "n10002252175", "osm_id": "10002252175", "osm_type": "node", "highway": "give_way", "crossing:markings": null, "shelter": null, "bin": null, "bench": null, "barrier": null, "direction": "forward", "public_transport": null, "bus": null, "traffic_sign:direction": null, "traffic_sign": null, "name": null, "railway": null, "crossing": null, "horse": null, "bicycle": null, "traffic_signals": null }, "geometry": { "type": "Point", "coordinates": [ 45.5855255, 58.3755519 ] } },
{ "type": "Feature", "properties": { "full_id": "n10002252176", "osm_id": "10002252176", "osm_type": "node", "highway": "give_way", "crossing:markings": null, "shelter": null, "bin": null, "bench": null, "barrier": null, "direction": "forward", "public_transport": null, "bus": null, "traffic_sign:direction": null, "traffic_sign": null, "name": null, "railway": null, "crossing": null, "horse": null, "bicycle": null, "traffic_signals": null }, "geometry": { "type": "Point", "coordinates": [ 45.5819484, 58.3752944 ] } },
{ "type": "Feature", "properties": { "full_id": "n10164101852", "osm_id": "10164101852", "osm_type": "node", "highway": "bus_stop", "crossing:markings": null, "shelter": null, "bin": null, "bench": null, "barrier": null, "direction": null, "public_transport": "platform", "bus": "yes", "traffic_sign:direction": null, "traffic_sign": null, "name": "Козлово", "railway": null, "crossing": null, "horse": null, "bicycle": null, "traffic_signals": null }, "geometry": { "type": "Point", "coordinates": [ 45.5009823, 58.3499273 ] } },
{ "type": "Feature", "properties": { "full_id": "n10164101856", "osm_id": "10164101856", "osm_type": "node", "highway": "crossing", "crossing:markings": null, "shelter": null, "bin": null, "bench": null, "barrier": null, "direction": null, "public_transport": null, "bus": null, "traffic_sign:direction": null, "traffic_sign": null, "name": null, "railway": null, "crossing": "uncontrolled", "horse": null, "bicycle": null, "traffic_signals": null }, "geometry": { "type": "Point", "coordinates": [ 45.5008173, 58.3497834 ] } },
{ "type": "Feature", "properties": { "full_id": "n10164101861", "osm_id": "10164101861", "osm_type": "node", "highway": "bus_stop", "crossing:markings": null, "shelter": null, "bin": null, "bench": null, "barrier": null, "direction": null, "public_transport": "platform", "bus": "yes", "traffic_sign:direction": null, "traffic_sign": null, "name": "Магазин Белочка", "railway": null, "crossing": null, "horse": null, "bicycle": null, "traffic_signals": null }, "geometry": { "type": "Point", "coordinates": [ 45.5021504, 58.3521237 ] } },
{ "type": "Feature", "properties": { "full_id": "n10164101862", "osm_id": "10164101862", "osm_type": "node", "highway": "bus_stop", "crossing:markings": null, "shelter": null, "bin": null, "bench": null, "barrier": null, "direction": null, "public_transport": "platform", "bus": "yes", "traffic_sign:direction": null, "traffic_sign": null, "name": "Магазин Белочка", "railway": null, "crossing": null, "horse": null, "bicycle": null, "traffic_signals": null }, "geometry": { "type": "Point", "coordinates": [ 45.5024723, 58.3521983 ] } },
{ "type": "Feature", "properties": { "full_id": "n10164101869", "osm_id": "10164101869", "osm_type": "node", "highway": "crossing", "crossing:markings": null, "shelter": null, "bin": null, "bench": null, "barrier": null, "direction": null, "public_transport": null, "bus": null, "traffic_sign:direction": null, "traffic_sign": null, "name": null, "railway": null, "crossing": "uncontrolled", "horse": null, "bicycle": null, "traffic_signals": null }, "geometry": { "type": "Point", "coordinates": [ 45.5023036, 58.352144 ] } },
{ "type": "Feature", "properties": { "full_id": "n10164101899", "osm_id": "10164101899", "osm_type": "node", "highway": "bus_stop", "crossing:markings": null, "shelter": null, "bin": null, "bench": null, "barrier": null, "direction": null, "public_transport": "platform", "bus": "yes", "traffic_sign:direction": null, "traffic_sign": null, "name": "Зелёная улица", "railway": null, "crossing": null, "horse": null, "bicycle": null, "traffic_signals": null }, "geometry": { "type": "Point", "coordinates": [ 45.5055629, 58.3517841 ] } },
{ "type": "Feature", "properties": { "full_id": "n10164101900", "osm_id": "10164101900", "osm_type": "node", "highway": "bus_stop", "crossing:markings": null, "shelter": null, "bin": null, "bench": null, "barrier": null, "direction": null, "public_transport": "platform", "bus": "yes", "traffic_sign:direction": null, "traffic_sign": null, "name": "Зелёная улица", "railway": null, "crossing": null, "horse": null, "bicycle": null, "traffic_signals": null }, "geometry": { "type": "Point", "coordinates": [ 45.5058027, 58.3517841 ] } },
{ "type": "Feature", "properties": { "full_id": "n10164101903", "osm_id": "10164101903", "osm_type": "node", "highway": "bus_stop", "crossing:markings": null, "shelter": null, "bin": null, "bench": null, "barrier": null, "direction": null, "public_transport": "platform", "bus": "yes", "traffic_sign:direction": null, "traffic_sign": null, "name": "Берёзовка", "railway": null, "crossing": null, "horse": null, "bicycle": null, "traffic_signals": null }, "geometry": { "type": "Point", "coordinates": [ 45.5110593, 58.3538375 ] } },
{ "type": "Feature", "properties": { "full_id": "n10164101904", "osm_id": "10164101904", "osm_type": "node", "highway": "bus_stop", "crossing:markings": null, "shelter": null, "bin": null, "bench": null, "barrier": null, "direction": null, "public_transport": "platform", "bus": "yes", "traffic_sign:direction": null, "traffic_sign": null, "name": "Берёзовка", "railway": null, "crossing": null, "horse": null, "bicycle": null, "traffic_signals": null }, "geometry": { "type": "Point", "coordinates": [ 45.5113677, 58.3539093 ] } },
{ "type": "Feature", "properties": { "full_id": "n10164101922", "osm_id": "10164101922", "osm_type": "node", "highway": "bus_stop", "crossing:markings": null, "shelter": null, "bin": null, "bench": null, "barrier": null, "direction": null, "public_transport": "platform", "bus": "yes", "traffic_sign:direction": null, "traffic_sign": null, "name": "Советская улица", "railway": null, "crossing": null, "horse": null, "bicycle": null, "traffic_signals": null }, "geometry": { "type": "Point", "coordinates": [ 45.5152799, 58.3575505 ] } },
{ "type": "Feature", "properties": { "full_id": "n10164101923", "osm_id": "10164101923", "osm_type": "node", "highway": "bus_stop", "crossing:markings": null, "shelter": null, "bin": null, "bench": null, "barrier": null, "direction": null, "public_transport": "platform", "bus": "yes", "traffic_sign:direction": null, "traffic_sign": null, "name": "Советская улица", "railway": null, "crossing": null, "horse": null, "bicycle": null, "traffic_signals": null }, "geometry": { "type": "Point", "coordinates": [ 45.5151984, 58.3574747 ] } },
{ "type": "Feature", "properties": { "full_id": "n10164101924", "osm_id": "10164101924", "osm_type": "node", "highway": "crossing", "crossing:markings": null, "shelter": null, "bin": null, "bench": null, "barrier": null, "direction": null, "public_transport": null, "bus": null, "traffic_sign:direction": null, "traffic_sign": null, "name": null, "railway": null, "crossing": "uncontrolled", "horse": null, "bicycle": null, "traffic_signals": null }, "geometry": { "type": "Point", "coordinates": [ 45.5146837, 58.3576606 ] } },
{ "type": "Feature", "properties": { "full_id": "n10164101927", "osm_id": "10164101927", "osm_type": "node", "highway": "crossing", "crossing:markings": null, "shelter": null, "bin": null, "bench": null, "barrier": null, "direction": null, "public_transport": null, "bus": null, "traffic_sign:direction": null, "traffic_sign": null, "name": null, "railway": null, "crossing": "uncontrolled", "horse": null, "bicycle": null, "traffic_signals": null }, "geometry": { "type": "Point", "coordinates": [ 45.522221, 58.3564067 ] } },
{ "type": "Feature", "properties": { "full_id": "n10164101973", "osm_id": "10164101973", "osm_type": "node", "highway": "bus_stop", "crossing:markings": null, "shelter": null, "bin": null, "bench": null, "barrier": null, "direction": null, "public_transport": "platform", "bus": "yes", "traffic_sign:direction": null, "traffic_sign": null, "name": "Рембыттехника", "railway": null, "crossing": null, "horse": null, "bicycle": null, "traffic_signals": null }, "geometry": { "type": "Point", "coordinates": [ 45.5223143, 58.3564468 ] } },
{ "type": "Feature", "properties": { "full_id": "n10164101974", "osm_id": "10164101974", "osm_type": "node", "highway": "bus_stop", "crossing:markings": null, "shelter": null, "bin": null, "bench": null, "barrier": null, "direction": null, "public_transport": "platform", "bus": "yes", "traffic_sign:direction": null, "traffic_sign": null, "name": "Рембыттехника", "railway": null, "crossing": null, "horse": null, "bicycle": null, "traffic_signals": null }, "geometry": { "type": "Point", "coordinates": [ 45.5227798, 58.3561764 ] } },
{ "type": "Feature", "properties": { "full_id": "n10164101976", "osm_id": "10164101976", "osm_type": "node", "highway": "bus_stop", "crossing:markings": null, "shelter": null, "bin": null, "bench": null, "barrier": null, "direction": null, "public_transport": "platform", "bus": "yes", "traffic_sign:direction": null, "traffic_sign": null, "name": "Полевая улица", "railway": null, "crossing": null, "horse": null, "bicycle": null, "traffic_signals": null }, "geometry": { "type": "Point", "coordinates": [ 45.5231861, 58.3546723 ] } },
{ "type": "Feature", "properties": { "full_id": "n10164101977", "osm_id": "10164101977", "osm_type": "node", "highway": "bus_stop", "crossing:markings": null, "shelter": null, "bin": null, "bench": null, "barrier": null, "direction": null, "public_transport": "platform", "bus": "yes", "traffic_sign:direction": null, "traffic_sign": null, "name": "Полевая улица", "railway": null, "crossing": null, "horse": null, "bicycle": null, "traffic_signals": null }, "geometry": { "type": "Point", "coordinates": [ 45.5239424, 58.3547586 ] } },
{ "type": "Feature", "properties": { "full_id": "n10164101992", "osm_id": "10164101992", "osm_type": "node", "highway": "crossing", "crossing:markings": null, "shelter": null, "bin": null, "bench": null, "barrier": null, "direction": null, "public_transport": null, "bus": null, "traffic_sign:direction": null, "traffic_sign": null, "name": null, "railway": null, "crossing": "uncontrolled", "horse": null, "bicycle": null, "traffic_signals": null }, "geometry": { "type": "Point", "coordinates": [ 45.5162794, 58.3683931 ] } },
{ "type": "Feature", "properties": { "full_id": "n10164165139", "osm_id": "10164165139", "osm_type": "node", "highway": "crossing", "crossing:markings": null, "shelter": null, "bin": null, "bench": null, "barrier": null, "direction": null, "public_transport": null, "bus": null, "traffic_sign:direction": null, "traffic_sign": null, "name": null, "railway": null, "crossing": "uncontrolled", "horse": null, "bicycle": null, "traffic_signals": null }, "geometry": { "type": "Point", "coordinates": [ 45.5233293, 58.3627601 ] } },
{ "type": "Feature", "properties": { "full_id": "n10164165140", "osm_id": "10164165140", "osm_type": "node", "highway": "crossing", "crossing:markings": null, "shelter": null, "bin": null, "bench": null, "barrier": null, "direction": null, "public_transport": null, "bus": null, "traffic_sign:direction": null, "traffic_sign": null, "name": null, "railway": null, "crossing": "uncontrolled", "horse": null, "bicycle": null, "traffic_signals": null }, "geometry": { "type": "Point", "coordinates": [ 45.5334486, 58.3637604 ] } },
{ "type": "Feature", "properties": { "full_id": "n10164165141", "osm_id": "10164165141", "osm_type": "node", "highway": "bus_stop", "crossing:markings": null, "shelter": "yes", "bin": null, "bench": null, "barrier": null, "direction": null, "public_transport": "platform", "bus": "yes", "traffic_sign:direction": null, "traffic_sign": null, "name": "Тяговый переулок", "railway": null, "crossing": null, "horse": null, "bicycle": null, "traffic_signals": null }, "geometry": { "type": "Point", "coordinates": [ 45.5370834, 58.3632384 ] } },
{ "type": "Feature", "properties": { "full_id": "n10164165142", "osm_id": "10164165142", "osm_type": "node", "highway": "bus_stop", "crossing:markings": null, "shelter": "yes", "bin": null, "bench": null, "barrier": null, "direction": null, "public_transport": "platform", "bus": "yes", "traffic_sign:direction": null, "traffic_sign": null, "name": "Тяговый переулок", "railway": null, "crossing": null, "horse": null, "bicycle": null, "traffic_signals": null }, "geometry": { "type": "Point", "coordinates": [ 45.537354, 58.3628729 ] } },
{ "type": "Feature", "properties": { "full_id": "n10164165144", "osm_id": "10164165144", "osm_type": "node", "highway": "bus_stop", "crossing:markings": null, "shelter": null, "bin": null, "bench": null, "barrier": null, "direction": null, "public_transport": "platform", "bus": "yes", "traffic_sign:direction": null, "traffic_sign": null, "name": "Владимирская улица", "railway": null, "crossing": null, "horse": null, "bicycle": null, "traffic_signals": null }, "geometry": { "type": "Point", "coordinates": [ 45.5338781, 58.36387 ] } },
{ "type": "Feature", "properties": { "full_id": "n10164165145", "osm_id": "10164165145", "osm_type": "node", "highway": "bus_stop", "crossing:markings": null, "shelter": null, "bin": null, "bench": null, "barrier": null, "direction": null, "public_transport": "platform", "bus": "yes", "traffic_sign:direction": null, "traffic_sign": null, "name": "Владимирская улица", "railway": null, "crossing": null, "horse": null, "bicycle": null, "traffic_signals": null }, "geometry": { "type": "Point", "coordinates": [ 45.53333, 58.3636684 ] } },
{ "type": "Feature", "properties": { "full_id": "n10164165146", "osm_id": "10164165146", "osm_type": "node", "highway": "bus_stop", "crossing:markings": null, "shelter": null, "bin": null, "bench": null, "barrier": null, "direction": null, "public_transport": "platform", "bus": "yes", "traffic_sign:direction": null, "traffic_sign": null, "name": "Улица Карла Маркса", "railway": null, "crossing": null, "horse": null, "bicycle": null, "traffic_signals": null }, "geometry": { "type": "Point", "coordinates": [ 45.5243163, 58.3627789 ] } },
{ "type": "Feature", "properties": { "full_id": "n10164165147", "osm_id": "10164165147", "osm_type": "node", "highway": "bus_stop", "crossing:markings": null, "shelter": null, "bin": null, "bench": null, "barrier": null, "direction": null, "public_transport": "platform", "bus": "yes", "traffic_sign:direction": null, "traffic_sign": null, "name": "Улица Карла Маркса", "railway": null, "crossing": null, "horse": null, "bicycle": null, "traffic_signals": null }, "geometry": { "type": "Point", "coordinates": [ 45.5255544, 58.3629918 ] } },
{ "type": "Feature", "properties": { "full_id": "n10164165148", "osm_id": "10164165148", "osm_type": "node", "highway": "bus_stop", "crossing:markings": null, "shelter": null, "bin": null, "bench": null, "barrier": null, "direction": null, "public_transport": "platform", "bus": "yes", "traffic_sign:direction": null, "traffic_sign": null, "name": "Набережная улица", "railway": null, "crossing": null, "horse": null, "bicycle": null, "traffic_signals": null }, "geometry": { "type": "Point", "coordinates": [ 45.5162743, 58.3622623 ] } },
{ "type": "Feature", "properties": { "full_id": "n10164165149", "osm_id": "10164165149", "osm_type": "node", "highway": "bus_stop", "crossing:markings": null, "shelter": null, "bin": null, "bench": null, "barrier": null, "direction": null, "public_transport": "platform", "bus": "yes", "traffic_sign:direction": null, "traffic_sign": null, "name": "Набережная улица", "railway": null, "crossing": null, "horse": null, "bicycle": null, "traffic_signals": null }, "geometry": { "type": "Point", "coordinates": [ 45.5164003, 58.3623622 ] } },
{ "type": "Feature", "properties": { "full_id": "n10164165161", "osm_id": "10164165161", "osm_type": "node", "highway": "bus_stop", "crossing:markings": null, "shelter": null, "bin": null, "bench": null, "barrier": null, "direction": null, "public_transport": "platform", "bus": "yes", "traffic_sign:direction": null, "traffic_sign": null, "name": "Агроснаб", "railway": null, "crossing": null, "horse": null, "bicycle": null, "traffic_signals": null }, "geometry": { "type": "Point", "coordinates": [ 45.5120985, 58.3641459 ] } },
{ "type": "Feature", "properties": { "full_id": "n10164165162", "osm_id": "10164165162", "osm_type": "node", "highway": "bus_stop", "crossing:markings": null, "shelter": null, "bin": null, "bench": null, "barrier": null, "direction": null, "public_transport": "platform", "bus": "yes", "traffic_sign:direction": null, "traffic_sign": null, "name": "Агроснаб", "railway": null, "crossing": null, "horse": null, "bicycle": null, "traffic_signals": null }, "geometry": { "type": "Point", "coordinates": [ 45.5119139, 58.3642646 ] } },
{ "type": "Feature", "properties": { "full_id": "n10164165177", "osm_id": "10164165177", "osm_type": "node", "highway": "bus_stop", "crossing:markings": null, "shelter": null, "bin": null, "bench": null, "barrier": null, "direction": null, "public_transport": "platform", "bus": "yes", "traffic_sign:direction": null, "traffic_sign": null, "name": "Межрайбаза", "railway": null, "crossing": null, "horse": null, "bicycle": null, "traffic_signals": null }, "geometry": { "type": "Point", "coordinates": [ 45.5006628, 58.3645512 ] } },
{ "type": "Feature", "properties": { "full_id": "n10164165178", "osm_id": "10164165178", "osm_type": "node", "highway": "bus_stop", "crossing:markings": null, "shelter": null, "bin": null, "bench": null, "barrier": null, "direction": null, "public_transport": "platform", "bus": "yes", "traffic_sign:direction": null, "traffic_sign": null, "name": "Межрайбаза", "railway": null, "crossing": null, "horse": null, "bicycle": null, "traffic_signals": null }, "geometry": { "type": "Point", "coordinates": [ 45.5001226, 58.364368 ] } },
{ "type": "Feature", "properties": { "full_id": "n10164165179", "osm_id": "10164165179", "osm_type": "node", "highway": "crossing", "crossing:markings": null, "shelter": null, "bin": null, "bench": null, "barrier": null, "direction": null, "public_transport": null, "bus": null, "traffic_sign:direction": null, "traffic_sign": null, "name": null, "railway": null, "crossing": "uncontrolled", "horse": null, "bicycle": null, "traffic_signals": null }, "geometry": { "type": "Point", "coordinates": [ 45.5003339, 58.3644599 ] } },
{ "type": "Feature", "properties": { "full_id": "n10164165207", "osm_id": "10164165207", "osm_type": "node", "highway": "crossing", "crossing:markings": null, "shelter": null, "bin": null, "bench": null, "barrier": null, "direction": null, "public_transport": null, "bus": null, "traffic_sign:direction": null, "traffic_sign": null, "name": null, "railway": null, "crossing": "uncontrolled", "horse": null, "bicycle": null, "traffic_signals": null }, "geometry": { "type": "Point", "coordinates": [ 45.5046612, 58.3540589 ] } },
{ "type": "Feature", "properties": { "full_id": "n10164165208", "osm_id": "10164165208", "osm_type": "node", "highway": "bus_stop", "crossing:markings": null, "shelter": null, "bin": null, "bench": null, "barrier": null, "direction": null, "public_transport": "platform", "bus": "yes", "traffic_sign:direction": null, "traffic_sign": null, "name": "Старая Белочка", "railway": null, "crossing": null, "horse": null, "bicycle": null, "traffic_signals": null }, "geometry": { "type": "Point", "coordinates": [ 45.5042733, 58.3539238 ] } },
{ "type": "Feature", "properties": { "full_id": "n10164165209", "osm_id": "10164165209", "osm_type": "node", "highway": "bus_stop", "crossing:markings": null, "shelter": null, "bin": null, "bench": null, "barrier": null, "direction": null, "public_transport": "platform", "bus": "yes", "traffic_sign:direction": null, "traffic_sign": null, "name": "Старая Белочка", "railway": null, "crossing": null, "horse": null, "bicycle": null, "traffic_signals": null }, "geometry": { "type": "Point", "coordinates": [ 45.5043168, 58.3536014 ] } },
{ "type": "Feature", "properties": { "full_id": "n10164165212", "osm_id": "10164165212", "osm_type": "node", "highway": "bus_stop", "crossing:markings": null, "shelter": null, "bin": null, "bench": null, "barrier": null, "direction": null, "public_transport": "platform", "bus": "yes", "traffic_sign:direction": null, "traffic_sign": null, "name": "Мясокомбинат", "railway": null, "crossing": null, "horse": null, "bicycle": null, "traffic_signals": null }, "geometry": { "type": "Point", "coordinates": [ 45.5058987, 58.3551901 ] } },
{ "type": "Feature", "properties": { "full_id": "n10164165213", "osm_id": "10164165213", "osm_type": "node", "highway": "bus_stop", "crossing:markings": null, "shelter": null, "bin": null, "bench": null, "barrier": null, "direction": null, "public_transport": "platform", "bus": "yes", "traffic_sign:direction": null, "traffic_sign": null, "name": "Мясокомбинат", "railway": null, "crossing": null, "horse": null, "bicycle": null, "traffic_signals": null }, "geometry": { "type": "Point", "coordinates": [ 45.5059363, 58.3555278 ] } },
{ "type": "Feature", "properties": { "full_id": "n10164165220", "osm_id": "10164165220", "osm_type": "node", "highway": "crossing", "crossing:markings": null, "shelter": null, "bin": null, "bench": null, "barrier": null, "direction": null, "public_transport": null, "bus": null, "traffic_sign:direction": null, "traffic_sign": null, "name": null, "railway": null, "crossing": "uncontrolled", "horse": null, "bicycle": null, "traffic_signals": null }, "geometry": { "type": "Point", "coordinates": [ 45.5091364, 58.3601752 ] } },
{ "type": "Feature", "properties": { "full_id": "n10164165221", "osm_id": "10164165221", "osm_type": "node", "highway": "bus_stop", "crossing:markings": null, "shelter": null, "bin": null, "bench": null, "barrier": null, "direction": null, "public_transport": "platform", "bus": "yes", "traffic_sign:direction": null, "traffic_sign": null, "name": "Красноармейская улица", "railway": null, "crossing": null, "horse": null, "bicycle": null, "traffic_signals": null }, "geometry": { "type": "Point", "coordinates": [ 45.5090069, 58.3606918 ] } },
{ "type": "Feature", "properties": { "full_id": "n10164165222", "osm_id": "10164165222", "osm_type": "node", "highway": "bus_stop", "crossing:markings": null, "shelter": null, "bin": null, "bench": null, "barrier": null, "direction": null, "public_transport": "platform", "bus": "yes", "traffic_sign:direction": null, "traffic_sign": null, "name": "Красноармейская улица", "railway": null, "crossing": null, "horse": null, "bicycle": null, "traffic_signals": null }, "geometry": { "type": "Point", "coordinates": [ 45.5092141, 58.3607798 ] } },
{ "type": "Feature", "properties": { "full_id": "n10164165241", "osm_id": "10164165241", "osm_type": "node", "highway": "crossing", "crossing:markings": null, "shelter": null, "bin": null, "bench": null, "barrier": null, "direction": null, "public_transport": null, "bus": null, "traffic_sign:direction": null, "traffic_sign": null, "name": null, "railway": null, "crossing": "uncontrolled", "horse": null, "bicycle": null, "traffic_signals": null }, "geometry": { "type": "Point", "coordinates": [ 45.515102, 58.3707204 ] } },
{ "type": "Feature", "properties": { "full_id": "n10164165242", "osm_id": "10164165242", "osm_type": "node", "highway": "crossing", "crossing:markings": null, "shelter": null, "bin": null, "bench": null, "barrier": null, "direction": null, "public_transport": null, "bus": null, "traffic_sign:direction": null, "traffic_sign": null, "name": null, "railway": null, "crossing": "uncontrolled", "horse": null, "bicycle": null, "traffic_signals": null }, "geometry": { "type": "Point", "coordinates": [ 45.5129558, 58.3716091 ] } },
{ "type": "Feature", "properties": { "full_id": "n10164165244", "osm_id": "10164165244", "osm_type": "node", "highway": "bus_stop", "crossing:markings": null, "shelter": null, "bin": null, "bench": null, "barrier": null, "direction": null, "public_transport": "platform", "bus": "yes", "traffic_sign:direction": null, "traffic_sign": null, "name": "Рынок", "railway": null, "crossing": null, "horse": null, "bicycle": null, "traffic_signals": null }, "geometry": { "type": "Point", "coordinates": [ 45.5106712, 58.3707688 ] } },
{ "type": "Feature", "properties": { "full_id": "n10164165245", "osm_id": "10164165245", "osm_type": "node", "highway": "bus_stop", "crossing:markings": null, "shelter": null, "bin": null, "bench": null, "barrier": null, "direction": null, "public_transport": "platform", "bus": "yes", "traffic_sign:direction": null, "traffic_sign": null, "name": "Рынок", "railway": null, "crossing": null, "horse": null, "bicycle": null, "traffic_signals": null }, "geometry": { "type": "Point", "coordinates": [ 45.5109758, 58.3708957 ] } },
{ "type": "Feature", "properties": { "full_id": "n10646979896", "osm_id": "10646979896", "osm_type": "node", "highway": null, "crossing:markings": null, "shelter": null, "bin": null, "bench": null, "barrier": null, "direction": null, "public_transport": null, "bus": null, "traffic_sign:direction": null, "traffic_sign": null, "name": null, "railway": "level_crossing", "crossing": null, "horse": null, "bicycle": null, "traffic_signals": null }, "geometry": { "type": "Point", "coordinates": [ 45.4458946, 58.3919377 ] } },
{ "type": "Feature", "properties": { "full_id": "n10719639409", "osm_id": "10719639409", "osm_type": "node", "highway": null, "crossing:markings": null, "shelter": null, "bin": null, "bench": null, "barrier": "gate", "direction": null, "public_transport": null, "bus": null, "traffic_sign:direction": null, "traffic_sign": null, "name": null, "railway": null, "crossing": null, "horse": null, "bicycle": null, "traffic_signals": null }, "geometry": { "type": "Point", "coordinates": [ 45.4988674, 58.3887054 ] } },
{ "type": "Feature", "properties": { "full_id": "n10719639414", "osm_id": "10719639414", "osm_type": "node", "highway": null, "crossing:markings": null, "shelter": null, "bin": null, "bench": null, "barrier": "gate", "direction": null, "public_transport": null, "bus": null, "traffic_sign:direction": null, "traffic_sign": null, "name": null, "railway": null, "crossing": null, "horse": null, "bicycle": null, "traffic_signals": null }, "geometry": { "type": "Point", "coordinates": [ 45.497717, 58.388187 ] } },
{ "type": "Feature", "properties": { "full_id": "n10726527990", "osm_id": "10726527990", "osm_type": "node", "highway": null, "crossing:markings": null, "shelter": null, "bin": null, "bench": null, "barrier": "gate", "direction": null, "public_transport": null, "bus": null, "traffic_sign:direction": null, "traffic_sign": null, "name": null, "railway": null, "crossing": null, "horse": null, "bicycle": null, "traffic_signals": null }, "geometry": { "type": "Point", "coordinates": [ 45.5534447, 58.3683947 ] } },
{ "type": "Feature", "properties": { "full_id": "n10726527994", "osm_id": "10726527994", "osm_type": "node", "highway": null, "crossing:markings": null, "shelter": null, "bin": null, "bench": null, "barrier": "gate", "direction": null, "public_transport": null, "bus": null, "traffic_sign:direction": null, "traffic_sign": null, "name": null, "railway": null, "crossing": null, "horse": null, "bicycle": null, "traffic_signals": null }, "geometry": { "type": "Point", "coordinates": [ 45.5556336, 58.3696053 ] } },
{ "type": "Feature", "properties": { "full_id": "n12228336162", "osm_id": "12228336162", "osm_type": "node", "highway": "crossing", "crossing:markings": null, "shelter": null, "bin": null, "bench": null, "barrier": null, "direction": null, "public_transport": null, "bus": null, "traffic_sign:direction": null, "traffic_sign": null, "name": null, "railway": null, "crossing": "uncontrolled", "horse": null, "bicycle": null, "traffic_signals": null }, "geometry": { "type": "Point", "coordinates": [ 45.5121587, 58.3717118 ] } }
]
}
