{
"type": "FeatureCollection",
"name": "sport_big",
"crs": { "type": "name", "properties": { "name": "urn:ogc:def:crs:OGC:1.3:CRS84" } },
"features": [
{ "type": "Feature", "properties": { "full_id": "n4210530422", "osm_id": "4210530422", "osm_type": "node", "leisure": "fitness_centre", "addr:street": null, "name": "Фитнес зал", "addr:postcode": "157505", "addr:place": "1-й микрорайон", "addr:housenumber": "7А", "addr:city": "Шарья" }, "geometry": { "type": "Point", "coordinates": [ 45.501242, 58.380625 ] } },
{ "type": "Feature", "properties": { "full_id": "n7475579318", "osm_id": "7475579318", "osm_type": "node", "leisure": "sports_centre", "addr:street": "Центральная улица", "name": null, "addr:postcode": "157510", "addr:place": null, "addr:housenumber": "26", "addr:city": "Ветлужский" }, "geometry": { "type": "Point", "coordinates": [ 45.4724555, 58.392683 ] } },
{ "type": "Feature", "properties": { "full_id": "w653428377", "osm_id": "653428377", "osm_type": "way", "leisure": "stadium", "addr:street": null, "name": null, "addr:postcode": null, "addr:place": null, "addr:housenumber": null, "addr:city": null }, "geometry": { "type": "Point", "coordinates": [ 45.495690227263317, 58.389337870072254 ] } },
{ "type": "Feature", "properties": { "full_id": "w653428372", "osm_id": "653428372", "osm_type": "way", "leisure": "stadium", "addr:street": null, "name": null, "addr:postcode": null, "addr:place": null, "addr:housenumber": null, "addr:city": null }, "geometry": { "type": "Point", "coordinates": [ 45.495743610213871, 58.389326463934346 ] } },
{ "type": "Feature", "properties": { "full_id": "w1143913334", "osm_id": "1143913334", "osm_type": "way", "leisure": "stadium", "addr:street": null, "name": "Стадион", "addr:postcode": null, "addr:place": null, "addr:housenumber": null, "addr:city": null }, "geometry": { "type": "Point", "coordinates": [ 45.469374632501065, 58.392786103654863 ] } },
{ "type": "Feature", "properties": { "full_id": "w798109500", "osm_id": "798109500", "osm_type": "way", "leisure": "stadium", "addr:street": "Солнечная улица", "name": null, "addr:postcode": "157505", "addr:place": null, "addr:housenumber": null, "addr:city": "Шарья" }, "geometry": { "type": "Point", "coordinates": [ 45.50348411748795, 58.381028630375233 ] } },
{ "type": "Feature", "properties": { "full_id": "w150882658", "osm_id": "150882658", "osm_type": "way", "leisure": "stadium", "addr:street": null, "name": null, "addr:postcode": null, "addr:place": null, "addr:housenumber": null, "addr:city": null }, "geometry": { "type": "Point", "coordinates": [ 45.505280901404888, 58.384608776620489 ] } },
{ "type": "Feature", "properties": { "full_id": "w100366740", "osm_id": "100366740", "osm_type": "way", "leisure": "fitness_centre", "addr:street": "улица Адмирала Виноградова", "name": "СДЮШОР", "addr:postcode": "157501", "addr:place": null, "addr:housenumber": "21Б", "addr:city": "Шарья" }, "geometry": { "type": "Point", "coordinates": [ 45.499654446298159, 58.371365980952646 ] } },
{ "type": "Feature", "properties": { "full_id": "w150953636", "osm_id": "150953636", "osm_type": "way", "leisure": "fitness_centre", "addr:street": "улица Ивана Шатрова", "name": "Пульс", "addr:postcode": "157505", "addr:place": null, "addr:housenumber": "12", "addr:city": "Шарья" }, "geometry": { "type": "Point", "coordinates": [ 45.517732028690254, 58.380660504933658 ] } },
{ "type": "Feature", "properties": { "full_id": "w96759700", "osm_id": "96759700", "osm_type": "way", "leisure": "stadium", "addr:street": null, "name": null, "addr:postcode": null, "addr:place": null, "addr:housenumber": null, "addr:city": null }, "geometry": { "type": "Point", "coordinates": [ 45.519635052403373, 58.381839128614125 ] } }
]
}
