{
"type": "FeatureCollection",
"name": "highway_point",
"crs": { "type": "name", "properties": { "name": "urn:ogc:def:crs:OGC:1.3:CRS84" } },
"features": [
{ "type": "Feature", "properties": { "full_id": "n688402685", "osm_id": "688402685", "osm_type": "node", "highway": "traffic_signals", "material": null, "access": null, "ford": null, "shelter": null, "maxspeed": null, "public_transport": null, "bus": null, "traffic_sign": null, "name": null, "colour:back": null, "crossing:markings": null, "barrier": null, "crossing": null, "railway": null, "traffic_signals:direction": "both", "traffic_signals": "signal" }, "geometry": { "type": "Point", "coordinates": [ 41.1047198, 57.2515058 ] } },
{ "type": "Feature", "properties": { "full_id": "n1273418926", "osm_id": "1273418926", "osm_type": "node", "highway": null, "material": null, "access": null, "ford": null, "shelter": null, "maxspeed": null, "public_transport": null, "bus": null, "traffic_sign": null, "name": null, "colour:back": null, "crossing:markings": null, "barrier": null, "crossing": null, "railway": "level_crossing", "traffic_signals:direction": null, "traffic_signals": null }, "geometry": { "type": "Point", "coordinates": [ 41.0931024, 57.2586647 ] } },
{ "type": "Feature", "properties": { "full_id": "n1431994298", "osm_id": "1431994298", "osm_type": "node", "highway": null, "material": null, "access": null, "ford": null, "shelter": null, "maxspeed": null, "public_transport": null, "bus": null, "traffic_sign": null, "name": null, "colour:back": null, "crossing:markings": null, "barrier": null, "crossing": null, "railway": "level_crossing", "traffic_signals:direction": null, "traffic_signals": null }, "geometry": { "type": "Point", "coordinates": [ 41.1246077, 57.2302532 ] } },
{ "type": "Feature", "properties": { "full_id": "n1431994395", "osm_id": "1431994395", "osm_type": "node", "highway": null, "material": null, "access": null, "ford": null, "shelter": null, "maxspeed": null, "public_transport": null, "bus": null, "traffic_sign": null, "name": null, "colour:back": null, "crossing:markings": null, "barrier": null, "crossing": null, "railway": "level_crossing", "traffic_signals:direction": null, "traffic_signals": null }, "geometry": { "type": "Point", "coordinates": [ 41.1155686, 57.2467997 ] } },
{ "type": "Feature", "properties": { "full_id": "n1432212031", "osm_id": "1432212031", "osm_type": "node", "highway": null, "material": null, "access": null, "ford": null, "shelter": null, "maxspeed": null, "public_transport": null, "bus": null, "traffic_sign": null, "name": null, "colour:back": null, "crossing:markings": null, "barrier": null, "crossing": null, "railway": "crossing", "traffic_signals:direction": null, "traffic_signals": null }, "geometry": { "type": "Point", "coordinates": [ 41.1168963, 57.2498556 ] } },
{ "type": "Feature", "properties": { "full_id": "n1432212136", "osm_id": "1432212136", "osm_type": "node", "highway": null, "material": null, "access": null, "ford": null, "shelter": null, "maxspeed": null, "public_transport": null, "bus": null, "traffic_sign": null, "name": null, "colour:back": null, "crossing:markings": null, "barrier": null, "crossing": null, "railway": "level_crossing", "traffic_signals:direction": null, "traffic_signals": null }, "geometry": { "type": "Point", "coordinates": [ 41.1207479, 57.2542077 ] } },
{ "type": "Feature", "properties": { "full_id": "n1432212275", "osm_id": "1432212275", "osm_type": "node", "highway": null, "material": null, "access": null, "ford": null, "shelter": null, "maxspeed": null, "public_transport": null, "bus": null, "traffic_sign": null, "name": null, "colour:back": null, "crossing:markings": null, "barrier": null, "crossing": null, "railway": "crossing", "traffic_signals:direction": null, "traffic_signals": null }, "geometry": { "type": "Point", "coordinates": [ 41.1311189, 57.2610339 ] } },
{ "type": "Feature", "properties": { "full_id": "n1432212288", "osm_id": "1432212288", "osm_type": "node", "highway": null, "material": null, "access": null, "ford": null, "shelter": null, "maxspeed": null, "public_transport": null, "bus": null, "traffic_sign": null, "name": null, "colour:back": null, "crossing:markings": null, "barrier": null, "crossing": null, "railway": "level_crossing", "traffic_signals:direction": null, "traffic_signals": null }, "geometry": { "type": "Point", "coordinates": [ 41.1400099, 57.2654405 ] } },
{ "type": "Feature", "properties": { "full_id": "n1432717322", "osm_id": "1432717322", "osm_type": "node", "highway": null, "material": null, "access": null, "ford": null, "shelter": null, "maxspeed": null, "public_transport": null, "bus": null, "traffic_sign": null, "name": null, "colour:back": null, "crossing:markings": null, "barrier": null, "crossing": null, "railway": "crossing", "traffic_signals:direction": null, "traffic_signals": null }, "geometry": { "type": "Point", "coordinates": [ 41.1046152, 57.2443444 ] } },
{ "type": "Feature", "properties": { "full_id": "n1432717355", "osm_id": "1432717355", "osm_type": "node", "highway": null, "material": null, "access": null, "ford": null, "shelter": null, "maxspeed": null, "public_transport": null, "bus": null, "traffic_sign": null, "name": null, "colour:back": null, "crossing:markings": null, "barrier": null, "crossing": null, "railway": "level_crossing", "traffic_signals:direction": null, "traffic_signals": null }, "geometry": { "type": "Point", "coordinates": [ 41.10528, 57.2457704 ] } },
{ "type": "Feature", "properties": { "full_id": "n1442931746", "osm_id": "1442931746", "osm_type": "node", "highway": null, "material": null, "access": null, "ford": null, "shelter": null, "maxspeed": null, "public_transport": null, "bus": null, "traffic_sign": null, "name": null, "colour:back": null, "crossing:markings": null, "barrier": null, "crossing": null, "railway": "level_crossing", "traffic_signals:direction": null, "traffic_signals": null }, "geometry": { "type": "Point", "coordinates": [ 41.0617666, 57.2591939 ] } },
{ "type": "Feature", "properties": { "full_id": "n1449616602", "osm_id": "1449616602", "osm_type": "node", "highway": null, "material": null, "access": null, "ford": null, "shelter": null, "maxspeed": null, "public_transport": null, "bus": null, "traffic_sign": null, "name": null, "colour:back": null, "crossing:markings": null, "barrier": null, "crossing": null, "railway": "level_crossing", "traffic_signals:direction": null, "traffic_signals": null }, "geometry": { "type": "Point", "coordinates": [ 41.1109418, 57.2599982 ] } },
{ "type": "Feature", "properties": { "full_id": "n1449616608", "osm_id": "1449616608", "osm_type": "node", "highway": null, "material": null, "access": null, "ford": null, "shelter": null, "maxspeed": null, "public_transport": null, "bus": null, "traffic_sign": null, "name": null, "colour:back": null, "crossing:markings": null, "barrier": null, "crossing": null, "railway": "level_crossing", "traffic_signals:direction": null, "traffic_signals": null }, "geometry": { "type": "Point", "coordinates": [ 41.1004914, 57.2600588 ] } },
{ "type": "Feature", "properties": { "full_id": "n1449616611", "osm_id": "1449616611", "osm_type": "node", "highway": null, "material": null, "access": null, "ford": null, "shelter": null, "maxspeed": null, "public_transport": null, "bus": null, "traffic_sign": null, "name": null, "colour:back": null, "crossing:markings": null, "barrier": null, "crossing": null, "railway": "crossing", "traffic_signals:direction": null, "traffic_signals": null }, "geometry": { "type": "Point", "coordinates": [ 41.1006665, 57.2602358 ] } },
{ "type": "Feature", "properties": { "full_id": "n1453881092", "osm_id": "1453881092", "osm_type": "node", "highway": null, "material": null, "access": null, "ford": null, "shelter": null, "maxspeed": null, "public_transport": null, "bus": null, "traffic_sign": null, "name": null, "colour:back": null, "crossing:markings": null, "barrier": null, "crossing": null, "railway": "crossing", "traffic_signals:direction": null, "traffic_signals": null }, "geometry": { "type": "Point", "coordinates": [ 41.1133021, 57.2592193 ] } },
{ "type": "Feature", "properties": { "full_id": "n1454174483", "osm_id": "1454174483", "osm_type": "node", "highway": null, "material": null, "access": null, "ford": null, "shelter": null, "maxspeed": null, "public_transport": null, "bus": null, "traffic_sign": null, "name": null, "colour:back": null, "crossing:markings": null, "barrier": null, "crossing": null, "railway": "crossing", "traffic_signals:direction": null, "traffic_signals": null }, "geometry": { "type": "Point", "coordinates": [ 41.1171918, 57.2533094 ] } },
{ "type": "Feature", "properties": { "full_id": "n1454267469", "osm_id": "1454267469", "osm_type": "node", "highway": null, "material": null, "access": null, "ford": null, "shelter": null, "maxspeed": null, "public_transport": null, "bus": null, "traffic_sign": null, "name": null, "colour:back": null, "crossing:markings": null, "barrier": null, "crossing": null, "railway": "crossing", "traffic_signals:direction": null, "traffic_signals": null }, "geometry": { "type": "Point", "coordinates": [ 41.1256328, 57.2573793 ] } },
{ "type": "Feature", "properties": { "full_id": "n1454268260", "osm_id": "1454268260", "osm_type": "node", "highway": null, "material": null, "access": null, "ford": null, "shelter": null, "maxspeed": null, "public_transport": null, "bus": null, "traffic_sign": null, "name": null, "colour:back": null, "crossing:markings": null, "barrier": null, "crossing": null, "railway": "level_crossing", "traffic_signals:direction": null, "traffic_signals": null }, "geometry": { "type": "Point", "coordinates": [ 41.1541292, 57.2780078 ] } },
{ "type": "Feature", "properties": { "full_id": "n1864965981", "osm_id": "1864965981", "osm_type": "node", "highway": "crossing", "material": null, "access": null, "ford": null, "shelter": null, "maxspeed": null, "public_transport": null, "bus": null, "traffic_sign": null, "name": null, "colour:back": null, "crossing:markings": null, "barrier": null, "crossing": null, "railway": null, "traffic_signals:direction": null, "traffic_signals": null }, "geometry": { "type": "Point", "coordinates": [ 41.1316668, 57.2217419 ] } },
{ "type": "Feature", "properties": { "full_id": "n1866298988", "osm_id": "1866298988", "osm_type": "node", "highway": "crossing", "material": null, "access": null, "ford": null, "shelter": null, "maxspeed": null, "public_transport": null, "bus": null, "traffic_sign": null, "name": null, "colour:back": null, "crossing:markings": null, "barrier": null, "crossing": "uncontrolled", "railway": null, "traffic_signals:direction": null, "traffic_signals": null }, "geometry": { "type": "Point", "coordinates": [ 41.1394923, 57.2326896 ] } },
{ "type": "Feature", "properties": { "full_id": "n1866299231", "osm_id": "1866299231", "osm_type": "node", "highway": null, "material": null, "access": null, "ford": null, "shelter": null, "maxspeed": null, "public_transport": null, "bus": null, "traffic_sign": null, "name": null, "colour:back": null, "crossing:markings": null, "barrier": "gate", "crossing": null, "railway": null, "traffic_signals:direction": null, "traffic_signals": null }, "geometry": { "type": "Point", "coordinates": [ 41.1311252, 57.2376039 ] } },
{ "type": "Feature", "properties": { "full_id": "n1866299275", "osm_id": "1866299275", "osm_type": "node", "highway": null, "material": null, "access": null, "ford": null, "shelter": null, "maxspeed": null, "public_transport": null, "bus": null, "traffic_sign": null, "name": null, "colour:back": null, "crossing:markings": null, "barrier": null, "crossing": null, "railway": "crossing", "traffic_signals:direction": null, "traffic_signals": null }, "geometry": { "type": "Point", "coordinates": [ 41.112484, 57.2381484 ] } },
{ "type": "Feature", "properties": { "full_id": "n1866302710", "osm_id": "1866302710", "osm_type": "node", "highway": null, "material": null, "access": null, "ford": null, "shelter": null, "maxspeed": null, "public_transport": null, "bus": null, "traffic_sign": null, "name": null, "colour:back": null, "crossing:markings": null, "barrier": "gate", "crossing": null, "railway": null, "traffic_signals:direction": null, "traffic_signals": null }, "geometry": { "type": "Point", "coordinates": [ 41.1431796, 57.2702551 ] } },
{ "type": "Feature", "properties": { "full_id": "n1867966595", "osm_id": "1867966595", "osm_type": "node", "highway": "crossing", "material": null, "access": null, "ford": null, "shelter": null, "maxspeed": null, "public_transport": null, "bus": null, "traffic_sign": null, "name": null, "colour:back": null, "crossing:markings": null, "barrier": null, "crossing": null, "railway": null, "traffic_signals:direction": null, "traffic_signals": null }, "geometry": { "type": "Point", "coordinates": [ 41.1070091, 57.2501357 ] } },
{ "type": "Feature", "properties": { "full_id": "n1867966695", "osm_id": "1867966695", "osm_type": "node", "highway": "crossing", "material": null, "access": null, "ford": null, "shelter": null, "maxspeed": null, "public_transport": null, "bus": null, "traffic_sign": null, "name": null, "colour:back": null, "crossing:markings": "yes", "barrier": null, "crossing": "uncontrolled", "railway": null, "traffic_signals:direction": null, "traffic_signals": null }, "geometry": { "type": "Point", "coordinates": [ 41.1060491, 57.2521195 ] } },
{ "type": "Feature", "properties": { "full_id": "n1867966780", "osm_id": "1867966780", "osm_type": "node", "highway": "crossing", "material": null, "access": null, "ford": null, "shelter": null, "maxspeed": null, "public_transport": null, "bus": null, "traffic_sign": null, "name": null, "colour:back": null, "crossing:markings": null, "barrier": null, "crossing": null, "railway": null, "traffic_signals:direction": null, "traffic_signals": null }, "geometry": { "type": "Point", "coordinates": [ 41.1094427, 57.2534542 ] } },
{ "type": "Feature", "properties": { "full_id": "n1867966939", "osm_id": "1867966939", "osm_type": "node", "highway": "crossing", "material": null, "access": null, "ford": null, "shelter": null, "maxspeed": null, "public_transport": null, "bus": null, "traffic_sign": null, "name": null, "colour:back": null, "crossing:markings": null, "barrier": null, "crossing": null, "railway": null, "traffic_signals:direction": null, "traffic_signals": null }, "geometry": { "type": "Point", "coordinates": [ 41.1129692, 57.2548269 ] } },
{ "type": "Feature", "properties": { "full_id": "n1870073744", "osm_id": "1870073744", "osm_type": "node", "highway": null, "material": null, "access": null, "ford": null, "shelter": null, "maxspeed": null, "public_transport": null, "bus": null, "traffic_sign": "city_limit", "name": "Бакшеево", "colour:back": "white", "crossing:markings": null, "barrier": null, "crossing": null, "railway": null, "traffic_signals:direction": null, "traffic_signals": null }, "geometry": { "type": "Point", "coordinates": [ 41.1608858, 57.2839695 ] } },
{ "type": "Feature", "properties": { "full_id": "n4297001095", "osm_id": "4297001095", "osm_type": "node", "highway": null, "material": null, "access": null, "ford": null, "shelter": null, "maxspeed": null, "public_transport": null, "bus": null, "traffic_sign": null, "name": null, "colour:back": null, "crossing:markings": null, "barrier": "gate", "crossing": null, "railway": null, "traffic_signals:direction": null, "traffic_signals": null }, "geometry": { "type": "Point", "coordinates": [ 41.1115667, 57.2504201 ] } },
{ "type": "Feature", "properties": { "full_id": "n5311746900", "osm_id": "5311746900", "osm_type": "node", "highway": null, "material": null, "access": null, "ford": null, "shelter": null, "maxspeed": null, "public_transport": null, "bus": null, "traffic_sign": null, "name": null, "colour:back": null, "crossing:markings": null, "barrier": null, "crossing": null, "railway": "crossing", "traffic_signals:direction": null, "traffic_signals": null }, "geometry": { "type": "Point", "coordinates": [ 41.1173313, 57.2497855 ] } },
{ "type": "Feature", "properties": { "full_id": "n5311746906", "osm_id": "5311746906", "osm_type": "node", "highway": null, "material": null, "access": null, "ford": null, "shelter": null, "maxspeed": null, "public_transport": null, "bus": null, "traffic_sign": null, "name": null, "colour:back": null, "crossing:markings": null, "barrier": null, "crossing": null, "railway": "level_crossing", "traffic_signals:direction": null, "traffic_signals": null }, "geometry": { "type": "Point", "coordinates": [ 41.1156498, 57.2467835 ] } },
{ "type": "Feature", "properties": { "full_id": "n5311746929", "osm_id": "5311746929", "osm_type": "node", "highway": null, "material": null, "access": null, "ford": null, "shelter": null, "maxspeed": null, "public_transport": null, "bus": null, "traffic_sign": null, "name": null, "colour:back": null, "crossing:markings": null, "barrier": null, "crossing": null, "railway": "level_crossing", "traffic_signals:direction": null, "traffic_signals": null }, "geometry": { "type": "Point", "coordinates": [ 41.1153652, 57.2468395 ] } },
{ "type": "Feature", "properties": { "full_id": "n5418585270", "osm_id": "5418585270", "osm_type": "node", "highway": "crossing", "material": null, "access": null, "ford": null, "shelter": null, "maxspeed": null, "public_transport": null, "bus": null, "traffic_sign": null, "name": null, "colour:back": null, "crossing:markings": null, "barrier": null, "crossing": null, "railway": null, "traffic_signals:direction": null, "traffic_signals": null }, "geometry": { "type": "Point", "coordinates": [ 41.1499855, 57.2759039 ] } },
{ "type": "Feature", "properties": { "full_id": "n5418625794", "osm_id": "5418625794", "osm_type": "node", "highway": "crossing", "material": null, "access": null, "ford": null, "shelter": null, "maxspeed": null, "public_transport": null, "bus": null, "traffic_sign": null, "name": null, "colour:back": null, "crossing:markings": null, "barrier": null, "crossing": null, "railway": null, "traffic_signals:direction": null, "traffic_signals": null }, "geometry": { "type": "Point", "coordinates": [ 41.1551786, 57.2486909 ] } },
{ "type": "Feature", "properties": { "full_id": "n5418626225", "osm_id": "5418626225", "osm_type": "node", "highway": "bus_stop", "material": null, "access": null, "ford": null, "shelter": null, "maxspeed": null, "public_transport": "platform", "bus": "yes", "traffic_sign": null, "name": "Фурманов", "colour:back": null, "crossing:markings": null, "barrier": null, "crossing": null, "railway": null, "traffic_signals:direction": null, "traffic_signals": null }, "geometry": { "type": "Point", "coordinates": [ 41.1389858, 57.2325223 ] } },
{ "type": "Feature", "properties": { "full_id": "n5418626226", "osm_id": "5418626226", "osm_type": "node", "highway": "bus_stop", "material": null, "access": null, "ford": null, "shelter": null, "maxspeed": null, "public_transport": "platform", "bus": "yes", "traffic_sign": null, "name": "Фурманов", "colour:back": null, "crossing:markings": null, "barrier": null, "crossing": null, "railway": null, "traffic_signals:direction": null, "traffic_signals": null }, "geometry": { "type": "Point", "coordinates": [ 41.1411312, 57.2339919 ] } },
{ "type": "Feature", "properties": { "full_id": "n7359794538", "osm_id": "7359794538", "osm_type": "node", "highway": "speed_camera", "material": null, "access": null, "ford": null, "shelter": null, "maxspeed": "RU:rural", "public_transport": null, "bus": null, "traffic_sign": null, "name": null, "colour:back": null, "crossing:markings": null, "barrier": null, "crossing": null, "railway": null, "traffic_signals:direction": null, "traffic_signals": null }, "geometry": { "type": "Point", "coordinates": [ 41.1406675, 57.2338329 ] } },
{ "type": "Feature", "properties": { "full_id": "n8064130487", "osm_id": "8064130487", "osm_type": "node", "highway": "bus_stop", "material": null, "access": null, "ford": null, "shelter": null, "maxspeed": null, "public_transport": "platform", "bus": null, "traffic_sign": null, "name": "Баскаково", "colour:back": null, "crossing:markings": null, "barrier": null, "crossing": null, "railway": null, "traffic_signals:direction": null, "traffic_signals": null }, "geometry": { "type": "Point", "coordinates": [ 41.0725969, 57.2270343 ] } },
{ "type": "Feature", "properties": { "full_id": "n8089420188", "osm_id": "8089420188", "osm_type": "node", "highway": "crossing", "material": null, "access": null, "ford": null, "shelter": null, "maxspeed": null, "public_transport": null, "bus": null, "traffic_sign": null, "name": null, "colour:back": null, "crossing:markings": null, "barrier": null, "crossing": "uncontrolled", "railway": null, "traffic_signals:direction": null, "traffic_signals": null }, "geometry": { "type": "Point", "coordinates": [ 41.1185946, 57.1996133 ] } },
{ "type": "Feature", "properties": { "full_id": "n9569327620", "osm_id": "9569327620", "osm_type": "node", "highway": "crossing", "material": null, "access": null, "ford": null, "shelter": null, "maxspeed": null, "public_transport": null, "bus": null, "traffic_sign": null, "name": null, "colour:back": null, "crossing:markings": null, "barrier": null, "crossing": "uncontrolled", "railway": null, "traffic_signals:direction": null, "traffic_signals": null }, "geometry": { "type": "Point", "coordinates": [ 41.1326102, 57.2368802 ] } },
{ "type": "Feature", "properties": { "full_id": "n9569327621", "osm_id": "9569327621", "osm_type": "node", "highway": "bus_stop", "material": null, "access": null, "ford": null, "shelter": "yes", "maxspeed": null, "public_transport": "platform", "bus": "yes", "traffic_sign": null, "name": null, "colour:back": null, "crossing:markings": null, "barrier": null, "crossing": null, "railway": null, "traffic_signals:direction": null, "traffic_signals": null }, "geometry": { "type": "Point", "coordinates": [ 41.1331638, 57.2367875 ] } },
{ "type": "Feature", "properties": { "full_id": "n9569327622", "osm_id": "9569327622", "osm_type": "node", "highway": "bus_stop", "material": null, "access": null, "ford": null, "shelter": "yes", "maxspeed": null, "public_transport": "platform", "bus": "yes", "traffic_sign": null, "name": null, "colour:back": null, "crossing:markings": null, "barrier": null, "crossing": null, "railway": null, "traffic_signals:direction": null, "traffic_signals": null }, "geometry": { "type": "Point", "coordinates": [ 41.1315039, 57.2371936 ] } },
{ "type": "Feature", "properties": { "full_id": "n9569327623", "osm_id": "9569327623", "osm_type": "node", "highway": "crossing", "material": null, "access": null, "ford": null, "shelter": null, "maxspeed": null, "public_transport": null, "bus": null, "traffic_sign": null, "name": null, "colour:back": null, "crossing:markings": null, "barrier": null, "crossing": "uncontrolled", "railway": null, "traffic_signals:direction": null, "traffic_signals": null }, "geometry": { "type": "Point", "coordinates": [ 41.1258659, 57.2393927 ] } },
{ "type": "Feature", "properties": { "full_id": "n9569327624", "osm_id": "9569327624", "osm_type": "node", "highway": "crossing", "material": null, "access": null, "ford": null, "shelter": null, "maxspeed": null, "public_transport": null, "bus": null, "traffic_sign": null, "name": null, "colour:back": null, "crossing:markings": null, "barrier": null, "crossing": "uncontrolled", "railway": null, "traffic_signals:direction": null, "traffic_signals": null }, "geometry": { "type": "Point", "coordinates": [ 41.1208765, 57.2415437 ] } },
{ "type": "Feature", "properties": { "full_id": "n10821135029", "osm_id": "10821135029", "osm_type": "node", "highway": null, "material": null, "access": null, "ford": null, "shelter": null, "maxspeed": null, "public_transport": null, "bus": null, "traffic_sign": null, "name": null, "colour:back": null, "crossing:markings": null, "barrier": "block", "crossing": null, "railway": null, "traffic_signals:direction": null, "traffic_signals": null }, "geometry": { "type": "Point", "coordinates": [ 41.1133101, 57.2474285 ] } },
{ "type": "Feature", "properties": { "full_id": "n10821135046", "osm_id": "10821135046", "osm_type": "node", "highway": null, "material": null, "access": null, "ford": null, "shelter": null, "maxspeed": null, "public_transport": null, "bus": null, "traffic_sign": null, "name": null, "colour:back": null, "crossing:markings": null, "barrier": "block", "crossing": null, "railway": null, "traffic_signals:direction": null, "traffic_signals": null }, "geometry": { "type": "Point", "coordinates": [ 41.110476, 57.2497974 ] } },
{ "type": "Feature", "properties": { "full_id": "n12473627659", "osm_id": "12473627659", "osm_type": "node", "highway": "crossing", "material": null, "access": null, "ford": null, "shelter": null, "maxspeed": null, "public_transport": null, "bus": null, "traffic_sign": null, "name": null, "colour:back": null, "crossing:markings": null, "barrier": null, "crossing": "uncontrolled", "railway": null, "traffic_signals:direction": null, "traffic_signals": null }, "geometry": { "type": "Point", "coordinates": [ 41.2167925, 57.211536 ] } },
{ "type": "Feature", "properties": { "full_id": "n13266932254", "osm_id": "13266932254", "osm_type": "node", "highway": null, "material": null, "access": null, "ford": "yes", "shelter": null, "maxspeed": null, "public_transport": null, "bus": null, "traffic_sign": null, "name": null, "colour:back": null, "crossing:markings": null, "barrier": null, "crossing": null, "railway": null, "traffic_signals:direction": null, "traffic_signals": null }, "geometry": { "type": "Point", "coordinates": [ 41.0350265, 57.2687439 ] } },
{ "type": "Feature", "properties": { "full_id": "n13323902939", "osm_id": "13323902939", "osm_type": "node", "highway": null, "material": "metal", "access": "private", "ford": null, "shelter": null, "maxspeed": null, "public_transport": null, "bus": null, "traffic_sign": null, "name": null, "colour:back": null, "crossing:markings": null, "barrier": "gate", "crossing": null, "railway": null, "traffic_signals:direction": null, "traffic_signals": null }, "geometry": { "type": "Point", "coordinates": [ 41.1115855, 57.2494008 ] } },
{ "type": "Feature", "properties": { "full_id": "n13323902943", "osm_id": "13323902943", "osm_type": "node", "highway": "crossing", "material": null, "access": null, "ford": null, "shelter": null, "maxspeed": null, "public_transport": null, "bus": null, "traffic_sign": null, "name": null, "colour:back": null, "crossing:markings": "yes", "barrier": null, "crossing": "uncontrolled", "railway": null, "traffic_signals:direction": null, "traffic_signals": null }, "geometry": { "type": "Point", "coordinates": [ 41.1134908, 57.2488707 ] } },
{ "type": "Feature", "properties": { "full_id": "n13323902981", "osm_id": "13323902981", "osm_type": "node", "highway": "crossing", "material": null, "access": null, "ford": null, "shelter": null, "maxspeed": null, "public_transport": null, "bus": null, "traffic_sign": null, "name": null, "colour:back": null, "crossing:markings": "yes", "barrier": null, "crossing": "uncontrolled", "railway": null, "traffic_signals:direction": null, "traffic_signals": null }, "geometry": { "type": "Point", "coordinates": [ 41.1066032, 57.2502221 ] } },
{ "type": "Feature", "properties": { "full_id": "n13323902984", "osm_id": "13323902984", "osm_type": "node", "highway": "crossing", "material": null, "access": null, "ford": null, "shelter": null, "maxspeed": null, "public_transport": null, "bus": null, "traffic_sign": null, "name": null, "colour:back": null, "crossing:markings": null, "barrier": null, "crossing": "traffic_signals", "railway": null, "traffic_signals:direction": null, "traffic_signals": null }, "geometry": { "type": "Point", "coordinates": [ 41.1049849, 57.2513421 ] } },
{ "type": "Feature", "properties": { "full_id": "n13323902987", "osm_id": "13323902987", "osm_type": "node", "highway": "crossing", "material": null, "access": null, "ford": null, "shelter": null, "maxspeed": null, "public_transport": null, "bus": null, "traffic_sign": null, "name": null, "colour:back": null, "crossing:markings": null, "barrier": null, "crossing": "traffic_signals", "railway": null, "traffic_signals:direction": null, "traffic_signals": null }, "geometry": { "type": "Point", "coordinates": [ 41.1049908, 57.251662 ] } }
]
}
