{
"type": "FeatureCollection",
"name": "highway_pt",
"crs": { "type": "name", "properties": { "name": "urn:ogc:def:crs:OGC:1.3:CRS84" } },
"features": [
{ "type": "Feature", "properties": { "full_id": "n666041715", "osm_id": "666041715", "osm_type": "node", "highway": "traffic_signals", "entrance": null, "motor_vehicle": null, "barrier": null, "crossing": null, "traffic_signals": "signal" }, "geometry": { "type": "Point", "coordinates": [ 36.5040302, 52.4056425 ] } },
{ "type": "Feature", "properties": { "full_id": "n2925983387", "osm_id": "2925983387", "osm_type": "node", "highway": "crossing", "entrance": null, "motor_vehicle": null, "barrier": null, "crossing": "uncontrolled", "traffic_signals": null }, "geometry": { "type": "Point", "coordinates": [ 36.4550663, 52.4400674 ] } },
{ "type": "Feature", "properties": { "full_id": "n4942431666", "osm_id": "4942431666", "osm_type": "node", "highway": null, "entrance": null, "motor_vehicle": "no", "barrier": "gate", "crossing": null, "traffic_signals": null }, "geometry": { "type": "Point", "coordinates": [ 36.5044207, 52.4056874 ] } },
{ "type": "Feature", "properties": { "full_id": "n4942431673", "osm_id": "4942431673", "osm_type": "node", "highway": null, "entrance": "yes", "motor_vehicle": null, "barrier": null, "crossing": null, "traffic_signals": null }, "geometry": { "type": "Point", "coordinates": [ 36.5045332, 52.4059427 ] } },
{ "type": "Feature", "properties": { "full_id": "n4942495998", "osm_id": "4942495998", "osm_type": "node", "highway": "crossing", "entrance": null, "motor_vehicle": null, "barrier": null, "crossing": null, "traffic_signals": null }, "geometry": { "type": "Point", "coordinates": [ 36.5029608, 52.4013663 ] } },
{ "type": "Feature", "properties": { "full_id": "n4942495999", "osm_id": "4942495999", "osm_type": "node", "highway": "crossing", "entrance": null, "motor_vehicle": null, "barrier": null, "crossing": null, "traffic_signals": null }, "geometry": { "type": "Point", "coordinates": [ 36.5026351, 52.400057 ] } },
{ "type": "Feature", "properties": { "full_id": "n4942496362", "osm_id": "4942496362", "osm_type": "node", "highway": null, "entrance": null, "motor_vehicle": null, "barrier": "gate", "crossing": null, "traffic_signals": null }, "geometry": { "type": "Point", "coordinates": [ 36.5091162, 52.4006688 ] } }
]
}
