{
"type": "FeatureCollection",
"name": "highway_pt",
"crs": { "type": "name", "properties": { "name": "urn:ogc:def:crs:OGC:1.3:CRS84" } },
"features": [
{ "type": "Feature", "properties": { "full_id": "n981249862", "osm_id": "981249862", "osm_type": "node", "highway": "bus_stop", "bin": null, "bench": null, "shelter": "yes", "public_transport": "platform", "name": "Улица Удобная", "bus": "yes" }, "geometry": { "type": "Point", "coordinates": [ 42.1125125, 56.2351397 ] } },
{ "type": "Feature", "properties": { "full_id": "n981250088", "osm_id": "981250088", "osm_type": "node", "highway": "bus_stop", "bin": null, "bench": null, "shelter": null, "public_transport": "platform", "name": "Улица Удобная", "bus": "yes" }, "geometry": { "type": "Point", "coordinates": [ 42.1124999, 56.2348449 ] } },
{ "type": "Feature", "properties": { "full_id": "n981255071", "osm_id": "981255071", "osm_type": "node", "highway": "bus_stop", "bin": null, "bench": null, "shelter": "yes", "public_transport": "platform", "name": "Автовокзал", "bus": "yes" }, "geometry": { "type": "Point", "coordinates": [ 42.1075656, 56.2398888 ] } },
{ "type": "Feature", "properties": { "full_id": "n981255766", "osm_id": "981255766", "osm_type": "node", "highway": "bus_stop", "bin": null, "bench": null, "shelter": "yes", "public_transport": "platform", "name": "Автовокзал", "bus": "yes" }, "geometry": { "type": "Point", "coordinates": [ 42.1067392, 56.2400876 ] } },
{ "type": "Feature", "properties": { "full_id": "n1140738716", "osm_id": "1140738716", "osm_type": "node", "highway": "bus_stop", "bin": null, "bench": null, "shelter": null, "public_transport": null, "name": null, "bus": null }, "geometry": { "type": "Point", "coordinates": [ 42.1147103, 56.2542122 ] } },
{ "type": "Feature", "properties": { "full_id": "n1140739564", "osm_id": "1140739564", "osm_type": "node", "highway": "bus_stop", "bin": null, "bench": null, "shelter": null, "public_transport": null, "name": null, "bus": null }, "geometry": { "type": "Point", "coordinates": [ 42.1092279, 56.2541049 ] } },
{ "type": "Feature", "properties": { "full_id": "n1140739625", "osm_id": "1140739625", "osm_type": "node", "highway": "bus_stop", "bin": null, "bench": null, "shelter": null, "public_transport": null, "name": null, "bus": null }, "geometry": { "type": "Point", "coordinates": [ 42.108552, 56.2539082 ] } },
{ "type": "Feature", "properties": { "full_id": "n1153126123", "osm_id": "1153126123", "osm_type": "node", "highway": "bus_stop", "bin": null, "bench": null, "shelter": null, "public_transport": "platform", "name": null, "bus": "yes" }, "geometry": { "type": "Point", "coordinates": [ 42.1324061, 56.2444447 ] } },
{ "type": "Feature", "properties": { "full_id": "n1153126125", "osm_id": "1153126125", "osm_type": "node", "highway": "bus_stop", "bin": null, "bench": null, "shelter": null, "public_transport": "platform", "name": "Соборная площадь", "bus": null }, "geometry": { "type": "Point", "coordinates": [ 42.1585695, 56.2456718 ] } },
{ "type": "Feature", "properties": { "full_id": "n1153126141", "osm_id": "1153126141", "osm_type": "node", "highway": "bus_stop", "bin": null, "bench": null, "shelter": null, "public_transport": "platform", "name": null, "bus": "yes" }, "geometry": { "type": "Point", "coordinates": [ 42.1261333, 56.2429989 ] } },
{ "type": "Feature", "properties": { "full_id": "n1153126160", "osm_id": "1153126160", "osm_type": "node", "highway": "bus_stop", "bin": null, "bench": null, "shelter": null, "public_transport": null, "name": null, "bus": null }, "geometry": { "type": "Point", "coordinates": [ 42.1568892, 56.2460652 ] } },
{ "type": "Feature", "properties": { "full_id": "n1153126163", "osm_id": "1153126163", "osm_type": "node", "highway": "bus_stop", "bin": null, "bench": null, "shelter": null, "public_transport": "platform", "name": null, "bus": "yes" }, "geometry": { "type": "Point", "coordinates": [ 42.1330317, 56.2448147 ] } },
{ "type": "Feature", "properties": { "full_id": "n1153126166", "osm_id": "1153126166", "osm_type": "node", "highway": "bus_stop", "bin": null, "bench": null, "shelter": null, "public_transport": null, "name": null, "bus": null }, "geometry": { "type": "Point", "coordinates": [ 42.1206749, 56.2413603 ] } },
{ "type": "Feature", "properties": { "full_id": "n1153126188", "osm_id": "1153126188", "osm_type": "node", "highway": "bus_stop", "bin": null, "bench": null, "shelter": null, "public_transport": null, "name": null, "bus": null }, "geometry": { "type": "Point", "coordinates": [ 42.1266451, 56.2429606 ] } },
{ "type": "Feature", "properties": { "full_id": "n1153126189", "osm_id": "1153126189", "osm_type": "node", "highway": "bus_stop", "bin": null, "bench": null, "shelter": null, "public_transport": null, "name": null, "bus": null }, "geometry": { "type": "Point", "coordinates": [ 42.1188241, 56.241081 ] } },
{ "type": "Feature", "properties": { "full_id": "n1159000676", "osm_id": "1159000676", "osm_type": "node", "highway": "bus_stop", "bin": null, "bench": null, "shelter": null, "public_transport": null, "name": "Улица Родниковая", "bus": null }, "geometry": { "type": "Point", "coordinates": [ 42.1452238, 56.2365351 ] } },
{ "type": "Feature", "properties": { "full_id": "n1159000680", "osm_id": "1159000680", "osm_type": "node", "highway": "bus_stop", "bin": null, "bench": null, "shelter": null, "public_transport": null, "name": null, "bus": null }, "geometry": { "type": "Point", "coordinates": [ 42.1504292, 56.2471354 ] } },
{ "type": "Feature", "properties": { "full_id": "n1159000720", "osm_id": "1159000720", "osm_type": "node", "highway": "bus_stop", "bin": null, "bench": null, "shelter": null, "public_transport": null, "name": "Улица Мочалова", "bus": null }, "geometry": { "type": "Point", "coordinates": [ 42.1444224, 56.2388367 ] } },
{ "type": "Feature", "properties": { "full_id": "n1159000730", "osm_id": "1159000730", "osm_type": "node", "highway": "bus_stop", "bin": "yes", "bench": "yes", "shelter": "yes", "public_transport": "platform", "name": null, "bus": null }, "geometry": { "type": "Point", "coordinates": [ 42.1738762, 56.2387342 ] } },
{ "type": "Feature", "properties": { "full_id": "n1159000765", "osm_id": "1159000765", "osm_type": "node", "highway": "bus_stop", "bin": null, "bench": null, "shelter": null, "public_transport": null, "name": null, "bus": null }, "geometry": { "type": "Point", "coordinates": [ 42.1405993, 56.2365654 ] } },
{ "type": "Feature", "properties": { "full_id": "n1159000769", "osm_id": "1159000769", "osm_type": "node", "highway": "bus_stop", "bin": null, "bench": null, "shelter": null, "public_transport": null, "name": null, "bus": null }, "geometry": { "type": "Point", "coordinates": [ 42.1347885, 56.2371313 ] } },
{ "type": "Feature", "properties": { "full_id": "n1159000775", "osm_id": "1159000775", "osm_type": "node", "highway": "bus_stop", "bin": null, "bench": null, "shelter": "yes", "public_transport": "platform", "name": null, "bus": null }, "geometry": { "type": "Point", "coordinates": [ 42.1743199, 56.2383836 ] } },
{ "type": "Feature", "properties": { "full_id": "n1159000806", "osm_id": "1159000806", "osm_type": "node", "highway": "bus_stop", "bin": null, "bench": null, "shelter": null, "public_transport": null, "name": "Улица Южная", "bus": null }, "geometry": { "type": "Point", "coordinates": [ 42.1506125, 56.2372489 ] } },
{ "type": "Feature", "properties": { "full_id": "n1159000810", "osm_id": "1159000810", "osm_type": "node", "highway": "bus_stop", "bin": null, "bench": null, "shelter": null, "public_transport": null, "name": null, "bus": null }, "geometry": { "type": "Point", "coordinates": [ 42.1506882, 56.2468988 ] } },
{ "type": "Feature", "properties": { "full_id": "n1159000813", "osm_id": "1159000813", "osm_type": "node", "highway": "bus_stop", "bin": null, "bench": null, "shelter": null, "public_transport": "platform", "name": "Соборная площадь", "bus": null }, "geometry": { "type": "Point", "coordinates": [ 42.1592722, 56.2457836 ] } },
{ "type": "Feature", "properties": { "full_id": "n1768368585", "osm_id": "1768368585", "osm_type": "node", "highway": "bus_stop", "bin": null, "bench": null, "shelter": null, "public_transport": "platform", "name": "Автовокзал (г.Вязники)", "bus": null }, "geometry": { "type": "Point", "coordinates": [ 42.1093879, 56.2394175 ] } },
{ "type": "Feature", "properties": { "full_id": "n6958598840", "osm_id": "6958598840", "osm_type": "node", "highway": "bus_stop", "bin": null, "bench": null, "shelter": "no", "public_transport": "platform", "name": null, "bus": null }, "geometry": { "type": "Point", "coordinates": [ 42.1791503, 56.2544236 ] } },
{ "type": "Feature", "properties": { "full_id": "n6958598841", "osm_id": "6958598841", "osm_type": "node", "highway": "bus_stop", "bin": null, "bench": null, "shelter": "no", "public_transport": "platform", "name": null, "bus": null }, "geometry": { "type": "Point", "coordinates": [ 42.1789545, 56.2543193 ] } },
{ "type": "Feature", "properties": { "full_id": "n9881843901", "osm_id": "9881843901", "osm_type": "node", "highway": "bus_stop", "bin": null, "bench": null, "shelter": null, "public_transport": "platform", "name": "Улица Удобная", "bus": "yes" }, "geometry": { "type": "Point", "coordinates": [ 42.1124644, 56.2343868 ] } },
{ "type": "Feature", "properties": { "full_id": "n9881843903", "osm_id": "9881843903", "osm_type": "node", "highway": "bus_stop", "bin": null, "bench": null, "shelter": "yes", "public_transport": "platform", "name": "Улица Удобная", "bus": "yes" }, "geometry": { "type": "Point", "coordinates": [ 42.1112588, 56.2357393 ] } },
{ "type": "Feature", "properties": { "full_id": "n9881887000", "osm_id": "9881887000", "osm_type": "node", "highway": "bus_stop", "bin": null, "bench": null, "shelter": "yes", "public_transport": "platform", "name": null, "bus": "yes" }, "geometry": { "type": "Point", "coordinates": [ 42.1130226, 56.2402316 ] } },
{ "type": "Feature", "properties": { "full_id": "n11988882824", "osm_id": "11988882824", "osm_type": "node", "highway": "bus_stop", "bin": null, "bench": null, "shelter": null, "public_transport": "platform", "name": null, "bus": null }, "geometry": { "type": "Point", "coordinates": [ 42.1780425, 56.2558063 ] } },
{ "type": "Feature", "properties": { "full_id": "n13006883794", "osm_id": "13006883794", "osm_type": "node", "highway": "bus_stop", "bin": null, "bench": null, "shelter": null, "public_transport": "platform", "name": null, "bus": "yes" }, "geometry": { "type": "Point", "coordinates": [ 42.0998017, 56.239636 ] } },
{ "type": "Feature", "properties": { "full_id": "n13442699311", "osm_id": "13442699311", "osm_type": "node", "highway": "bus_stop", "bin": null, "bench": null, "shelter": null, "public_transport": "platform", "name": null, "bus": "yes" }, "geometry": { "type": "Point", "coordinates": [ 42.1000222, 56.2433317 ] } },
{ "type": "Feature", "properties": { "full_id": "n13442699312", "osm_id": "13442699312", "osm_type": "node", "highway": "bus_stop", "bin": null, "bench": null, "shelter": null, "public_transport": "platform", "name": null, "bus": "yes" }, "geometry": { "type": "Point", "coordinates": [ 42.100116, 56.2430947 ] } }
]
}
