{
"type": "FeatureCollection",
"name": "tourism_new",
"crs": { "type": "name", "properties": { "name": "urn:ogc:def:crs:OGC:1.3:CRS84" } },
"features": [
{ "type": "Feature", "properties": { "full_id": "n444671974", "osm_id": "444671974", "osm_type": "node", "historic": "memorial", "tourism": null, "memorial": null, "direction": null, "name": "Аллея Боевой Славы" }, "geometry": { "type": "Point", "coordinates": [ 42.1403284, 56.2462849 ] } },
{ "type": "Feature", "properties": { "full_id": "n1374389103", "osm_id": "1374389103", "osm_type": "node", "historic": "memorial", "tourism": null, "memorial": "stele", "direction": null, "name": "Воспитанникам Вязниковского аэроклуба" }, "geometry": { "type": "Point", "coordinates": [ 42.156597, 56.2463542 ] } },
{ "type": "Feature", "properties": { "full_id": "n1374395316", "osm_id": "1374395316", "osm_type": "node", "historic": null, "tourism": "museum", "memorial": null, "direction": null, "name": "Музей песни XX века" }, "geometry": { "type": "Point", "coordinates": [ 42.1566238, 56.2470496 ] } },
{ "type": "Feature", "properties": { "full_id": "n1377334692", "osm_id": "1377334692", "osm_type": "node", "historic": "memorial", "tourism": null, "memorial": "bust", "direction": null, "name": "А. С. Пушкину" }, "geometry": { "type": "Point", "coordinates": [ 42.1573705, 56.2458105 ] } },
{ "type": "Feature", "properties": { "full_id": "n1377336737", "osm_id": "1377336737", "osm_type": "node", "historic": "memorial", "tourism": null, "memorial": "bust", "direction": null, "name": "А.М.Горький" }, "geometry": { "type": "Point", "coordinates": [ 42.157893, 56.2457308 ] } },
{ "type": "Feature", "properties": { "full_id": "n2779267612", "osm_id": "2779267612", "osm_type": "node", "historic": null, "tourism": "viewpoint", "memorial": null, "direction": null, "name": "Стела Вязники - наш город" }, "geometry": { "type": "Point", "coordinates": [ 42.1293723, 56.2436502 ] } },
{ "type": "Feature", "properties": { "full_id": "n2779279153", "osm_id": "2779279153", "osm_type": "node", "historic": null, "tourism": "viewpoint", "memorial": null, "direction": null, "name": "Цветочек" }, "geometry": { "type": "Point", "coordinates": [ 42.1456719, 56.2472137 ] } },
{ "type": "Feature", "properties": { "full_id": "n4232496816", "osm_id": "4232496816", "osm_type": "node", "historic": null, "tourism": "viewpoint", "memorial": null, "direction": null, "name": null }, "geometry": { "type": "Point", "coordinates": [ 42.1939655, 56.2379851 ] } },
{ "type": "Feature", "properties": { "full_id": "n12965607991", "osm_id": "12965607991", "osm_type": "node", "historic": null, "tourism": "viewpoint", "memorial": null, "direction": "180", "name": null }, "geometry": { "type": "Point", "coordinates": [ 42.1585516, 56.24376 ] } },
{ "type": "Feature", "properties": { "full_id": null, "osm_id": null, "osm_type": null, "historic": null, "tourism": null, "memorial": "monument", "direction": null, "name": null }, "geometry": { "type": "Point", "coordinates": [ 42.146246349478169, 56.248042979452883 ] } },
{ "type": "Feature", "properties": { "full_id": null, "osm_id": null, "osm_type": null, "historic": null, "tourism": null, "memorial": "monument", "direction": null, "name": null }, "geometry": { "type": "Point", "coordinates": [ 42.157019385988299, 56.247078055107409 ] } }
]
}
