{
"type": "FeatureCollection",
"name": "rel",
"crs": { "type": "name", "properties": { "name": "urn:ogc:def:crs:OGC:1.3:CRS84" } },
"features": [
{ "type": "Feature", "properties": { "full_id": "w132259494", "osm_id": "132259494", "osm_type": "way", "religion": "christian", "amenity": "place_of_worship", "service_times": null, "description": null, "addr:city": null, "addr:street": null, "addr:housenumber": null, "name": "Церковь Вознесения Господня", "denomination": "orthodox", "building": "yes", "alt_name": "Белая церковь" }, "geometry": { "type": "MultiPolygon", "coordinates": [ [ [ [ 41.1257677, 57.2397149 ], [ 41.1256813, 57.2396451 ], [ 41.1253068, 57.2397807 ], [ 41.1255653, 57.2399896 ], [ 41.1259397, 57.2398539 ], [ 41.1258543, 57.2397849 ], [ 41.125973, 57.2397419 ], [ 41.1258863, 57.2396719 ], [ 41.1257677, 57.2397149 ] ] ] ] } },
{ "type": "Feature", "properties": { "full_id": "w176061949", "osm_id": "176061949", "osm_type": "way", "religion": "christian", "amenity": "place_of_worship", "service_times": null, "description": null, "addr:city": null, "addr:street": null, "addr:housenumber": null, "name": "часовня", "denomination": "orthodox", "building": "yes", "alt_name": null }, "geometry": { "type": "MultiPolygon", "coordinates": [ [ [ [ 41.1348012, 57.2655281 ], [ 41.1348029, 57.2655679 ], [ 41.1349679, 57.2655659 ], [ 41.1349662, 57.265526 ], [ 41.1348012, 57.2655281 ] ] ] ] } },
{ "type": "Feature", "properties": { "full_id": "w176224621", "osm_id": "176224621", "osm_type": "way", "religion": "christian", "amenity": "place_of_worship", "service_times": null, "description": null, "addr:city": null, "addr:street": null, "addr:housenumber": null, "name": "Церковь Всех скорбящих Радость", "denomination": "orthodox", "building": "church", "alt_name": "Красная церковь" }, "geometry": { "type": "MultiPolygon", "coordinates": [ [ [ [ 41.1130341, 57.244476 ], [ 41.1132093, 57.244438 ], [ 41.1131573, 57.2443749 ], [ 41.1129911, 57.2444028 ], [ 41.1130069, 57.2443559 ], [ 41.1129611, 57.2443285 ], [ 41.1128648, 57.2443181 ], [ 41.1125977, 57.2443969 ], [ 41.1125807, 57.2444522 ], [ 41.1125943, 57.2445093 ], [ 41.1125176, 57.2445314 ], [ 41.1125814, 57.2445959 ], [ 41.1126914, 57.2445738 ], [ 41.1127731, 57.2446089 ], [ 41.1128379, 57.2446291 ], [ 41.1130744, 57.2445749 ], [ 41.1131101, 57.2445368 ], [ 41.1130934, 57.244501 ], [ 41.1130341, 57.244476 ] ] ] ] } },
{ "type": "Feature", "properties": { "full_id": "w176251450", "osm_id": "176251450", "osm_type": "way", "religion": "christian", "amenity": "place_of_worship", "service_times": null, "description": null, "addr:city": null, "addr:street": "Советская улица", "addr:housenumber": "14", "name": "Церковь Рождества Богородицы", "denomination": "orthodox", "building": "yes", "alt_name": null }, "geometry": { "type": "MultiPolygon", "coordinates": [ [ [ [ 41.1139722, 57.2495279 ], [ 41.1141955, 57.249311 ], [ 41.1139611, 57.2492404 ], [ 41.1137379, 57.2494574 ], [ 41.1139722, 57.2495279 ] ] ] ] } },
{ "type": "Feature", "properties": { "full_id": "w176251506", "osm_id": "176251506", "osm_type": "way", "religion": "christian", "amenity": "place_of_worship", "service_times": "Воскресенье 10:00-12:00", "description": "Христиане веры евангельской (пятидесятников)", "addr:city": "Фурманов", "addr:street": "Революционная улица", "addr:housenumber": "20", "name": "Церковь \"Благая весть\"", "denomination": null, "building": "yes", "alt_name": null }, "geometry": { "type": "MultiPolygon", "coordinates": [ [ [ [ 41.1096858, 57.2523232 ], [ 41.1098181, 57.2522476 ], [ 41.1094659, 57.2520598 ], [ 41.1095536, 57.2520094 ], [ 41.1094466, 57.2519554 ], [ 41.1093457, 57.2520132 ], [ 41.1094083, 57.2520465 ], [ 41.1093129, 57.2520996 ], [ 41.1094754, 57.2521862 ], [ 41.1094501, 57.2522024 ], [ 41.1096858, 57.2523232 ] ] ] ] } }
]
}
