{
"type": "FeatureCollection",
"name": "tourism_poly",
"crs": { "type": "name", "properties": { "name": "urn:ogc:def:crs:OGC:1.3:CRS84" } },
"features": [
{ "type": "Feature", "properties": { "full_id": "w132132763", "osm_id": "132132763", "osm_type": "way", "tourism": "museum", "website": null, "name": "Галерея им. Д. А. Трубникова", "building:levels": "2", "building": "yes", "addr:street": "Советская улица", "addr:housenumber": "9" }, "geometry": { "type": "MultiPolygon", "coordinates": [ [ [ [ 41.1119891, 57.2503455 ], [ 41.1121592, 57.2504852 ], [ 41.1122517, 57.2504523 ], [ 41.1125196, 57.2503568 ], [ 41.1123495, 57.2502171 ], [ 41.1119891, 57.2503455 ] ] ] ] } },
{ "type": "Feature", "properties": { "full_id": "w132259492", "osm_id": "132259492", "osm_type": "way", "tourism": "museum", "website": "http://www.museum.ru/M526", "name": "Мемориальный музей Д. А. Фурманова", "building:levels": "2", "building": "yes", "addr:street": "Большая Фурмановская улица", "addr:housenumber": "69" }, "geometry": { "type": "MultiPolygon", "coordinates": [ [ [ [ 41.1280015, 57.2402216 ], [ 41.1281744, 57.2402084 ], [ 41.128094, 57.2399 ], [ 41.1279211, 57.2399132 ], [ 41.1280015, 57.2402216 ] ] ] ] } }
]
}
