{
"type": "FeatureCollection",
"name": "game",
"crs": { "type": "name", "properties": { "name": "urn:ogc:def:crs:OGC:1.3:CRS84" } },
"features": [
{ "type": "Feature", "properties": { "full_id": "n1678979651", "osm_id": "1678979651", "osm_type": "node", "amenity": "kindergarten", "leisure": null, "phone": "+7-48679-2-31-15", "name": "Детский сад №1" }, "geometry": { "type": "Point", "coordinates": [ 36.5101403, 52.3990102 ] } },
{ "type": "Feature", "properties": { "full_id": "n6718118388", "osm_id": "6718118388", "osm_type": "node", "amenity": null, "leisure": "playground", "phone": null, "name": null }, "geometry": { "type": "Point", "coordinates": [ 36.5054021, 52.4000651 ] } },
{ "type": "Feature", "properties": { "full_id": null, "osm_id": null, "osm_type": null, "amenity": null, "leisure": null, "phone": null, "name": null }, "geometry": { "type": "Point", "coordinates": [ 36.506009233039727, 52.400188547486337 ] } }
]
}
