{
"type": "FeatureCollection",
"name": "food",
"crs": { "type": "name", "properties": { "name": "urn:ogc:def:crs:OGC:1.3:CRS84" } },
"features": [
{ "type": "Feature", "properties": { "full_id": "n2295714914", "osm_id": "2295714914", "osm_type": "node", "amenity": "cafe", "name": "Амира", "addr:street": "Ростовское шоссе", "addr:housenumber": "38", "addr:city": null }, "geometry": { "type": "Point", "coordinates": [ 39.5098294, 50.2003982 ] } },
{ "type": "Feature", "properties": { "full_id": "n2501615964", "osm_id": "2501615964", "osm_type": "node", "amenity": "cafe", "name": "Дорожное", "addr:street": "Октябрьская улица", "addr:housenumber": "195", "addr:city": null }, "geometry": { "type": "Point", "coordinates": [ 39.50641, 50.2063578 ] } },
{ "type": "Feature", "properties": { "full_id": "n9428248396", "osm_id": "9428248396", "osm_type": "node", "amenity": "cafe", "name": null, "addr:street": null, "addr:housenumber": null, "addr:city": null }, "geometry": { "type": "Point", "coordinates": [ 39.5056556, 50.2065133 ] } },
{ "type": "Feature", "properties": { "full_id": "n13150145566", "osm_id": "13150145566", "osm_type": "node", "amenity": "cafe", "name": "Кофеварка", "addr:street": null, "addr:housenumber": null, "addr:city": null }, "geometry": { "type": "Point", "coordinates": [ 39.4977714, 50.2052778 ] } },
{ "type": "Feature", "properties": { "full_id": "n13150145567", "osm_id": "13150145567", "osm_type": "node", "amenity": "cafe", "name": "Ешь, пей, катай", "addr:street": null, "addr:housenumber": null, "addr:city": null }, "geometry": { "type": "Point", "coordinates": [ 39.4977654, 50.2050239 ] } }
]
}
