{
"type": "FeatureCollection",
"name": "highway_point",
"crs": { "type": "name", "properties": { "name": "urn:ogc:def:crs:OGC:1.3:CRS84" } },
"features": [
{ "type": "Feature", "properties": { "full_id": "n661181909", "osm_id": "661181909", "osm_type": "node", "highway": "crossing", "noexit": null, "entrance": null, "access": null, "covered": null, "tactile_paving": null, "shelter": null, "lit": null, "bin": null, "bench": null, "public_transport": null, "old_name": null, "bus": null, "addr:city": null, "motor_vehicle": null, "horse": null, "foot": null, "bollard": null, "bicycle": null, "barrier": null, "traffic_sign:direction": null, "traffic_sign": null, "name": null, "crossing": "uncontrolled" }, "geometry": { "type": "Point", "coordinates": [ 39.5380602, 50.19966 ] } },
{ "type": "Feature", "properties": { "full_id": "n727270386", "osm_id": "727270386", "osm_type": "node", "highway": "crossing", "noexit": null, "entrance": null, "access": null, "covered": null, "tactile_paving": null, "shelter": null, "lit": null, "bin": null, "bench": null, "public_transport": null, "old_name": null, "bus": null, "addr:city": null, "motor_vehicle": null, "horse": null, "foot": null, "bollard": null, "bicycle": null, "barrier": null, "traffic_sign:direction": null, "traffic_sign": null, "name": null, "crossing": "uncontrolled" }, "geometry": { "type": "Point", "coordinates": [ 39.5249492, 50.2014828 ] } },
{ "type": "Feature", "properties": { "full_id": "n727270410", "osm_id": "727270410", "osm_type": "node", "highway": "crossing", "noexit": null, "entrance": null, "access": null, "covered": null, "tactile_paving": null, "shelter": null, "lit": null, "bin": null, "bench": null, "public_transport": null, "old_name": null, "bus": null, "addr:city": null, "motor_vehicle": null, "horse": null, "foot": null, "bollard": null, "bicycle": null, "barrier": null, "traffic_sign:direction": null, "traffic_sign": null, "name": null, "crossing": "uncontrolled" }, "geometry": { "type": "Point", "coordinates": [ 39.5305074, 50.1991591 ] } },
{ "type": "Feature", "properties": { "full_id": "n1423513524", "osm_id": "1423513524", "osm_type": "node", "highway": null, "noexit": null, "entrance": null, "access": null, "covered": null, "tactile_paving": null, "shelter": null, "lit": null, "bin": null, "bench": null, "public_transport": null, "old_name": null, "bus": null, "addr:city": null, "motor_vehicle": null, "horse": null, "foot": null, "bollard": null, "bicycle": null, "barrier": null, "traffic_sign:direction": "forward", "traffic_sign": "city_limit", "name": "Россошь", "crossing": null }, "geometry": { "type": "Point", "coordinates": [ 39.5121324, 50.2172891 ] } },
{ "type": "Feature", "properties": { "full_id": "n1777373621", "osm_id": "1777373621", "osm_type": "node", "highway": null, "noexit": null, "entrance": null, "access": null, "covered": null, "tactile_paving": null, "shelter": null, "lit": null, "bin": null, "bench": null, "public_transport": null, "old_name": null, "bus": null, "addr:city": null, "motor_vehicle": null, "horse": null, "foot": null, "bollard": null, "bicycle": null, "barrier": "stile", "traffic_sign:direction": null, "traffic_sign": null, "name": null, "crossing": null }, "geometry": { "type": "Point", "coordinates": [ 39.5167964, 50.2071608 ] } },
{ "type": "Feature", "properties": { "full_id": "n1777397337", "osm_id": "1777397337", "osm_type": "node", "highway": null, "noexit": null, "entrance": null, "access": null, "covered": null, "tactile_paving": null, "shelter": null, "lit": null, "bin": null, "bench": null, "public_transport": null, "old_name": null, "bus": null, "addr:city": null, "motor_vehicle": null, "horse": null, "foot": null, "bollard": null, "bicycle": null, "barrier": "stile", "traffic_sign:direction": null, "traffic_sign": null, "name": null, "crossing": null }, "geometry": { "type": "Point", "coordinates": [ 39.5183797, 50.1982302 ] } },
{ "type": "Feature", "properties": { "full_id": "n1780506154", "osm_id": "1780506154", "osm_type": "node", "highway": null, "noexit": null, "entrance": null, "access": null, "covered": null, "tactile_paving": null, "shelter": null, "lit": null, "bin": null, "bench": null, "public_transport": null, "old_name": null, "bus": null, "addr:city": null, "motor_vehicle": null, "horse": null, "foot": null, "bollard": null, "bicycle": null, "barrier": "lift_gate", "traffic_sign:direction": null, "traffic_sign": null, "name": "Забор", "crossing": null }, "geometry": { "type": "Point", "coordinates": [ 39.5176372, 50.1984702 ] } },
{ "type": "Feature", "properties": { "full_id": "n1912897976", "osm_id": "1912897976", "osm_type": "node", "highway": null, "noexit": null, "entrance": null, "access": null, "covered": null, "tactile_paving": null, "shelter": null, "lit": null, "bin": null, "bench": null, "public_transport": null, "old_name": null, "bus": null, "addr:city": null, "motor_vehicle": "no", "horse": "yes", "foot": "yes", "bollard": "removable", "bicycle": "yes", "barrier": "bollard", "traffic_sign:direction": null, "traffic_sign": null, "name": null, "crossing": null }, "geometry": { "type": "Point", "coordinates": [ 39.5148785, 50.1986187 ] } },
{ "type": "Feature", "properties": { "full_id": "n1990351683", "osm_id": "1990351683", "osm_type": "node", "highway": "bus_stop", "noexit": null, "entrance": null, "access": null, "covered": null, "tactile_paving": null, "shelter": null, "lit": null, "bin": null, "bench": null, "public_transport": null, "old_name": null, "bus": null, "addr:city": null, "motor_vehicle": null, "horse": null, "foot": null, "bollard": null, "bicycle": null, "barrier": null, "traffic_sign:direction": null, "traffic_sign": null, "name": "Училище №56", "crossing": null }, "geometry": { "type": "Point", "coordinates": [ 39.5154876, 50.2054657 ] } },
{ "type": "Feature", "properties": { "full_id": "n1990351687", "osm_id": "1990351687", "osm_type": "node", "highway": "bus_stop", "noexit": null, "entrance": null, "access": null, "covered": null, "tactile_paving": null, "shelter": null, "lit": null, "bin": null, "bench": null, "public_transport": "platform", "old_name": "Остановка на Ольховатку", "bus": "yes", "addr:city": "Россошь", "motor_vehicle": null, "horse": null, "foot": null, "bollard": null, "bicycle": null, "barrier": null, "traffic_sign:direction": null, "traffic_sign": null, "name": "Кольцо", "crossing": null }, "geometry": { "type": "Point", "coordinates": [ 39.5096346, 50.2068563 ] } },
{ "type": "Feature", "properties": { "full_id": "n1990357507", "osm_id": "1990357507", "osm_type": "node", "highway": "bus_stop", "noexit": null, "entrance": null, "access": null, "covered": null, "tactile_paving": null, "shelter": null, "lit": null, "bin": null, "bench": null, "public_transport": "platform", "old_name": null, "bus": "yes", "addr:city": null, "motor_vehicle": null, "horse": null, "foot": null, "bollard": null, "bicycle": null, "barrier": null, "traffic_sign:direction": null, "traffic_sign": null, "name": "Западный переулок", "crossing": null }, "geometry": { "type": "Point", "coordinates": [ 39.5154081, 50.2052256 ] } },
{ "type": "Feature", "properties": { "full_id": "n1990542020", "osm_id": "1990542020", "osm_type": "node", "highway": "bus_stop", "noexit": null, "entrance": null, "access": null, "covered": null, "tactile_paving": null, "shelter": null, "lit": null, "bin": null, "bench": null, "public_transport": "platform", "old_name": null, "bus": "yes", "addr:city": null, "motor_vehicle": null, "horse": null, "foot": null, "bollard": null, "bicycle": null, "barrier": null, "traffic_sign:direction": null, "traffic_sign": null, "name": "Октябрьский переулок", "crossing": null }, "geometry": { "type": "Point", "coordinates": [ 39.5215499, 50.203052 ] } },
{ "type": "Feature", "properties": { "full_id": "n1991388976", "osm_id": "1991388976", "osm_type": "node", "highway": "bus_stop", "noexit": null, "entrance": null, "access": null, "covered": null, "tactile_paving": "no", "shelter": "no", "lit": "no", "bin": "yes", "bench": "no", "public_transport": null, "old_name": null, "bus": null, "addr:city": null, "motor_vehicle": null, "horse": null, "foot": null, "bollard": null, "bicycle": null, "barrier": null, "traffic_sign:direction": null, "traffic_sign": null, "name": "площаль Пески", "crossing": null }, "geometry": { "type": "Point", "coordinates": [ 39.5180398, 50.1991818 ] } },
{ "type": "Feature", "properties": { "full_id": "n2041775448", "osm_id": "2041775448", "osm_type": "node", "highway": "bus_stop", "noexit": null, "entrance": null, "access": null, "covered": null, "tactile_paving": null, "shelter": null, "lit": null, "bin": null, "bench": null, "public_transport": "platform", "old_name": null, "bus": "yes", "addr:city": null, "motor_vehicle": null, "horse": null, "foot": null, "bollard": null, "bicycle": null, "barrier": null, "traffic_sign:direction": null, "traffic_sign": null, "name": "Магазин «Хозяин»", "crossing": null }, "geometry": { "type": "Point", "coordinates": [ 39.5303911, 50.1992787 ] } },
{ "type": "Feature", "properties": { "full_id": "n2041775456", "osm_id": "2041775456", "osm_type": "node", "highway": "bus_stop", "noexit": null, "entrance": null, "access": null, "covered": null, "tactile_paving": null, "shelter": "yes", "lit": null, "bin": null, "bench": "yes", "public_transport": null, "old_name": null, "bus": null, "addr:city": null, "motor_vehicle": null, "horse": null, "foot": null, "bollard": null, "bicycle": null, "barrier": null, "traffic_sign:direction": null, "traffic_sign": null, "name": "Октябрьская 139А", "crossing": null }, "geometry": { "type": "Point", "coordinates": [ 39.5245012, 50.2015304 ] } },
{ "type": "Feature", "properties": { "full_id": "n2041775462", "osm_id": "2041775462", "osm_type": "node", "highway": "bus_stop", "noexit": null, "entrance": null, "access": null, "covered": null, "tactile_paving": null, "shelter": null, "lit": null, "bin": null, "bench": null, "public_transport": null, "old_name": null, "bus": null, "addr:city": null, "motor_vehicle": null, "horse": null, "foot": null, "bollard": null, "bicycle": null, "barrier": null, "traffic_sign:direction": null, "traffic_sign": null, "name": "45-й магазин", "crossing": null }, "geometry": { "type": "Point", "coordinates": [ 39.5249035, 50.201594 ] } },
{ "type": "Feature", "properties": { "full_id": "n2041775469", "osm_id": "2041775469", "osm_type": "node", "highway": "bus_stop", "noexit": null, "entrance": null, "access": null, "covered": null, "tactile_paving": null, "shelter": null, "lit": null, "bin": null, "bench": null, "public_transport": "platform", "old_name": null, "bus": "yes", "addr:city": null, "motor_vehicle": null, "horse": null, "foot": null, "bollard": null, "bicycle": null, "barrier": null, "traffic_sign:direction": null, "traffic_sign": null, "name": "Общежитие «Спартак»", "crossing": null }, "geometry": { "type": "Point", "coordinates": [ 39.5321175, 50.1991803 ] } },
{ "type": "Feature", "properties": { "full_id": "n2041775481", "osm_id": "2041775481", "osm_type": "node", "highway": "bus_stop", "noexit": null, "entrance": null, "access": null, "covered": null, "tactile_paving": null, "shelter": null, "lit": null, "bin": null, "bench": null, "public_transport": null, "old_name": null, "bus": null, "addr:city": null, "motor_vehicle": null, "horse": null, "foot": null, "bollard": null, "bicycle": null, "barrier": null, "traffic_sign:direction": null, "traffic_sign": null, "name": "Магазин «Техника»", "crossing": null }, "geometry": { "type": "Point", "coordinates": [ 39.5219314, 50.2033066 ] } },
{ "type": "Feature", "properties": { "full_id": "n2104089402", "osm_id": "2104089402", "osm_type": "node", "highway": null, "noexit": null, "entrance": null, "access": null, "covered": null, "tactile_paving": null, "shelter": null, "lit": null, "bin": null, "bench": null, "public_transport": null, "old_name": null, "bus": null, "addr:city": null, "motor_vehicle": null, "horse": null, "foot": null, "bollard": null, "bicycle": null, "barrier": "lift_gate", "traffic_sign:direction": null, "traffic_sign": null, "name": null, "crossing": null }, "geometry": { "type": "Point", "coordinates": [ 39.5315069, 50.2127718 ] } },
{ "type": "Feature", "properties": { "full_id": "n2119274135", "osm_id": "2119274135", "osm_type": "node", "highway": "bus_stop", "noexit": null, "entrance": null, "access": null, "covered": null, "tactile_paving": null, "shelter": null, "lit": null, "bin": null, "bench": null, "public_transport": null, "old_name": null, "bus": null, "addr:city": "Россошь", "motor_vehicle": null, "horse": null, "foot": null, "bollard": null, "bicycle": null, "barrier": null, "traffic_sign:direction": null, "traffic_sign": null, "name": "Магазин \"Александрия\"", "crossing": null }, "geometry": { "type": "Point", "coordinates": [ 39.4982931, 50.1946665 ] } },
{ "type": "Feature", "properties": { "full_id": "n2201509600", "osm_id": "2201509600", "osm_type": "node", "highway": "bus_stop", "noexit": null, "entrance": null, "access": null, "covered": null, "tactile_paving": null, "shelter": null, "lit": null, "bin": null, "bench": null, "public_transport": null, "old_name": null, "bus": null, "addr:city": null, "motor_vehicle": null, "horse": null, "foot": null, "bollard": null, "bicycle": null, "barrier": null, "traffic_sign:direction": null, "traffic_sign": null, "name": "Россошанский совхоз", "crossing": null }, "geometry": { "type": "Point", "coordinates": [ 39.4654533, 50.198787 ] } },
{ "type": "Feature", "properties": { "full_id": "n3218461525", "osm_id": "3218461525", "osm_type": "node", "highway": "bus_stop", "noexit": null, "entrance": null, "access": null, "covered": null, "tactile_paving": null, "shelter": "yes", "lit": null, "bin": null, "bench": "yes", "public_transport": null, "old_name": null, "bus": null, "addr:city": null, "motor_vehicle": null, "horse": null, "foot": null, "bollard": null, "bicycle": null, "barrier": null, "traffic_sign:direction": null, "traffic_sign": null, "name": "Пески площадь", "crossing": null }, "geometry": { "type": "Point", "coordinates": [ 39.5186198, 50.1985985 ] } },
{ "type": "Feature", "properties": { "full_id": "n3648607936", "osm_id": "3648607936", "osm_type": "node", "highway": null, "noexit": null, "entrance": null, "access": null, "covered": null, "tactile_paving": null, "shelter": null, "lit": null, "bin": null, "bench": null, "public_transport": null, "old_name": null, "bus": null, "addr:city": null, "motor_vehicle": null, "horse": null, "foot": null, "bollard": null, "bicycle": null, "barrier": "lift_gate", "traffic_sign:direction": null, "traffic_sign": null, "name": "Пропуск на территорию больницы", "crossing": null }, "geometry": { "type": "Point", "coordinates": [ 39.5182684, 50.1980996 ] } },
{ "type": "Feature", "properties": { "full_id": "n3668450300", "osm_id": "3668450300", "osm_type": "node", "highway": "bus_stop", "noexit": null, "entrance": null, "access": null, "covered": "yes", "tactile_paving": null, "shelter": "yes", "lit": null, "bin": null, "bench": "yes", "public_transport": null, "old_name": null, "bus": null, "addr:city": null, "motor_vehicle": null, "horse": null, "foot": null, "bollard": null, "bicycle": null, "barrier": null, "traffic_sign:direction": null, "traffic_sign": null, "name": null, "crossing": null }, "geometry": { "type": "Point", "coordinates": [ 39.5077763, 50.1956068 ] } },
{ "type": "Feature", "properties": { "full_id": "n4095367993", "osm_id": "4095367993", "osm_type": "node", "highway": null, "noexit": null, "entrance": null, "access": null, "covered": null, "tactile_paving": null, "shelter": null, "lit": null, "bin": null, "bench": null, "public_transport": null, "old_name": null, "bus": null, "addr:city": null, "motor_vehicle": "private", "horse": "private", "foot": "yes", "bollard": null, "bicycle": "permissive", "barrier": "gate", "traffic_sign:direction": null, "traffic_sign": null, "name": "Ворота и калитка на стадион", "crossing": null }, "geometry": { "type": "Point", "coordinates": [ 39.5327923, 50.1985203 ] } },
{ "type": "Feature", "properties": { "full_id": "n4631415903", "osm_id": "4631415903", "osm_type": "node", "highway": null, "noexit": null, "entrance": null, "access": "permissive", "covered": null, "tactile_paving": null, "shelter": null, "lit": null, "bin": null, "bench": null, "public_transport": null, "old_name": null, "bus": null, "addr:city": null, "motor_vehicle": null, "horse": null, "foot": null, "bollard": null, "bicycle": null, "barrier": "gate", "traffic_sign:direction": null, "traffic_sign": null, "name": null, "crossing": null }, "geometry": { "type": "Point", "coordinates": [ 39.507565, 50.2014199 ] } },
{ "type": "Feature", "properties": { "full_id": "n4683089776", "osm_id": "4683089776", "osm_type": "node", "highway": null, "noexit": null, "entrance": null, "access": "private", "covered": null, "tactile_paving": null, "shelter": null, "lit": null, "bin": null, "bench": null, "public_transport": null, "old_name": null, "bus": null, "addr:city": null, "motor_vehicle": null, "horse": null, "foot": "private", "bollard": null, "bicycle": null, "barrier": "gate", "traffic_sign:direction": null, "traffic_sign": null, "name": null, "crossing": null }, "geometry": { "type": "Point", "coordinates": [ 39.517747, 50.1990521 ] } },
{ "type": "Feature", "properties": { "full_id": "n4683089777", "osm_id": "4683089777", "osm_type": "node", "highway": "bus_stop", "noexit": null, "entrance": null, "access": null, "covered": null, "tactile_paving": "no", "shelter": "no", "lit": "yes", "bin": "no", "bench": "no", "public_transport": "platform", "old_name": null, "bus": "yes", "addr:city": null, "motor_vehicle": null, "horse": null, "foot": null, "bollard": null, "bicycle": null, "barrier": null, "traffic_sign:direction": null, "traffic_sign": null, "name": "Ростовское шоссе", "crossing": null }, "geometry": { "type": "Point", "coordinates": [ 39.5108614, 50.1959632 ] } },
{ "type": "Feature", "properties": { "full_id": "n4683114145", "osm_id": "4683114145", "osm_type": "node", "highway": "bus_stop", "noexit": null, "entrance": null, "access": null, "covered": null, "tactile_paving": null, "shelter": "yes", "lit": null, "bin": null, "bench": "yes", "public_transport": "platform", "old_name": null, "bus": "yes", "addr:city": null, "motor_vehicle": null, "horse": null, "foot": null, "bollard": null, "bicycle": null, "barrier": null, "traffic_sign:direction": null, "traffic_sign": null, "name": "Магазин \"Место встречи\"", "crossing": null }, "geometry": { "type": "Point", "coordinates": [ 39.4905943, 50.1946954 ] } },
{ "type": "Feature", "properties": { "full_id": "n4683114147", "osm_id": "4683114147", "osm_type": "node", "highway": null, "noexit": null, "entrance": "yes", "access": null, "covered": null, "tactile_paving": null, "shelter": null, "lit": null, "bin": null, "bench": null, "public_transport": null, "old_name": null, "bus": null, "addr:city": null, "motor_vehicle": null, "horse": null, "foot": null, "bollard": null, "bicycle": null, "barrier": null, "traffic_sign:direction": null, "traffic_sign": null, "name": null, "crossing": null }, "geometry": { "type": "Point", "coordinates": [ 39.5177714, 50.1983488 ] } },
{ "type": "Feature", "properties": { "full_id": "n4685155934", "osm_id": "4685155934", "osm_type": "node", "highway": "crossing", "noexit": null, "entrance": null, "access": null, "covered": null, "tactile_paving": null, "shelter": null, "lit": null, "bin": null, "bench": null, "public_transport": null, "old_name": null, "bus": null, "addr:city": null, "motor_vehicle": null, "horse": null, "foot": null, "bollard": null, "bicycle": null, "barrier": null, "traffic_sign:direction": null, "traffic_sign": null, "name": null, "crossing": null }, "geometry": { "type": "Point", "coordinates": [ 39.53604, 50.1995486 ] } },
{ "type": "Feature", "properties": { "full_id": "n4943825961", "osm_id": "4943825961", "osm_type": "node", "highway": null, "noexit": null, "entrance": null, "access": "no", "covered": null, "tactile_paving": null, "shelter": null, "lit": null, "bin": null, "bench": null, "public_transport": null, "old_name": null, "bus": null, "addr:city": null, "motor_vehicle": "private", "horse": "private", "foot": "yes", "bollard": null, "bicycle": "permissive", "barrier": "lift_gate", "traffic_sign:direction": null, "traffic_sign": null, "name": null, "crossing": null }, "geometry": { "type": "Point", "coordinates": [ 39.5154591, 50.2008054 ] } },
{ "type": "Feature", "properties": { "full_id": "n4943826001", "osm_id": "4943826001", "osm_type": "node", "highway": null, "noexit": null, "entrance": null, "access": "permissive", "covered": null, "tactile_paving": null, "shelter": null, "lit": null, "bin": null, "bench": null, "public_transport": null, "old_name": null, "bus": null, "addr:city": null, "motor_vehicle": null, "horse": null, "foot": null, "bollard": null, "bicycle": null, "barrier": "gate", "traffic_sign:direction": null, "traffic_sign": null, "name": null, "crossing": null }, "geometry": { "type": "Point", "coordinates": [ 39.5099397, 50.198419 ] } },
{ "type": "Feature", "properties": { "full_id": "n4943839529", "osm_id": "4943839529", "osm_type": "node", "highway": null, "noexit": null, "entrance": null, "access": "permissive", "covered": null, "tactile_paving": null, "shelter": null, "lit": null, "bin": null, "bench": null, "public_transport": null, "old_name": null, "bus": null, "addr:city": null, "motor_vehicle": null, "horse": null, "foot": null, "bollard": null, "bicycle": null, "barrier": "gate", "traffic_sign:direction": null, "traffic_sign": null, "name": null, "crossing": null }, "geometry": { "type": "Point", "coordinates": [ 39.5100164, 50.1990942 ] } },
{ "type": "Feature", "properties": { "full_id": "n5444911856", "osm_id": "5444911856", "osm_type": "node", "highway": null, "noexit": null, "entrance": null, "access": "no", "covered": null, "tactile_paving": null, "shelter": null, "lit": null, "bin": null, "bench": null, "public_transport": null, "old_name": null, "bus": null, "addr:city": null, "motor_vehicle": "private", "horse": "private", "foot": "yes", "bollard": null, "bicycle": "permissive", "barrier": "lift_gate", "traffic_sign:direction": null, "traffic_sign": null, "name": null, "crossing": null }, "geometry": { "type": "Point", "coordinates": [ 39.5153824, 50.200721 ] } },
{ "type": "Feature", "properties": { "full_id": "n9428248334", "osm_id": "9428248334", "osm_type": "node", "highway": "crossing", "noexit": null, "entrance": null, "access": null, "covered": null, "tactile_paving": null, "shelter": null, "lit": null, "bin": null, "bench": null, "public_transport": null, "old_name": null, "bus": null, "addr:city": null, "motor_vehicle": null, "horse": null, "foot": null, "bollard": null, "bicycle": null, "barrier": null, "traffic_sign:direction": null, "traffic_sign": null, "name": null, "crossing": "marked" }, "geometry": { "type": "Point", "coordinates": [ 39.4962587, 50.2098972 ] } },
{ "type": "Feature", "properties": { "full_id": "n9428248335", "osm_id": "9428248335", "osm_type": "node", "highway": "bus_stop", "noexit": null, "entrance": null, "access": null, "covered": null, "tactile_paving": null, "shelter": null, "lit": null, "bin": null, "bench": null, "public_transport": "platform", "old_name": null, "bus": "yes", "addr:city": null, "motor_vehicle": null, "horse": null, "foot": null, "bollard": null, "bicycle": null, "barrier": null, "traffic_sign:direction": null, "traffic_sign": null, "name": "ДРСУ", "crossing": null }, "geometry": { "type": "Point", "coordinates": [ 39.4961785, 50.2097595 ] } },
{ "type": "Feature", "properties": { "full_id": "n9428248389", "osm_id": "9428248389", "osm_type": "node", "highway": null, "noexit": null, "entrance": null, "access": null, "covered": null, "tactile_paving": null, "shelter": null, "lit": null, "bin": null, "bench": null, "public_transport": null, "old_name": null, "bus": null, "addr:city": null, "motor_vehicle": null, "horse": null, "foot": null, "bollard": null, "bicycle": null, "barrier": null, "traffic_sign:direction": "backward", "traffic_sign": "city_limit", "name": "Россошь", "crossing": null }, "geometry": { "type": "Point", "coordinates": [ 39.4914561, 50.2114356 ] } },
{ "type": "Feature", "properties": { "full_id": "n9428248390", "osm_id": "9428248390", "osm_type": "node", "highway": "bus_stop", "noexit": null, "entrance": null, "access": null, "covered": null, "tactile_paving": null, "shelter": null, "lit": null, "bin": null, "bench": null, "public_transport": "platform", "old_name": null, "bus": "yes", "addr:city": null, "motor_vehicle": null, "horse": null, "foot": null, "bollard": null, "bicycle": null, "barrier": null, "traffic_sign:direction": null, "traffic_sign": null, "name": "ДРСУ", "crossing": null }, "geometry": { "type": "Point", "coordinates": [ 39.4962313, 50.2099665 ] } },
{ "type": "Feature", "properties": { "full_id": "n9428300629", "osm_id": "9428300629", "osm_type": "node", "highway": "crossing", "noexit": null, "entrance": null, "access": null, "covered": null, "tactile_paving": null, "shelter": null, "lit": null, "bin": null, "bench": null, "public_transport": null, "old_name": null, "bus": null, "addr:city": null, "motor_vehicle": null, "horse": null, "foot": null, "bollard": null, "bicycle": null, "barrier": null, "traffic_sign:direction": null, "traffic_sign": null, "name": null, "crossing": "marked" }, "geometry": { "type": "Point", "coordinates": [ 39.5156553, 50.2052555 ] } },
{ "type": "Feature", "properties": { "full_id": "n9428300632", "osm_id": "9428300632", "osm_type": "node", "highway": "bus_stop", "noexit": null, "entrance": null, "access": null, "covered": null, "tactile_paving": null, "shelter": null, "lit": null, "bin": null, "bench": null, "public_transport": "platform", "old_name": null, "bus": "yes", "addr:city": null, "motor_vehicle": null, "horse": null, "foot": null, "bollard": null, "bicycle": null, "barrier": null, "traffic_sign:direction": null, "traffic_sign": null, "name": "Кольцо", "crossing": null }, "geometry": { "type": "Point", "coordinates": [ 39.5114808, 50.2061314 ] } },
{ "type": "Feature", "properties": { "full_id": "n9428300637", "osm_id": "9428300637", "osm_type": "node", "highway": "crossing", "noexit": null, "entrance": null, "access": null, "covered": null, "tactile_paving": null, "shelter": null, "lit": null, "bin": null, "bench": null, "public_transport": null, "old_name": null, "bus": null, "addr:city": null, "motor_vehicle": null, "horse": null, "foot": null, "bollard": null, "bicycle": null, "barrier": null, "traffic_sign:direction": null, "traffic_sign": null, "name": null, "crossing": "marked" }, "geometry": { "type": "Point", "coordinates": [ 39.5102513, 50.2048797 ] } },
{ "type": "Feature", "properties": { "full_id": "n9428941684", "osm_id": "9428941684", "osm_type": "node", "highway": null, "noexit": "yes", "entrance": null, "access": null, "covered": null, "tactile_paving": null, "shelter": null, "lit": null, "bin": null, "bench": null, "public_transport": null, "old_name": null, "bus": null, "addr:city": null, "motor_vehicle": null, "horse": null, "foot": null, "bollard": null, "bicycle": null, "barrier": null, "traffic_sign:direction": null, "traffic_sign": null, "name": null, "crossing": null }, "geometry": { "type": "Point", "coordinates": [ 39.5126139, 50.2122317 ] } },
{ "type": "Feature", "properties": { "full_id": "n9428951552", "osm_id": "9428951552", "osm_type": "node", "highway": "crossing", "noexit": null, "entrance": null, "access": null, "covered": null, "tactile_paving": null, "shelter": null, "lit": null, "bin": null, "bench": null, "public_transport": null, "old_name": null, "bus": null, "addr:city": null, "motor_vehicle": null, "horse": null, "foot": null, "bollard": null, "bicycle": null, "barrier": null, "traffic_sign:direction": null, "traffic_sign": null, "name": null, "crossing": "marked" }, "geometry": { "type": "Point", "coordinates": [ 39.5103759, 50.1984557 ] } },
{ "type": "Feature", "properties": { "full_id": "n9428951553", "osm_id": "9428951553", "osm_type": "node", "highway": "bus_stop", "noexit": null, "entrance": null, "access": null, "covered": null, "tactile_paving": null, "shelter": null, "lit": null, "bin": null, "bench": null, "public_transport": "platform", "old_name": null, "bus": "yes", "addr:city": null, "motor_vehicle": null, "horse": null, "foot": null, "bollard": null, "bicycle": null, "barrier": null, "traffic_sign:direction": null, "traffic_sign": null, "name": "Рыбная база", "crossing": null }, "geometry": { "type": "Point", "coordinates": [ 39.5101968, 50.1997585 ] } },
{ "type": "Feature", "properties": { "full_id": "n9428951554", "osm_id": "9428951554", "osm_type": "node", "highway": "bus_stop", "noexit": null, "entrance": null, "access": null, "covered": null, "tactile_paving": null, "shelter": null, "lit": null, "bin": null, "bench": null, "public_transport": "platform", "old_name": null, "bus": "yes", "addr:city": null, "motor_vehicle": null, "horse": null, "foot": null, "bollard": null, "bicycle": null, "barrier": null, "traffic_sign:direction": null, "traffic_sign": null, "name": "Рыбная база", "crossing": null }, "geometry": { "type": "Point", "coordinates": [ 39.510469, 50.1983152 ] } }
]
}
