{
"type": "FeatureCollection",
"name": "tourism",
"crs": { "type": "name", "properties": { "name": "urn:ogc:def:crs:OGC:1.3:CRS84" } },
"features": [
{ "type": "Feature", "properties": { "full_id": "n3648695467", "osm_id": "3648695467", "osm_type": "node", "historic": null, "tourism": "viewpoint", "artwork_type": null, "name": "Трибуна" }, "geometry": { "type": "Point", "coordinates": [ 39.5042669, 50.1975641 ] } },
{ "type": "Feature", "properties": { "full_id": "n9428248393", "osm_id": "9428248393", "osm_type": "node", "historic": null, "tourism": "viewpoint", "artwork_type": null, "name": null }, "geometry": { "type": "Point", "coordinates": [ 39.4968449, 50.2057887 ] } },
{ "type": "Feature", "properties": { "full_id": "n13150182823", "osm_id": "13150182823", "osm_type": "node", "historic": null, "tourism": "artwork", "artwork_type": "sculpture", "name": "Чаши слез" }, "geometry": { "type": "Point", "coordinates": [ 39.492366, 50.2027006 ] } },
{ "type": "Feature", "properties": { "full_id": "n13150182824", "osm_id": "13150182824", "osm_type": "node", "historic": null, "tourism": "artwork", "artwork_type": "sculpture", "name": "Затмение" }, "geometry": { "type": "Point", "coordinates": [ 39.4952563, 50.2042928 ] } },
{ "type": "Feature", "properties": { "full_id": "n13150182825", "osm_id": "13150182825", "osm_type": "node", "historic": null, "tourism": "artwork", "artwork_type": "sculpture", "name": "Лабиринт" }, "geometry": { "type": "Point", "coordinates": [ 39.4953393, 50.2036769 ] } },
{ "type": "Feature", "properties": { "full_id": "n13150182826", "osm_id": "13150182826", "osm_type": "node", "historic": null, "tourism": "artwork", "artwork_type": "sculpture", "name": "Зона плена" }, "geometry": { "type": "Point", "coordinates": [ 39.4935947, 50.2028305 ] } },
{ "type": "Feature", "properties": { "full_id": "n13150182828", "osm_id": "13150182828", "osm_type": "node", "historic": null, "tourism": "viewpoint", "artwork_type": null, "name": null }, "geometry": { "type": "Point", "coordinates": [ 39.4831685, 50.2004686 ] } },
{ "type": "Feature", "properties": { "full_id": null, "osm_id": null, "osm_type": null, "historic": "memorial", "tourism": null, "artwork_type": null, "name": null }, "geometry": { "type": "Point", "coordinates": [ 39.498995114771702, 50.205261318313148 ] } }
]
}
