{
"type": "FeatureCollection",
"name": "food",
"crs": { "type": "name", "properties": { "name": "urn:ogc:def:crs:OGC:1.3:CRS84" } },
"features": [
{ "type": "Feature", "properties": { "full_id": "n1356043432", "osm_id": "1356043432", "osm_type": "node", "amenity": "cafe", "wheelchair": null, "takeaway": null, "payment:debit_cards": null, "payment:credit_cards": null, "payment:cash": null, "opening_hours": null, "name:ru": null, "name:en": null, "cuisine": null, "check_date": null, "brand:wikidata": null, "brand:ru": null, "brand:en": null, "brand": null, "name": "София" }, "geometry": null },
{ "type": "Feature", "properties": { "full_id": "n3851383286", "osm_id": "3851383286", "osm_type": "node", "amenity": "fast_food", "wheelchair": null, "takeaway": null, "payment:debit_cards": null, "payment:credit_cards": null, "payment:cash": null, "opening_hours": null, "name:ru": null, "name:en": null, "cuisine": null, "check_date": null, "brand:wikidata": null, "brand:ru": null, "brand:en": null, "brand": null, "name": "Русский Аппетит" }, "geometry": { "type": "Point", "coordinates": [ 41.6123262, 51.0947095 ] } },
{ "type": "Feature", "properties": { "full_id": "n3961583543", "osm_id": "3961583543", "osm_type": "node", "amenity": "cafe", "wheelchair": null, "takeaway": null, "payment:debit_cards": null, "payment:credit_cards": null, "payment:cash": null, "opening_hours": null, "name:ru": null, "name:en": null, "cuisine": null, "check_date": null, "brand:wikidata": null, "brand:ru": null, "brand:en": null, "brand": null, "name": "Хопёр" }, "geometry": { "type": "Point", "coordinates": [ 41.630635, 51.1011053 ] } },
{ "type": "Feature", "properties": { "full_id": "n4017263633", "osm_id": "4017263633", "osm_type": "node", "amenity": "cafe", "wheelchair": null, "takeaway": null, "payment:debit_cards": null, "payment:credit_cards": null, "payment:cash": null, "opening_hours": null, "name:ru": null, "name:en": null, "cuisine": null, "check_date": null, "brand:wikidata": null, "brand:ru": null, "brand:en": null, "brand": null, "name": null }, "geometry": { "type": "Point", "coordinates": [ 41.611761, 51.0951921 ] } },
{ "type": "Feature", "properties": { "full_id": "n7902994969", "osm_id": "7902994969", "osm_type": "node", "amenity": "street_food", "wheelchair": "yes", "takeaway": "yes", "payment:debit_cards": "yes", "payment:credit_cards": "yes", "payment:cash": "yes", "opening_hours": "24/7", "name:ru": "Русский Аппетит", "name:en": "Russkiy Appetit", "cuisine": "sandwich;salad;regional", "check_date": "2024-07-18", "brand:wikidata": "Q62086063", "brand:ru": "Русский Аппетит", "brand:en": "Russkiy Appetit", "brand": "Русский Аппетит", "name": "Русский Аппетит" }, "geometry": { "type": "Point", "coordinates": [ 41.6319488, 51.0995277 ] } },
{ "type": "Feature", "properties": { "full_id": null, "osm_id": null, "osm_type": null, "amenity": "cafe", "wheelchair": null, "takeaway": null, "payment:debit_cards": null, "payment:credit_cards": null, "payment:cash": null, "opening_hours": null, "name:ru": null, "name:en": null, "cuisine": null, "check_date": null, "brand:wikidata": null, "brand:ru": null, "brand:en": null, "brand": null, "name": null }, "geometry": { "type": "Point", "coordinates": [ 41.633555498232504, 51.101819090929077 ] } },
{ "type": "Feature", "properties": { "full_id": null, "osm_id": null, "osm_type": null, "amenity": "cafe", "wheelchair": null, "takeaway": null, "payment:debit_cards": null, "payment:credit_cards": null, "payment:cash": null, "opening_hours": null, "name:ru": null, "name:en": null, "cuisine": null, "check_date": null, "brand:wikidata": null, "brand:ru": null, "brand:en": null, "brand": null, "name": null }, "geometry": { "type": "Point", "coordinates": [ 41.629434934998038, 51.100594196072329 ] } },
{ "type": "Feature", "properties": { "full_id": null, "osm_id": null, "osm_type": null, "amenity": "street_food", "wheelchair": null, "takeaway": null, "payment:debit_cards": null, "payment:credit_cards": null, "payment:cash": null, "opening_hours": null, "name:ru": null, "name:en": null, "cuisine": null, "check_date": null, "brand:wikidata": null, "brand:ru": null, "brand:en": null, "brand": null, "name": null }, "geometry": { "type": "Point", "coordinates": [ 41.632236709249483, 51.099555567494157 ] } }
]
}
