{
"type": "FeatureCollection",
"name": "game",
"crs": { "type": "name", "properties": { "name": "urn:ogc:def:crs:OGC:1.3:CRS84" } },
"features": [
{ "type": "Feature", "properties": { "full_id": "w382133051", "osm_id": "382133051", "osm_type": "way", "amenity": "kindergarten", "leisure": null, "check_date": "2023-10-03", "building": "yes" }, "geometry": { "type": "Point", "coordinates": [ 41.61896285, 51.097356 ] } },
{ "type": "Feature", "properties": { "full_id": "w1127878231", "osm_id": "1127878231", "osm_type": "way", "amenity": null, "leisure": "playground", "check_date": null, "building": null }, "geometry": { "type": "Point", "coordinates": [ 41.620285205565281, 51.10958822927163 ] } },
{ "type": "Feature", "properties": { "full_id": "w1127878319", "osm_id": "1127878319", "osm_type": "way", "amenity": null, "leisure": "playground", "check_date": null, "building": null }, "geometry": { "type": "Point", "coordinates": [ 41.634396125014121, 51.101374137951971 ] } },
{ "type": "Feature", "properties": { "full_id": null, "osm_id": null, "osm_type": null, "amenity": null, "leisure": "playground", "check_date": null, "building": null }, "geometry": { "type": "Point", "coordinates": [ 41.634430323400849, 51.102040864679395 ] } },
{ "type": "Feature", "properties": { "full_id": null, "osm_id": null, "osm_type": null, "amenity": null, "leisure": "playground", "check_date": null, "building": null }, "geometry": { "type": "Point", "coordinates": [ 41.622928052745173, 51.105399030815967 ] } },
{ "type": "Feature", "properties": { "full_id": null, "osm_id": null, "osm_type": null, "amenity": null, "leisure": null, "check_date": null, "building": null }, "geometry": { "type": "Point", "coordinates": [ 41.621166373183286, 51.102441711119468 ] } }
]
}
