{
"type": "FeatureCollection",
"name": "POI",
"crs": { "type": "name", "properties": { "name": "urn:ogc:def:crs:OGC:1.3:CRS84" } },
"features": [
{ "type": "Feature", "properties": { "full_id": "n3442948286", "osm_id": "3442948286", "osm_type": "node", "shop": "mall", "name": "Седьмое небо", "amenity": null }, "geometry": { "type": "Point", "coordinates": [ 41.6161681, 51.0959626 ] } },
{ "type": "Feature", "properties": { "full_id": null, "osm_id": null, "osm_type": null, "shop": null, "name": null, "amenity": "community_center" }, "geometry": { "type": "Point", "coordinates": [ 41.633420641119343, 51.099210070716758 ] } }
]
}
