{
"type": "FeatureCollection",
"name": "religion",
"crs": { "type": "name", "properties": { "name": "urn:ogc:def:crs:OGC:1.3:CRS84" } },
"features": [
{ "type": "Feature", "properties": { "full_id": "w323768199", "osm_id": "323768199", "osm_type": "way", "religion": "christian", "amenity": "place_of_worship", "place_of_worship:type": null, "addr:street": null, "addr:housenumber": null, "tourism": null, "historic": null, "start_date": "1774", "ref:sobory.ru": "09126", "name": "Церковь Воздвижения Креста Господня", "denomination": "russian_orthodox", "building:material": "brick", "building": "church", "alt_name": "Церковь Крестовоздвиженская" }, "geometry": { "type": "MultiPolygon", "coordinates": [ [ [ [ 41.6347566, 51.0990456 ], [ 41.6350899, 51.0991336 ], [ 41.6352017, 51.0989665 ], [ 41.6348684, 51.0988785 ], [ 41.6347566, 51.0990456 ] ] ] ] } },
{ "type": "Feature", "properties": { "full_id": "w323768200", "osm_id": "323768200", "osm_type": "way", "religion": "christian", "amenity": null, "place_of_worship:type": null, "addr:street": null, "addr:housenumber": null, "tourism": "attraction", "historic": "yes", "start_date": "1835", "ref:sobory.ru": "09129", "name": "Церковь Троицы Живоначальной", "denomination": "russian_orthodox", "building:material": "brick", "building": "church", "alt_name": null }, "geometry": { "type": "MultiPolygon", "coordinates": [ [ [ [ 41.624579, 51.0981628 ], [ 41.6250972, 51.0983625 ], [ 41.6252485, 51.0982077 ], [ 41.6247303, 51.098008 ], [ 41.624579, 51.0981628 ] ] ] ] } },
{ "type": "Feature", "properties": { "full_id": "w418296725", "osm_id": "418296725", "osm_type": "way", "religion": "christian", "amenity": "place_of_worship", "place_of_worship:type": "cathedral", "addr:street": "Советская улица", "addr:housenumber": "4", "tourism": null, "historic": null, "start_date": "1861..1865", "ref:sobory.ru": "09128", "name": "Собор Воскресения Христова", "denomination": "russian_orthodox", "building:material": null, "building": "church", "alt_name": "Воскресенский собор" }, "geometry": { "type": "MultiPolygon", "coordinates": [ [ [ [ 41.6325897, 51.1012107 ], [ 41.6324994, 51.1013114 ], [ 41.6325719, 51.101337 ], [ 41.6325306, 51.1013831 ], [ 41.6328574, 51.1014985 ], [ 41.6330338, 51.1013016 ], [ 41.6326839, 51.1011781 ], [ 41.6326391, 51.1012281 ], [ 41.6325897, 51.1012107 ] ] ] ] } }
]
}
