{
"type": "FeatureCollection",
"name": "retail",
"crs": { "type": "name", "properties": { "name": "urn:ogc:def:crs:OGC:1.3:CRS84" } },
"features": [
{ "type": "Feature", "properties": { "full_id": "n1356043431", "osm_id": "1356043431", "osm_type": "node", "shop": null, "amenity": "bank", "payment:debit_cards": null, "payment:credit_cards": null, "payment:cash": null, "check_date": null, "wheelchair": "no", "ref": "9013/0434", "operator:wikipedia": "ru:Сбербанк России", "operator:wikidata": "Q205012", "operator": "ПАО Сбербанк", "opening_hours": "Mo-Fr 08:15-17:00; Sa 08:00-12:30", "name:ru": "Сбербанк", "name:en": "Sberbank", "name": "Сбербанк", "contact:youtube": "https://www.youtube.com/sberbank", "contact:website": "https://www.sberbank.ru", "contact:vk": "https://vk.com/sberbank", "contact:twitter": "https://twitter.com/sberbank", "contact:phone": "+7 800 5555550", "contact:ok": "https://ok.ru/sberbank", "contact:instagram": "https://www.instagram.com/sberbank", "contact:facebook": "https://www.facebook.com/sberbank", "brand:wikipedia": "ru:Сбербанк России", "brand:wikidata": "Q205012", "branch": "Центрально-Черноземный банк" }, "geometry": { "type": "Point", "coordinates": [ 41.6323038, 51.1000818 ] } },
{ "type": "Feature", "properties": { "full_id": "n1923591697", "osm_id": "1923591697", "osm_type": "node", "shop": "supermarket", "amenity": null, "payment:debit_cards": null, "payment:credit_cards": null, "payment:cash": null, "check_date": null, "wheelchair": null, "ref": null, "operator:wikipedia": null, "operator:wikidata": null, "operator": null, "opening_hours": null, "name:ru": null, "name:en": null, "name": "Подсолнух", "contact:youtube": null, "contact:website": null, "contact:vk": null, "contact:twitter": null, "contact:phone": null, "contact:ok": null, "contact:instagram": null, "contact:facebook": null, "brand:wikipedia": null, "brand:wikidata": null, "branch": null }, "geometry": { "type": "Point", "coordinates": [ 41.6118551, 51.0935945 ] } },
{ "type": "Feature", "properties": { "full_id": "n3853014680", "osm_id": "3853014680", "osm_type": "node", "shop": "supermarket", "amenity": null, "payment:debit_cards": "yes", "payment:credit_cards": "yes", "payment:cash": "yes", "check_date": "2024-07-18", "wheelchair": "yes", "ref": null, "operator:wikipedia": null, "operator:wikidata": null, "operator": null, "opening_hours": "08:00-22:00", "name:ru": "Пятёрочка", "name:en": null, "name": "Пятёрочка", "contact:youtube": null, "contact:website": null, "contact:vk": null, "contact:twitter": null, "contact:phone": null, "contact:ok": null, "contact:instagram": null, "contact:facebook": null, "brand:wikipedia": null, "brand:wikidata": null, "branch": null }, "geometry": { "type": "Point", "coordinates": [ 41.6157071, 51.0957977 ] } },
{ "type": "Feature", "properties": { "full_id": "n4351597262", "osm_id": "4351597262", "osm_type": "node", "shop": null, "amenity": "marketplace", "payment:debit_cards": null, "payment:credit_cards": null, "payment:cash": null, "check_date": null, "wheelchair": null, "ref": null, "operator:wikipedia": null, "operator:wikidata": null, "operator": null, "opening_hours": null, "name:ru": null, "name:en": null, "name": "Городской рынок", "contact:youtube": null, "contact:website": null, "contact:vk": null, "contact:twitter": null, "contact:phone": null, "contact:ok": null, "contact:instagram": null, "contact:facebook": null, "brand:wikipedia": null, "brand:wikidata": null, "branch": null }, "geometry": null },
{ "type": "Feature", "properties": { "full_id": "n9648067961", "osm_id": "9648067961", "osm_type": "node", "shop": null, "amenity": "bank", "payment:debit_cards": null, "payment:credit_cards": null, "payment:cash": null, "check_date": null, "wheelchair": null, "ref": null, "operator:wikipedia": null, "operator:wikidata": null, "operator": null, "opening_hours": "Mo-Fr 09:00-13:00,14:00-18:00", "name:ru": null, "name:en": null, "name": "Совкомбанк", "contact:youtube": null, "contact:website": "https://sovcombank.ru/", "contact:vk": null, "contact:twitter": null, "contact:phone": "+7 800 1000006", "contact:ok": null, "contact:instagram": null, "contact:facebook": null, "brand:wikipedia": null, "brand:wikidata": null, "branch": null }, "geometry": { "type": "Point", "coordinates": [ 41.6298473, 51.1004869 ] } },
{ "type": "Feature", "properties": { "full_id": "n12060872403", "osm_id": "12060872403", "osm_type": "node", "shop": "chemist", "amenity": null, "payment:debit_cards": "yes", "payment:credit_cards": "yes", "payment:cash": "yes", "check_date": "2024-07-18", "wheelchair": "yes", "ref": null, "operator:wikipedia": null, "operator:wikidata": null, "operator": null, "opening_hours": "08:00-20:00", "name:ru": "Хозяюшка", "name:en": null, "name": "Хозяюшка", "contact:youtube": null, "contact:website": null, "contact:vk": null, "contact:twitter": null, "contact:phone": null, "contact:ok": null, "contact:instagram": null, "contact:facebook": null, "brand:wikipedia": null, "brand:wikidata": null, "branch": null }, "geometry": { "type": "Point", "coordinates": [ 41.6160022, 51.0958814 ] } }
]
}
