{
"type": "FeatureCollection",
"name": "tourism",
"crs": { "type": "name", "properties": { "name": "urn:ogc:def:crs:OGC:1.3:CRS84" } },
"features": [
{ "type": "Feature", "properties": { "full_id": "n1356391487", "osm_id": "1356391487", "osm_type": "node", "historic": "memorial", "memorial": null, "name": "Якорь", "inscription": null, "image": null }, "geometry": { "type": "Point", "coordinates": [ 41.6314049, 51.0995029 ] } },
{ "type": "Feature", "properties": { "full_id": "n1855348567", "osm_id": "1855348567", "osm_type": "node", "historic": "memorial", "memorial": null, "name": "Памятник Петру", "inscription": null, "image": null }, "geometry": { "type": "Point", "coordinates": [ 41.6313443, 51.1006339 ] } },
{ "type": "Feature", "properties": { "full_id": "n5451931380", "osm_id": "5451931380", "osm_type": "node", "historic": "memorial", "memorial": "plaque", "name": "Памятник архитектуры в стиле неоампир", "inscription": "Памятник архитектуры и истории Воронежской области. Здание построено в 1910 году в стиле неоампир. В нём располагалось отделение Воронежского коммерческого банка.", "image": "https://yadi.sk/i/VD5mcxqd3SyVs3" }, "geometry": { "type": "Point", "coordinates": [ 41.6281384, 51.099847 ] } },
{ "type": "Feature", "properties": { "full_id": null, "osm_id": null, "osm_type": null, "historic": null, "memorial": null, "name": null, "inscription": null, "image": null, "tourism": "viewpoint" }, "geometry": { "type": "Point", "coordinates": [ 41.622101912248823, 51.103385881901936 ] } },
{ "type": "Feature", "properties": { "full_id": null, "osm_id": null, "osm_type": null, "historic": null, "memorial": null, "name": null, "inscription": null, "image": null }, "geometry": { "type": "Point", "coordinates": [ 41.630652649926262, 51.104480278658123 ] } },
{ "type": "Feature", "properties": { "full_id": "n9953020018", "osm_id": "9953020018", "osm_type": "node", "historic": null, "memorial": null, "name": "Крымская", "inscription": null, "image": null }, "geometry": { "type": "Point", "coordinates": [ 41.6229082, 51.1089424 ] } },
{ "type": "Feature", "properties": { "full_id": "n1356134629", "osm_id": "1356134629", "osm_type": "node", "historic": null, "memorial": null, "name": "Новохопёрский краеведческий музей", "inscription": null, "image": null }, "geometry": { "type": "Point", "coordinates": [ 41.631367, 51.0995829 ] } },
{ "type": "Feature", "properties": { "full_id": null, "osm_id": null, "osm_type": null, "historic": null, "memorial": null, "name": null, "inscription": null, "image": null, "tourism": "viewpoint" }, "geometry": { "type": "Point", "coordinates": [ 41.621473342691168, 51.10232297979897 ] } }
]
}
