{
"type": "FeatureCollection",
"name": "highway_pt",
"crs": { "type": "name", "properties": { "name": "urn:ogc:def:crs:OGC:1.3:CRS84" } },
"features": [
{ "type": "Feature", "properties": { "full_id": "n2235588128", "osm_id": "2235588128", "osm_type": "node", "highway": null, "traffic_calming": null, "shelter": null, "motorcycle": null, "motorcar": null, "foot": null, "bicycle": null, "name": null, "barrier": null, "crossing": null, "public_transport": "stop_position", "bus": "yes" }, "geometry": { "type": "Point", "coordinates": [ 37.709685, 53.9528447 ] } },
{ "type": "Feature", "properties": { "full_id": "n2235588130", "osm_id": "2235588130", "osm_type": "node", "highway": "crossing", "traffic_calming": null, "shelter": null, "motorcycle": null, "motorcar": null, "foot": null, "bicycle": null, "name": null, "barrier": null, "crossing": "uncontrolled", "public_transport": null, "bus": null }, "geometry": { "type": "Point", "coordinates": [ 37.7098592, 53.953024 ] } },
{ "type": "Feature", "properties": { "full_id": "n2918528208", "osm_id": "2918528208", "osm_type": "node", "highway": null, "traffic_calming": null, "shelter": null, "motorcycle": null, "motorcar": null, "foot": null, "bicycle": null, "name": null, "barrier": "gate", "crossing": null, "public_transport": null, "bus": null }, "geometry": { "type": "Point", "coordinates": [ 37.6991031, 53.9378799 ] } },
{ "type": "Feature", "properties": { "full_id": "n3495072428", "osm_id": "3495072428", "osm_type": "node", "highway": "bus_stop", "traffic_calming": null, "shelter": null, "motorcycle": null, "motorcar": null, "foot": null, "bicycle": null, "name": "Улица Гагарина", "barrier": null, "crossing": null, "public_transport": "platform", "bus": null }, "geometry": { "type": "Point", "coordinates": [ 37.6975385, 53.9364553 ] } },
{ "type": "Feature", "properties": { "full_id": "n3495072429", "osm_id": "3495072429", "osm_type": "node", "highway": "bus_stop", "traffic_calming": null, "shelter": null, "motorcycle": null, "motorcar": null, "foot": null, "bicycle": null, "name": "Улица Гагарина", "barrier": null, "crossing": null, "public_transport": "platform", "bus": null }, "geometry": { "type": "Point", "coordinates": [ 37.6973968, 53.9365888 ] } },
{ "type": "Feature", "properties": { "full_id": "n3507215670", "osm_id": "3507215670", "osm_type": "node", "highway": null, "traffic_calming": null, "shelter": null, "motorcycle": "yes", "motorcar": "yes", "foot": "yes", "bicycle": "yes", "name": null, "barrier": "gate", "crossing": null, "public_transport": null, "bus": null }, "geometry": { "type": "Point", "coordinates": [ 37.671402, 53.9555792 ] } },
{ "type": "Feature", "properties": { "full_id": "n3507216856", "osm_id": "3507216856", "osm_type": "node", "highway": "give_way", "traffic_calming": null, "shelter": null, "motorcycle": null, "motorcar": null, "foot": null, "bicycle": null, "name": null, "barrier": null, "crossing": null, "public_transport": null, "bus": null }, "geometry": { "type": "Point", "coordinates": [ 37.6686992, 53.956942 ] } },
{ "type": "Feature", "properties": { "full_id": "n3518946625", "osm_id": "3518946625", "osm_type": "node", "highway": "bus_stop", "traffic_calming": null, "shelter": null, "motorcycle": null, "motorcar": null, "foot": null, "bicycle": null, "name": "Универмаг", "barrier": null, "crossing": null, "public_transport": "platform", "bus": null }, "geometry": { "type": "Point", "coordinates": [ 37.7013761, 53.9465523 ] } },
{ "type": "Feature", "properties": { "full_id": "n3518946626", "osm_id": "3518946626", "osm_type": "node", "highway": "bus_stop", "traffic_calming": null, "shelter": null, "motorcycle": null, "motorcar": null, "foot": null, "bicycle": null, "name": "Универмаг", "barrier": null, "crossing": null, "public_transport": "platform", "bus": null }, "geometry": { "type": "Point", "coordinates": [ 37.7011916, 53.946583 ] } },
{ "type": "Feature", "properties": { "full_id": "n3518946644", "osm_id": "3518946644", "osm_type": "node", "highway": null, "traffic_calming": null, "shelter": null, "motorcycle": null, "motorcar": null, "foot": null, "bicycle": null, "name": null, "barrier": null, "crossing": null, "public_transport": "stop_position", "bus": "yes" }, "geometry": { "type": "Point", "coordinates": [ 37.698743, 53.942555 ] } },
{ "type": "Feature", "properties": { "full_id": "n3518946645", "osm_id": "3518946645", "osm_type": "node", "highway": null, "traffic_calming": null, "shelter": null, "motorcycle": null, "motorcar": null, "foot": null, "bicycle": null, "name": null, "barrier": null, "crossing": null, "public_transport": "stop_position", "bus": "yes" }, "geometry": { "type": "Point", "coordinates": [ 37.7012951, 53.9465665 ] } },
{ "type": "Feature", "properties": { "full_id": "n3518946646", "osm_id": "3518946646", "osm_type": "node", "highway": null, "traffic_calming": null, "shelter": null, "motorcycle": null, "motorcar": null, "foot": null, "bicycle": null, "name": null, "barrier": null, "crossing": null, "public_transport": "stop_position", "bus": "yes" }, "geometry": { "type": "Point", "coordinates": [ 37.7098215, 53.9529798 ] } },
{ "type": "Feature", "properties": { "full_id": "n3518946647", "osm_id": "3518946647", "osm_type": "node", "highway": null, "traffic_calming": null, "shelter": null, "motorcycle": null, "motorcar": null, "foot": null, "bicycle": null, "name": null, "barrier": null, "crossing": null, "public_transport": "stop_position", "bus": "yes" }, "geometry": { "type": "Point", "coordinates": [ 37.7219528, 53.9679513 ] } },
{ "type": "Feature", "properties": { "full_id": "n3592077094", "osm_id": "3592077094", "osm_type": "node", "highway": "bus_stop", "traffic_calming": null, "shelter": null, "motorcycle": null, "motorcar": null, "foot": null, "bicycle": null, "name": null, "barrier": null, "crossing": null, "public_transport": "platform", "bus": null }, "geometry": { "type": "Point", "coordinates": [ 37.7021441, 53.9523138 ] } },
{ "type": "Feature", "properties": { "full_id": "n3592077095", "osm_id": "3592077095", "osm_type": "node", "highway": null, "traffic_calming": null, "shelter": null, "motorcycle": null, "motorcar": null, "foot": null, "bicycle": null, "name": null, "barrier": null, "crossing": null, "public_transport": "stop_position", "bus": "yes" }, "geometry": { "type": "Point", "coordinates": [ 37.7021493, 53.9523343 ] } },
{ "type": "Feature", "properties": { "full_id": "n6177985821", "osm_id": "6177985821", "osm_type": "node", "highway": "crossing", "traffic_calming": null, "shelter": null, "motorcycle": null, "motorcar": null, "foot": null, "bicycle": null, "name": null, "barrier": null, "crossing": "uncontrolled", "public_transport": null, "bus": null }, "geometry": { "type": "Point", "coordinates": [ 37.7019894, 53.9523573 ] } },
{ "type": "Feature", "properties": { "full_id": "n6278485398", "osm_id": "6278485398", "osm_type": "node", "highway": "turning_circle", "traffic_calming": null, "shelter": null, "motorcycle": null, "motorcar": null, "foot": null, "bicycle": null, "name": null, "barrier": null, "crossing": null, "public_transport": null, "bus": null }, "geometry": { "type": "Point", "coordinates": [ 37.691136, 53.9549508 ] } },
{ "type": "Feature", "properties": { "full_id": "n6278485416", "osm_id": "6278485416", "osm_type": "node", "highway": "turning_circle", "traffic_calming": null, "shelter": null, "motorcycle": null, "motorcar": null, "foot": null, "bicycle": null, "name": null, "barrier": null, "crossing": null, "public_transport": null, "bus": null }, "geometry": { "type": "Point", "coordinates": [ 37.688207, 53.9558961 ] } },
{ "type": "Feature", "properties": { "full_id": "n6278489842", "osm_id": "6278489842", "osm_type": "node", "highway": "bus_stop", "traffic_calming": null, "shelter": "yes", "motorcycle": null, "motorcar": null, "foot": null, "bicycle": null, "name": null, "barrier": null, "crossing": null, "public_transport": null, "bus": null }, "geometry": { "type": "Point", "coordinates": [ 37.701311, 53.9531644 ] } },
{ "type": "Feature", "properties": { "full_id": "n6279368771", "osm_id": "6279368771", "osm_type": "node", "highway": null, "traffic_calming": "bump", "shelter": null, "motorcycle": null, "motorcar": null, "foot": null, "bicycle": null, "name": null, "barrier": null, "crossing": null, "public_transport": null, "bus": null }, "geometry": { "type": "Point", "coordinates": [ 37.7071585, 53.9494132 ] } }
]
}
