{
"type": "FeatureCollection",
"name": "poi_poly",
"crs": { "type": "name", "properties": { "name": "urn:ogc:def:crs:OGC:1.3:CRS84" } },
"features": [
{ "type": "Feature", "properties": { "full_id": "w168350229", "osm_id": "168350229", "osm_type": "way", "amenity": "theatre", "theatre:type": null, "wikidata": "Q123189055", "website": "https://motdik.ru/", "ref:mkrf_theaters": "2999", "phone": "+7 496 5145288", "operator": "ГАУК МО «Московский областной театр драмы и комедии»", "opening_hours": "Tu-We 10:00-19:00; Th 10:00-22:00; Fr-Su 10:00-21:00", "name": "Московский областной театр драмы и комедии", "check_date": "2025-11-15", "building": "yes", "addr:housenumber": "65А" }, "geometry": { "type": "MultiPolygon", "coordinates": [ [ [ [ 38.4403628, 55.855007 ], [ 38.4402183, 55.854967 ], [ 38.4401502, 55.8550445 ], [ 38.4399325, 55.8549842 ], [ 38.4399074, 55.8549773 ], [ 38.439971, 55.854905 ], [ 38.4398588, 55.8548739 ], [ 38.4397272, 55.8548375 ], [ 38.4400819, 55.8544337 ], [ 38.4402038, 55.8544674 ], [ 38.4401683, 55.8545078 ], [ 38.4403393, 55.8545551 ], [ 38.4402635, 55.8546415 ], [ 38.4404196, 55.8546847 ], [ 38.4403502, 55.8547637 ], [ 38.4403657, 55.854768 ], [ 38.4403753, 55.8547571 ], [ 38.4403963, 55.8547629 ], [ 38.4404193, 55.8547367 ], [ 38.4406098, 55.8547895 ], [ 38.4405766, 55.8548273 ], [ 38.4406265, 55.8548411 ], [ 38.4404685, 55.8550211 ], [ 38.4403735, 55.8549948 ], [ 38.4403628, 55.855007 ] ] ] ] } },
{ "type": "Feature", "properties": { "full_id": "w938145099", "osm_id": "938145099", "osm_type": "way", "amenity": "theatre", "theatre:type": "amphi", "wikidata": null, "website": null, "ref:mkrf_theaters": null, "phone": null, "operator": null, "opening_hours": null, "name": "Сцена", "check_date": null, "building": null, "addr:housenumber": null }, "geometry": { "type": "MultiPolygon", "coordinates": [ [ [ [ 38.4302349, 55.848842 ], [ 38.4300677, 55.8487908 ], [ 38.4302204, 55.8486337 ], [ 38.4303877, 55.8486849 ], [ 38.4302349, 55.848842 ] ] ] ] } }
]
}
