{
"type": "FeatureCollection",
"name": "sport_big",
"crs": { "type": "name", "properties": { "name": "urn:ogc:def:crs:OGC:1.3:CRS84" } },
"features": [
{ "type": "Feature", "properties": { "full_id": "n3625785323", "osm_id": "3625785323", "osm_type": "node", "leisure": "sports_centre", "motor_vehicle": null, "access": null, "website": null, "name:en": null, "name": null, "addr:street": null, "barrier": null }, "geometry": { "type": "Point", "coordinates": [ 38.4444769, 55.8528614 ] } },
{ "type": "Feature", "properties": { "full_id": "n3626209066", "osm_id": "3626209066", "osm_type": "node", "leisure": null, "motor_vehicle": null, "access": null, "website": null, "name:en": null, "name": null, "addr:street": null, "barrier": "gate" }, "geometry": { "type": "Point", "coordinates": [ 38.4456921, 55.8498068 ] } },
{ "type": "Feature", "properties": { "full_id": "n3751781929", "osm_id": "3751781929", "osm_type": "node", "leisure": "sports_centre", "motor_vehicle": null, "access": null, "website": null, "name:en": null, "name": null, "addr:street": null, "barrier": null }, "geometry": { "type": "Point", "coordinates": [ 38.4304228, 55.848253 ] } },
{ "type": "Feature", "properties": { "full_id": "n5869399386", "osm_id": "5869399386", "osm_type": "node", "leisure": "fitness_centre", "motor_vehicle": null, "access": null, "website": "https://lagunafit.ru/", "name:en": "Laguna", "name": "Лагуна", "addr:street": "Rogozhskaya str.", "barrier": null }, "geometry": { "type": "Point", "coordinates": [ 38.4384821, 55.8562651 ] } },
{ "type": "Feature", "properties": { "full_id": "n12679802472", "osm_id": "12679802472", "osm_type": "node", "leisure": null, "motor_vehicle": null, "access": "no", "website": null, "name:en": null, "name": null, "addr:street": null, "barrier": "gate" }, "geometry": { "type": "Point", "coordinates": [ 38.4467508, 55.8482655 ] } },
{ "type": "Feature", "properties": { "full_id": "n12679802473", "osm_id": "12679802473", "osm_type": "node", "leisure": null, "motor_vehicle": "no", "access": null, "website": null, "name:en": null, "name": null, "addr:street": null, "barrier": "gate" }, "geometry": { "type": "Point", "coordinates": [ 38.446336, 55.8488592 ] } },
{ "type": "Feature", "properties": { "full_id": null, "osm_id": null, "osm_type": null, "leisure": null, "motor_vehicle": null, "access": null, "website": null, "name:en": null, "name": null, "addr:street": null, "barrier": null }, "geometry": { "type": "Point", "coordinates": [ 38.438991295546998, 55.858802527718979 ] } }
]
}
