{
"type": "FeatureCollection",
"name": "highway_pt",
"crs": { "type": "name", "properties": { "name": "urn:ogc:def:crs:OGC:1.3:CRS84" } },
"features": [
{ "type": "Feature", "properties": { "full_id": "n471482291", "osm_id": "471482291", "osm_type": "node", "highway": null, "bench": null, "shelter": null, "crossing": null, "railway": null, "public_transport": "stop_position", "name": "Кораблино", "bus": "yes" }, "geometry": { "type": "Point", "coordinates": [ 40.0303833, 53.923505 ] } },
{ "type": "Feature", "properties": { "full_id": "n1593484400", "osm_id": "1593484400", "osm_type": "node", "highway": "turning_circle", "bench": null, "shelter": null, "crossing": null, "railway": null, "public_transport": null, "name": null, "bus": null }, "geometry": { "type": "Point", "coordinates": [ 40.0510806, 53.9333133 ] } },
{ "type": "Feature", "properties": { "full_id": "n2122841691", "osm_id": "2122841691", "osm_type": "node", "highway": null, "bench": null, "shelter": null, "crossing": null, "railway": "crossing", "public_transport": null, "name": null, "bus": null }, "geometry": { "type": "Point", "coordinates": [ 40.0134972, 53.9329581 ] } },
{ "type": "Feature", "properties": { "full_id": "n3971615011", "osm_id": "3971615011", "osm_type": "node", "highway": null, "bench": null, "shelter": null, "crossing": null, "railway": "level_crossing", "public_transport": null, "name": null, "bus": null }, "geometry": { "type": "Point", "coordinates": [ 40.0189308, 53.9153908 ] } },
{ "type": "Feature", "properties": { "full_id": "n3971615012", "osm_id": "3971615012", "osm_type": "node", "highway": null, "bench": null, "shelter": null, "crossing": null, "railway": "level_crossing", "public_transport": null, "name": null, "bus": null }, "geometry": { "type": "Point", "coordinates": [ 40.0190035, 53.915392 ] } },
{ "type": "Feature", "properties": { "full_id": "n4053095850", "osm_id": "4053095850", "osm_type": "node", "highway": null, "bench": null, "shelter": null, "crossing": null, "railway": "crossing", "public_transport": null, "name": null, "bus": null }, "geometry": { "type": "Point", "coordinates": [ 40.0135669, 53.9329707 ] } },
{ "type": "Feature", "properties": { "full_id": "n5169239728", "osm_id": "5169239728", "osm_type": "node", "highway": "crossing", "bench": null, "shelter": null, "crossing": "uncontrolled", "railway": null, "public_transport": null, "name": null, "bus": null }, "geometry": { "type": "Point", "coordinates": [ 40.1091147, 53.9422399 ] } },
{ "type": "Feature", "properties": { "full_id": "n5169239731", "osm_id": "5169239731", "osm_type": "node", "highway": "crossing", "bench": null, "shelter": null, "crossing": "uncontrolled", "railway": null, "public_transport": null, "name": null, "bus": null }, "geometry": { "type": "Point", "coordinates": [ 40.1091178, 53.9435148 ] } },
{ "type": "Feature", "properties": { "full_id": "n5169239735", "osm_id": "5169239735", "osm_type": "node", "highway": "crossing", "bench": null, "shelter": null, "crossing": "uncontrolled", "railway": null, "public_transport": null, "name": null, "bus": null }, "geometry": { "type": "Point", "coordinates": [ 40.1084224, 53.9529071 ] } },
{ "type": "Feature", "properties": { "full_id": "n5169269802", "osm_id": "5169269802", "osm_type": "node", "highway": "crossing", "bench": null, "shelter": null, "crossing": "uncontrolled", "railway": null, "public_transport": null, "name": null, "bus": null }, "geometry": { "type": "Point", "coordinates": [ 40.1104418, 53.913379 ] } },
{ "type": "Feature", "properties": { "full_id": "n5169274516", "osm_id": "5169274516", "osm_type": "node", "highway": "crossing", "bench": null, "shelter": null, "crossing": "uncontrolled", "railway": null, "public_transport": null, "name": null, "bus": null }, "geometry": { "type": "Point", "coordinates": [ 40.1084992, 53.9161441 ] } },
{ "type": "Feature", "properties": { "full_id": "n5169296735", "osm_id": "5169296735", "osm_type": "node", "highway": "crossing", "bench": null, "shelter": null, "crossing": "uncontrolled", "railway": null, "public_transport": null, "name": null, "bus": null }, "geometry": { "type": "Point", "coordinates": [ 40.1055905, 53.9325988 ] } },
{ "type": "Feature", "properties": { "full_id": "n5366657306", "osm_id": "5366657306", "osm_type": "node", "highway": "bus_stop", "bench": null, "shelter": "yes", "crossing": null, "railway": null, "public_transport": "platform", "name": "Кораблино", "bus": null }, "geometry": { "type": "Point", "coordinates": [ 40.0306017, 53.9236049 ] } },
{ "type": "Feature", "properties": { "full_id": "n5373797399", "osm_id": "5373797399", "osm_type": "node", "highway": "crossing", "bench": null, "shelter": null, "crossing": null, "railway": null, "public_transport": null, "name": null, "bus": null }, "geometry": { "type": "Point", "coordinates": [ 39.8510196, 53.8826052 ] } },
{ "type": "Feature", "properties": { "full_id": "n5373808361", "osm_id": "5373808361", "osm_type": "node", "highway": "crossing", "bench": null, "shelter": null, "crossing": "uncontrolled", "railway": null, "public_transport": null, "name": null, "bus": null }, "geometry": { "type": "Point", "coordinates": [ 40.0060315, 53.9174352 ] } },
{ "type": "Feature", "properties": { "full_id": "n5373832876", "osm_id": "5373832876", "osm_type": "node", "highway": "crossing", "bench": null, "shelter": null, "crossing": null, "railway": null, "public_transport": null, "name": null, "bus": null }, "geometry": { "type": "Point", "coordinates": [ 39.9204205, 53.8868875 ] } },
{ "type": "Feature", "properties": { "full_id": "n5373837949", "osm_id": "5373837949", "osm_type": "node", "highway": "crossing", "bench": null, "shelter": null, "crossing": null, "railway": null, "public_transport": null, "name": null, "bus": null }, "geometry": { "type": "Point", "coordinates": [ 39.9602337, 53.8977293 ] } },
{ "type": "Feature", "properties": { "full_id": "n6343852124", "osm_id": "6343852124", "osm_type": "node", "highway": "bus_stop", "bench": null, "shelter": "no", "crossing": null, "railway": null, "public_transport": "platform", "name": "Табаево", "bus": "yes" }, "geometry": { "type": "Point", "coordinates": [ 40.1028887, 53.9220227 ] } },
{ "type": "Feature", "properties": { "full_id": "n6343852125", "osm_id": "6343852125", "osm_type": "node", "highway": "bus_stop", "bench": null, "shelter": "no", "crossing": null, "railway": null, "public_transport": "platform", "name": "Табаево", "bus": "yes" }, "geometry": { "type": "Point", "coordinates": [ 40.1021913, 53.9223291 ] } },
{ "type": "Feature", "properties": { "full_id": "n7031889670", "osm_id": "7031889670", "osm_type": "node", "highway": "crossing", "bench": null, "shelter": null, "crossing": null, "railway": null, "public_transport": null, "name": null, "bus": null }, "geometry": { "type": "Point", "coordinates": [ 40.0260062, 53.9274156 ] } },
{ "type": "Feature", "properties": { "full_id": "n7031889672", "osm_id": "7031889672", "osm_type": "node", "highway": "crossing", "bench": null, "shelter": null, "crossing": null, "railway": null, "public_transport": null, "name": null, "bus": null }, "geometry": { "type": "Point", "coordinates": [ 40.0257948, 53.927449 ] } },
{ "type": "Feature", "properties": { "full_id": "n7507953738", "osm_id": "7507953738", "osm_type": "node", "highway": "bus_stop", "bench": null, "shelter": "yes", "crossing": null, "railway": null, "public_transport": null, "name": null, "bus": null }, "geometry": { "type": "Point", "coordinates": [ 40.0057653, 53.9173861 ] } },
{ "type": "Feature", "properties": { "full_id": "n7507960334", "osm_id": "7507960334", "osm_type": "node", "highway": "bus_stop", "bench": "yes", "shelter": "yes", "crossing": null, "railway": null, "public_transport": null, "name": null, "bus": null }, "geometry": { "type": "Point", "coordinates": [ 40.016462, 53.92034 ] } },
{ "type": "Feature", "properties": { "full_id": "n7507979564", "osm_id": "7507979564", "osm_type": "node", "highway": "bus_stop", "bench": "yes", "shelter": "yes", "crossing": null, "railway": null, "public_transport": null, "name": null, "bus": null }, "geometry": { "type": "Point", "coordinates": [ 40.0117788, 53.9186909 ] } },
{ "type": "Feature", "properties": { "full_id": "n7508019342", "osm_id": "7508019342", "osm_type": "node", "highway": "bus_stop", "bench": "yes", "shelter": "yes", "crossing": null, "railway": null, "public_transport": null, "name": null, "bus": null }, "geometry": { "type": "Point", "coordinates": [ 40.0173525, 53.9205801 ] } },
{ "type": "Feature", "properties": { "full_id": "n7508730434", "osm_id": "7508730434", "osm_type": "node", "highway": "bus_stop", "bench": null, "shelter": "yes", "crossing": null, "railway": null, "public_transport": null, "name": null, "bus": null }, "geometry": { "type": "Point", "coordinates": [ 40.038939, 53.9317198 ] } },
{ "type": "Feature", "properties": { "full_id": "n7508745339", "osm_id": "7508745339", "osm_type": "node", "highway": "bus_stop", "bench": null, "shelter": "yes", "crossing": null, "railway": null, "public_transport": null, "name": null, "bus": null }, "geometry": { "type": "Point", "coordinates": [ 40.063639, 53.9402878 ] } },
{ "type": "Feature", "properties": { "full_id": "n7508745342", "osm_id": "7508745342", "osm_type": "node", "highway": "turning_circle", "bench": null, "shelter": null, "crossing": null, "railway": null, "public_transport": null, "name": null, "bus": null }, "geometry": { "type": "Point", "coordinates": [ 40.0635644, 53.9404134 ] } },
{ "type": "Feature", "properties": { "full_id": "n7508752243", "osm_id": "7508752243", "osm_type": "node", "highway": "bus_stop", "bench": null, "shelter": "yes", "crossing": null, "railway": null, "public_transport": null, "name": null, "bus": null }, "geometry": { "type": "Point", "coordinates": [ 40.0555549, 53.9385637 ] } },
{ "type": "Feature", "properties": { "full_id": "n7508770876", "osm_id": "7508770876", "osm_type": "node", "highway": "bus_stop", "bench": null, "shelter": "yes", "crossing": null, "railway": null, "public_transport": null, "name": "ЦРБ", "bus": null }, "geometry": { "type": "Point", "coordinates": [ 40.0514327, 53.9331095 ] } },
{ "type": "Feature", "properties": { "full_id": "n9268776852", "osm_id": "9268776852", "osm_type": "node", "highway": null, "bench": null, "shelter": null, "crossing": null, "railway": "level_crossing", "public_transport": null, "name": null, "bus": null }, "geometry": { "type": "Point", "coordinates": [ 40.0190842, 53.9153915 ] } }
]
}
