{
"type": "FeatureCollection",
"name": "game",
"crs": { "type": "name", "properties": { "name": "urn:ogc:def:crs:OGC:1.3:CRS84" } },
"features": [
{ "type": "Feature", "properties": { "full_id": "w114576811", "osm_id": "114576811", "osm_type": "way", "amenity": "kindergarten", "leisure": null, "preschool": null, "level": null, "education": null, "surface": null, "building": null, "website": null, "phone": null, "opening_hours": null, "official_name": null, "email": null, "name": null, "addr:street": null, "addr:housenumber": null, "addr:city": null, "barrier": "fence" }, "geometry": { "type": "Point", "coordinates": [ 37.576851554971732, 52.409432301049627 ] } },
{ "type": "Feature", "properties": { "full_id": "w273121672", "osm_id": "273121672", "osm_type": "way", "amenity": "kindergarten", "leisure": null, "preschool": null, "level": null, "education": null, "surface": null, "building": null, "website": null, "phone": null, "opening_hours": null, "official_name": null, "email": null, "name": "Детский сад №8", "addr:street": "улица Денисова", "addr:housenumber": "32", "addr:city": "Ливны", "barrier": null }, "geometry": { "type": "Point", "coordinates": [ 37.572724371821444, 52.403896788766616 ] } },
{ "type": "Feature", "properties": { "full_id": "w574085454", "osm_id": "574085454", "osm_type": "way", "amenity": "kindergarten", "leisure": null, "preschool": null, "level": null, "education": null, "surface": null, "building": null, "website": "https://detsad5livny.ru/article5", "phone": "+7 48677 76075", "opening_hours": "Mo-Fr 07:00-18:00", "official_name": "Муниципальное бюджетное дошкольное образовательное учреждение \"Детский сад №5 комбинированного вида\"", "email": "detsad5.livny@yandex.ru", "name": "Детский сад №5", "addr:street": "Солнечная улица", "addr:housenumber": "1Б", "addr:city": "Ливны", "barrier": "wall" }, "geometry": { "type": "Point", "coordinates": [ 37.579016697194128, 52.404007715689005 ] } },
{ "type": "Feature", "properties": { "full_id": "w983841748", "osm_id": "983841748", "osm_type": "way", "amenity": "kindergarten", "leisure": null, "preschool": null, "level": null, "education": null, "surface": null, "building": "yes", "website": null, "phone": null, "opening_hours": null, "official_name": null, "email": null, "name": "Эрудит школа развития", "addr:street": "Октябрьская улица", "addr:housenumber": "11Б", "addr:city": "Ливны", "barrier": null }, "geometry": { "type": "Point", "coordinates": [ 37.584918473819357, 52.411339019150347 ] } },
{ "type": "Feature", "properties": { "full_id": "w1284866773", "osm_id": "1284866773", "osm_type": "way", "amenity": null, "leisure": "playground", "preschool": null, "level": null, "education": null, "surface": null, "building": null, "website": null, "phone": null, "opening_hours": null, "official_name": null, "email": null, "name": null, "addr:street": null, "addr:housenumber": null, "addr:city": null, "barrier": null }, "geometry": { "type": "Point", "coordinates": [ 37.56647095, 52.40911635 ] } },
{ "type": "Feature", "properties": { "full_id": "w1469669337", "osm_id": "1469669337", "osm_type": "way", "amenity": null, "leisure": "playground", "preschool": null, "level": null, "education": null, "surface": "grass", "building": null, "website": null, "phone": null, "opening_hours": null, "official_name": null, "email": null, "name": null, "addr:street": null, "addr:housenumber": null, "addr:city": null, "barrier": null }, "geometry": { "type": "Point", "coordinates": [ 37.579744260510559, 52.409563923215693 ] } },
{ "type": "Feature", "properties": { "full_id": "w1469670623", "osm_id": "1469670623", "osm_type": "way", "amenity": "kindergarten", "leisure": null, "preschool": "yes", "level": "1", "education": "kindergarten", "surface": null, "building": null, "website": null, "phone": null, "opening_hours": "Mo-Fr 07:00-19:00", "official_name": null, "email": null, "name": "Детский сад № 22", "addr:street": "улица Мира", "addr:housenumber": "148", "addr:city": "Ливны", "barrier": null }, "geometry": { "type": "Point", "coordinates": [ 37.575863176172668, 52.407983084044936 ] } },
{ "type": "Feature", "properties": { "full_id": "w1469843884", "osm_id": "1469843884", "osm_type": "way", "amenity": null, "leisure": "playground", "preschool": null, "level": null, "education": null, "surface": "ground", "building": null, "website": null, "phone": null, "opening_hours": null, "official_name": null, "email": null, "name": null, "addr:street": null, "addr:housenumber": null, "addr:city": null, "barrier": null }, "geometry": { "type": "Point", "coordinates": [ 37.580934614861064, 52.40868369628398 ] } },
{ "type": "Feature", "properties": { "full_id": null, "osm_id": null, "osm_type": null, "amenity": null, "leisure": null, "preschool": null, "level": null, "education": null, "surface": null, "building": null, "website": null, "phone": null, "opening_hours": null, "official_name": null, "email": null, "name": null, "addr:street": null, "addr:housenumber": null, "addr:city": null, "barrier": null }, "geometry": { "type": "Point", "coordinates": [ 37.561007767324526, 52.402508838096757 ] } },
{ "type": "Feature", "properties": { "full_id": null, "osm_id": null, "osm_type": null, "amenity": null, "leisure": null, "preschool": null, "level": null, "education": null, "surface": null, "building": null, "website": null, "phone": null, "opening_hours": null, "official_name": null, "email": null, "name": null, "addr:street": null, "addr:housenumber": null, "addr:city": null, "barrier": null }, "geometry": { "type": "Point", "coordinates": [ 37.57282474389924, 52.409722693404909 ] } },
{ "type": "Feature", "properties": { "full_id": null, "osm_id": null, "osm_type": null, "amenity": null, "leisure": null, "preschool": null, "level": null, "education": null, "surface": null, "building": null, "website": null, "phone": null, "opening_hours": null, "official_name": null, "email": null, "name": null, "addr:street": null, "addr:housenumber": null, "addr:city": null, "barrier": null }, "geometry": { "type": "Point", "coordinates": [ 37.573511770776186, 52.408919716458428 ] } },
{ "type": "Feature", "properties": { "full_id": null, "osm_id": null, "osm_type": null, "amenity": null, "leisure": null, "preschool": null, "level": null, "education": null, "surface": null, "building": null, "website": null, "phone": null, "opening_hours": null, "official_name": null, "email": null, "name": null, "addr:street": null, "addr:housenumber": null, "addr:city": null, "barrier": null }, "geometry": { "type": "Point", "coordinates": [ 37.574364645640081, 52.407353834102793 ] } },
{ "type": "Feature", "properties": { "full_id": null, "osm_id": null, "osm_type": null, "amenity": null, "leisure": null, "preschool": null, "level": null, "education": null, "surface": null, "building": null, "website": null, "phone": null, "opening_hours": null, "official_name": null, "email": null, "name": null, "addr:street": null, "addr:housenumber": null, "addr:city": null, "barrier": null }, "geometry": { "type": "Point", "coordinates": [ 37.567895432322608, 52.406753916128864 ] } },
{ "type": "Feature", "properties": { "full_id": null, "osm_id": null, "osm_type": null, "amenity": null, "leisure": null, "preschool": null, "level": null, "education": null, "surface": null, "building": null, "website": null, "phone": null, "opening_hours": null, "official_name": null, "email": null, "name": null, "addr:street": null, "addr:housenumber": null, "addr:city": null, "barrier": null }, "geometry": { "type": "Point", "coordinates": [ 37.569219346656482, 52.407137554570731 ] } },
{ "type": "Feature", "properties": { "full_id": null, "osm_id": null, "osm_type": null, "amenity": null, "leisure": null, "preschool": null, "level": null, "education": null, "surface": null, "building": null, "website": null, "phone": null, "opening_hours": null, "official_name": null, "email": null, "name": null, "addr:street": null, "addr:housenumber": null, "addr:city": null, "barrier": null }, "geometry": { "type": "Point", "coordinates": [ 37.571060825181505, 52.407675879210906 ] } },
{ "type": "Feature", "properties": { "full_id": null, "osm_id": null, "osm_type": null, "amenity": null, "leisure": null, "preschool": null, "level": null, "education": null, "surface": null, "building": null, "website": null, "phone": null, "opening_hours": null, "official_name": null, "email": null, "name": null, "addr:street": null, "addr:housenumber": null, "addr:city": null, "barrier": null }, "geometry": { "type": "Point", "coordinates": [ 37.560871086643296, 52.402468812180743 ] } },
{ "type": "Feature", "properties": { "full_id": null, "osm_id": null, "osm_type": null, "amenity": null, "leisure": null, "preschool": null, "level": null, "education": null, "surface": null, "building": null, "website": null, "phone": null, "opening_hours": null, "official_name": null, "email": null, "name": null, "addr:street": null, "addr:housenumber": null, "addr:city": null, "barrier": null }, "geometry": { "type": "Point", "coordinates": [ 37.57967001654697, 52.408327707289956 ] } },
{ "type": "Feature", "properties": { "full_id": null, "osm_id": null, "osm_type": null, "amenity": null, "leisure": null, "preschool": null, "level": null, "education": null, "surface": null, "building": null, "website": null, "phone": null, "opening_hours": null, "official_name": null, "email": null, "name": null, "addr:street": null, "addr:housenumber": null, "addr:city": null, "barrier": null }, "geometry": { "type": "Point", "coordinates": [ 37.576110190168151, 52.412261834616672 ] } }
]
}
