{
"type": "FeatureCollection",
"name": "food",
"crs": { "type": "name", "properties": { "name": "urn:ogc:def:crs:OGC:1.3:CRS84" } },
"features": [
{ "type": "Feature", "properties": { "full_id": "w99206752", "osm_id": "99206752", "osm_type": "way", "amenity": "cafe", "roof:shape": null, "roof:levels": null, "check_date": null, "building:material": null, "building:levels": null, "cuisine": null, "addr:housenumber": null, "name": "Город", "building": "yes", "addr:street": "Промышленная улица", "addr:postcode": "157501", "addr:city": "Шарья" }, "geometry": { "type": "Point", "coordinates": [ 45.4942343, 58.37494265 ] } },
{ "type": "Feature", "properties": { "full_id": "w420742698", "osm_id": "420742698", "osm_type": "way", "amenity": "cafe", "roof:shape": null, "roof:levels": null, "check_date": null, "building:material": null, "building:levels": null, "cuisine": null, "addr:housenumber": "4", "name": "Мария", "building": "yes", "addr:street": "улица Жукова", "addr:postcode": "157501", "addr:city": "Шарья" }, "geometry": { "type": "Point", "coordinates": [ 45.50780105, 58.37416735 ] } },
{ "type": "Feature", "properties": { "full_id": "w421260384", "osm_id": "421260384", "osm_type": "way", "amenity": "cafe", "roof:shape": null, "roof:levels": null, "check_date": null, "building:material": null, "building:levels": null, "cuisine": null, "addr:housenumber": "137", "name": "Бар Гараж", "building": "yes", "addr:street": "Октябрьская улица", "addr:postcode": "157505", "addr:city": "Шарья" }, "geometry": { "type": "Point", "coordinates": [ 45.5231677, 58.38262505 ] } },
{ "type": "Feature", "properties": { "full_id": "w421306242", "osm_id": "421306242", "osm_type": "way", "amenity": "cafe", "roof:shape": null, "roof:levels": null, "check_date": null, "building:material": null, "building:levels": null, "cuisine": "pizza", "addr:housenumber": null, "name": "Верона", "building": "yes", "addr:street": "улица 50 лет Советской Власти", "addr:postcode": "157505", "addr:city": "Шарья" }, "geometry": { "type": "Point", "coordinates": [ 45.500032700725647, 58.382927396638671 ] } },
{ "type": "Feature", "properties": { "full_id": null, "osm_id": null, "osm_type": null, "amenity": "cafe", "roof:shape": null, "roof:levels": null, "check_date": null, "building:material": null, "building:levels": null, "cuisine": null, "addr:housenumber": null, "name": null, "building": null, "addr:street": null, "addr:postcode": null, "addr:city": null }, "geometry": { "type": "Point", "coordinates": [ 45.4968652633369, 58.383792822354756 ] } },
{ "type": "Feature", "properties": { "full_id": null, "osm_id": null, "osm_type": null, "amenity": "fastfood", "roof:shape": null, "roof:levels": null, "check_date": null, "building:material": null, "building:levels": null, "cuisine": null, "addr:housenumber": null, "name": null, "building": null, "addr:street": null, "addr:postcode": null, "addr:city": null }, "geometry": { "type": "Point", "coordinates": [ 45.49356596431867, 58.373600232543204 ] } },
{ "type": "Feature", "properties": { "full_id": null, "osm_id": null, "osm_type": null, "amenity": "fastfood", "roof:shape": null, "roof:levels": null, "check_date": null, "building:material": null, "building:levels": null, "cuisine": null, "addr:housenumber": null, "name": null, "building": null, "addr:street": null, "addr:postcode": null, "addr:city": null }, "geometry": { "type": "Point", "coordinates": [ 45.496141922219955, 58.373589433344662 ] } },
{ "type": "Feature", "properties": { "full_id": null, "osm_id": null, "osm_type": null, "amenity": "cafe", "roof:shape": null, "roof:levels": null, "check_date": null, "building:material": null, "building:levels": null, "cuisine": null, "addr:housenumber": null, "name": null, "building": null, "addr:street": null, "addr:postcode": null, "addr:city": null }, "geometry": { "type": "Point", "coordinates": [ 45.512050804933587, 58.380230761073378 ] } },
{ "type": "Feature", "properties": { "full_id": null, "osm_id": null, "osm_type": null, "amenity": "cafe", "roof:shape": null, "roof:levels": null, "check_date": null, "building:material": null, "building:levels": null, "cuisine": null, "addr:housenumber": null, "name": null, "building": null, "addr:street": null, "addr:postcode": null, "addr:city": null }, "geometry": { "type": "Point", "coordinates": [ 45.507768751960938, 58.382347274828611 ] } },
{ "type": "Feature", "properties": { "full_id": null, "osm_id": null, "osm_type": null, "amenity": "cafe", "roof:shape": null, "roof:levels": null, "check_date": null, "building:material": null, "building:levels": null, "cuisine": null, "addr:housenumber": null, "name": null, "building": null, "addr:street": null, "addr:postcode": null, "addr:city": null }, "geometry": { "type": "Point", "coordinates": [ 45.507238102310225, 58.382876583001732 ] } },
{ "type": "Feature", "properties": { "full_id": null, "osm_id": null, "osm_type": null, "amenity": "fastfood", "roof:shape": null, "roof:levels": null, "check_date": null, "building:material": null, "building:levels": null, "cuisine": null, "addr:housenumber": null, "name": null, "building": null, "addr:street": null, "addr:postcode": null, "addr:city": null }, "geometry": { "type": "Point", "coordinates": [ 45.514488469159595, 58.383097138484636 ] } },
{ "type": "Feature", "properties": { "full_id": null, "osm_id": null, "osm_type": null, "amenity": "fastfood", "roof:shape": null, "roof:levels": null, "check_date": null, "building:material": null, "building:levels": null, "cuisine": null, "addr:housenumber": null, "name": null, "building": null, "addr:street": null, "addr:postcode": null, "addr:city": null }, "geometry": { "type": "Point", "coordinates": [ 45.513249779508691, 58.38263558532654 ] } }
]
}
