{
"type": "FeatureCollection",
"name": "poi_poly",
"crs": { "type": "name", "properties": { "name": "urn:ogc:def:crs:OGC:1.3:CRS84" } },
"features": [
{ "type": "Feature", "properties": { "full_id": "w132132765", "osm_id": "132132765", "osm_type": "way", "amenity": "community_centre", "source:addr": null, "name:ru": null, "addr:place": null, "addr:housenumber": null, "name": "Дворец культуры", "building:levels": "3", "building": "yes" }, "geometry": { "type": "MultiPolygon", "coordinates": [ [ [ [ 41.1094624, 57.2515797 ], [ 41.1106316, 57.2511665 ], [ 41.1103365, 57.2509221 ], [ 41.1091673, 57.2513354 ], [ 41.1094624, 57.2515797 ] ] ] ] } },
{ "type": "Feature", "properties": { "full_id": "w430420681", "osm_id": "430420681", "osm_type": "way", "amenity": "community_centre", "source:addr": "ЕГРН", "name:ru": "Сельский клуб", "addr:place": "Фряньково", "addr:housenumber": "93", "name": "Сельский клуб", "building:levels": null, "building": "civic" }, "geometry": { "type": "MultiPolygon", "coordinates": [ [ [ [ 41.0464745, 57.2765181 ], [ 41.0465941, 57.2764636 ], [ 41.0464106, 57.2763461 ], [ 41.0465105, 57.2763005 ], [ 41.0464114, 57.2762371 ], [ 41.0461919, 57.2763372 ], [ 41.0464745, 57.2765181 ] ] ] ] } }
]
}
