{
"type": "FeatureCollection",
"name": "tourism",
"crs": { "type": "name", "properties": { "name": "urn:ogc:def:crs:OGC:1.3:CRS84" } },
"features": [
{ "type": "Feature", "properties": { "full_id": "n1432717196", "osm_id": "1432717196", "osm_type": "node", "historic": "memorial", "tourism": "artwork", "memorial": null, "start_date": "1960", "name": "Памятник Д. А. Фурманову", "artwork_type": "sculpture", "artist_name": "Н. В. Дыдыкин" }, "geometry": { "type": "Point", "coordinates": [ 41.1068384, 57.2498394 ] } },
{ "type": "Feature", "properties": { "full_id": "n1455279449", "osm_id": "1455279449", "osm_type": "node", "historic": null, "tourism": "museum", "memorial": null, "start_date": null, "name": "Историко-краеведческий музей", "artwork_type": null, "artist_name": null }, "geometry": { "type": "Point", "coordinates": [ 41.1157179, 57.2648471 ] } },
{ "type": "Feature", "properties": { "full_id": "n1872186505", "osm_id": "1872186505", "osm_type": "node", "historic": "memorial", "tourism": null, "memorial": null, "start_date": null, "name": "Жертвам политических репрессий", "artwork_type": null, "artist_name": null }, "geometry": { "type": "Point", "coordinates": [ 41.1112397, 57.250947 ] } },
{ "type": "Feature", "properties": { "full_id": "n6312866427", "osm_id": "6312866427", "osm_type": "node", "historic": "memorial", "tourism": null, "memorial": "stele", "start_date": null, "name": "Фурмановская прядильная фабрика N 2, ордена ЗНАК ПОЧЕТА", "artwork_type": null, "artist_name": null }, "geometry": { "type": "Point", "coordinates": [ 41.1059716, 57.2535421 ] } },
{ "type": "Feature", "properties": { "full_id": null, "osm_id": null, "osm_type": null, "historic": null, "tourism": "viewpoint", "memorial": null, "start_date": null, "name": null, "artwork_type": null, "artist_name": null }, "geometry": { "type": "Point", "coordinates": [ 41.112714107622899, 57.251395824601047 ] } },
{ "type": "Feature", "properties": { "full_id": null, "osm_id": null, "osm_type": null, "historic": "memorial", "tourism": null, "memorial": null, "start_date": null, "name": null, "artwork_type": null, "artist_name": null }, "geometry": { "type": "Point", "coordinates": [ 41.113235101335341, 57.246528011685484 ] } },
{ "type": "Feature", "properties": { "full_id": null, "osm_id": null, "osm_type": null, "historic": null, "tourism": null, "memorial": "statue", "start_date": null, "name": null, "artwork_type": null, "artist_name": null }, "geometry": { "type": "Point", "coordinates": [ 41.113274322402319, 57.246779770149423 ] } },
{ "type": "Feature", "properties": { "full_id": null, "osm_id": null, "osm_type": null, "historic": null, "tourism": null, "memorial": "statue", "start_date": null, "name": null, "artwork_type": null, "artist_name": null }, "geometry": { "type": "Point", "coordinates": [ 41.112786793548089, 57.24663072671666 ] } },
{ "type": "Feature", "properties": { "full_id": null, "osm_id": null, "osm_type": null, "historic": null, "tourism": null, "memorial": "statue", "start_date": null, "name": null, "artwork_type": null, "artist_name": null }, "geometry": { "type": "Point", "coordinates": [ 41.112726776859411, 57.246682426675633 ] } },
{ "type": "Feature", "properties": { "full_id": null, "osm_id": null, "osm_type": null, "historic": null, "tourism": null, "memorial": "statue", "start_date": null, "name": null, "artwork_type": null, "artist_name": null }, "geometry": { "type": "Point", "coordinates": [ 41.113189994626431, 57.246840155322644 ] } },
{ "type": "Feature", "properties": { "full_id": null, "osm_id": null, "osm_type": null, "historic": null, "tourism": null, "memorial": "statue", "start_date": null, "name": null, "artwork_type": null, "artist_name": null }, "geometry": { "type": "Point", "coordinates": [ 41.1106953590795, 57.24790107867635 ] } },
{ "type": "Feature", "properties": { "full_id": "w132259492", "osm_id": "132259492", "osm_type": "way", "historic": null, "tourism": "museum", "memorial": null, "start_date": null, "name": "Мемориальный музей Д. А. Фурманова", "artwork_type": null, "artist_name": null }, "geometry": { "type": "Point", "coordinates": [ 41.12804775, 57.2400608 ] } },
{ "type": "Feature", "properties": { "full_id": "w132132763", "osm_id": "132132763", "osm_type": "way", "historic": null, "tourism": "museum", "memorial": null, "start_date": null, "name": "Галерея им. Д. А. Трубникова", "artwork_type": null, "artist_name": null }, "geometry": { "type": "Point", "coordinates": [ 41.112254357669144, 57.250351161030821 ] } },
{ "type": "Feature", "properties": { "full_id": null, "osm_id": null, "osm_type": null, "historic": null, "tourism": null, "memorial": null, "start_date": null, "name": null, "artwork_type": null, "artist_name": null }, "geometry": { "type": "Point", "coordinates": [ 41.113078723617825, 57.248797414725587 ] } }
]
}
