{
"type": "FeatureCollection",
"name": "retail",
"crs": { "type": "name", "properties": { "name": "urn:ogc:def:crs:OGC:1.3:CRS84" } },
"features": [
{ "type": "Feature", "properties": { "full_id": "n1546825587", "osm_id": "1546825587", "osm_type": "node", "amenity": "bank", "shop": null, "contact:email": null, "contact:youtube": null, "contact:vk": null, "contact:twitter": null, "contact:ok": null, "contact:instagram": null, "contact:facebook": null, "addr:postcode": null, "check_date": null, "atm": null, "addr:city": null, "phone": null, "addr:housenumber": null, "wheelchair": "yes", "operator:wikipedia": "ru:Сбербанк России", "operator:wikidata": "Q205012", "brand:ru": "Сбербанк", "brand:en": "Sberbank", "branch": "Центрально-Черноземный банк", "ref": "8593/0700", "operator": "ПАО Сбербанк", "opening_hours": "Mo-Fr 08:30-18:00; Sa 09:00-14:30", "name:ru": "Сбербанк", "name:en": "Sberbank", "name": "Сбербанк", "contact:website": "https://www.sberbank.ru", "contact:phone": "+7 47467 93761", "brand:wikipedia": "en:Sberbank of Russia", "brand:wikidata": "Q205012", "brand": "Сбербанк", "addr:street": null }, "geometry": { "type": "Point", "coordinates": [ 38.491289, 52.6244856 ] } },
{ "type": "Feature", "properties": { "full_id": "n1553400240", "osm_id": "1553400240", "osm_type": "node", "amenity": "marketplace", "shop": null, "contact:email": null, "contact:youtube": null, "contact:vk": null, "contact:twitter": null, "contact:ok": null, "contact:instagram": null, "contact:facebook": null, "addr:postcode": null, "check_date": null, "atm": null, "addr:city": null, "phone": null, "addr:housenumber": "135", "wheelchair": null, "operator:wikipedia": null, "operator:wikidata": null, "brand:ru": null, "brand:en": null, "branch": null, "ref": null, "operator": null, "opening_hours": null, "name:ru": null, "name:en": null, "name": "\"Женский\" рынок", "contact:website": null, "contact:phone": null, "brand:wikipedia": null, "brand:wikidata": null, "brand": null, "addr:street": "Советская улица" }, "geometry": { "type": "Point", "coordinates": [ 38.4991972, 52.630096 ] } },
{ "type": "Feature", "properties": { "full_id": "n2468564062", "osm_id": "2468564062", "osm_type": "node", "amenity": "bank", "shop": null, "contact:email": null, "contact:youtube": null, "contact:vk": null, "contact:twitter": null, "contact:ok": null, "contact:instagram": null, "contact:facebook": null, "addr:postcode": null, "check_date": null, "atm": null, "addr:city": null, "phone": null, "addr:housenumber": null, "wheelchair": "yes", "operator:wikipedia": "ru:Сбербанк России", "operator:wikidata": "Q205012", "brand:ru": "Сбербанк", "brand:en": "Sberbank", "branch": "Центрально-Черноземный банк", "ref": "8593/0724", "operator": "ПАО Сбербанк", "opening_hours": "Mo-Fr 08:30-17:30", "name:ru": "Сбербанк", "name:en": "Sberbank", "name": "Сбербанк", "contact:website": "https://www.sberbank.ru", "contact:phone": "+7 47467 93824", "brand:wikipedia": "en:Sberbank of Russia", "brand:wikidata": "Q205012", "brand": "Сбербанк", "addr:street": null }, "geometry": { "type": "Point", "coordinates": [ 38.5011811, 52.6256 ] } },
{ "type": "Feature", "properties": { "full_id": "n2741592494", "osm_id": "2741592494", "osm_type": "node", "amenity": null, "shop": "supermarket", "contact:email": null, "contact:youtube": null, "contact:vk": null, "contact:twitter": null, "contact:ok": null, "contact:instagram": null, "contact:facebook": null, "addr:postcode": null, "check_date": null, "atm": null, "addr:city": null, "phone": null, "addr:housenumber": null, "wheelchair": null, "operator:wikipedia": null, "operator:wikidata": null, "brand:ru": null, "brand:en": null, "branch": null, "ref": "7605", "operator": "ООО \"Агроторг\"", "opening_hours": "07:30-22:00", "name:ru": "Пятёрочка", "name:en": "Pyaterochka", "name": "Пятёрочка", "contact:website": "https://5ka.ru", "contact:phone": "+7 800 5555505", "brand:wikipedia": "ru:Пятёрочка", "brand:wikidata": "Q1768969", "brand": "Пятёрочка", "addr:street": null }, "geometry": { "type": "Point", "coordinates": [ 38.4980223, 52.6167518 ] } },
{ "type": "Feature", "properties": { "full_id": "n2741593379", "osm_id": "2741593379", "osm_type": "node", "amenity": null, "shop": "supermarket", "contact:email": null, "contact:youtube": null, "contact:vk": null, "contact:twitter": null, "contact:ok": null, "contact:instagram": null, "contact:facebook": null, "addr:postcode": null, "check_date": null, "atm": null, "addr:city": null, "phone": null, "addr:housenumber": null, "wheelchair": null, "operator:wikipedia": null, "operator:wikidata": null, "brand:ru": null, "brand:en": null, "branch": null, "ref": null, "operator": null, "opening_hours": null, "name:ru": null, "name:en": null, "name": "Магнит", "contact:website": null, "contact:phone": null, "brand:wikipedia": null, "brand:wikidata": null, "brand": null, "addr:street": null }, "geometry": { "type": "Point", "coordinates": [ 38.5042735, 52.6173631 ] } },
{ "type": "Feature", "properties": { "full_id": "n2789787010", "osm_id": "2789787010", "osm_type": "node", "amenity": null, "shop": "supermarket", "contact:email": null, "contact:youtube": null, "contact:vk": null, "contact:twitter": null, "contact:ok": null, "contact:instagram": null, "contact:facebook": null, "addr:postcode": null, "check_date": null, "atm": null, "addr:city": null, "phone": null, "addr:housenumber": null, "wheelchair": null, "operator:wikipedia": null, "operator:wikidata": null, "brand:ru": null, "brand:en": null, "branch": null, "ref": null, "operator": null, "opening_hours": null, "name:ru": null, "name:en": null, "name": "Гильдия", "contact:website": null, "contact:phone": null, "brand:wikipedia": null, "brand:wikidata": null, "brand": null, "addr:street": null }, "geometry": { "type": "Point", "coordinates": [ 38.5203265, 52.6151551 ] } },
{ "type": "Feature", "properties": { "full_id": "n2905982193", "osm_id": "2905982193", "osm_type": "node", "amenity": "bank", "shop": null, "contact:email": null, "contact:youtube": null, "contact:vk": null, "contact:twitter": null, "contact:ok": null, "contact:instagram": null, "contact:facebook": null, "addr:postcode": null, "check_date": null, "atm": "no", "addr:city": null, "phone": null, "addr:housenumber": null, "wheelchair": null, "operator:wikipedia": null, "operator:wikidata": null, "brand:ru": null, "brand:en": null, "branch": null, "ref": null, "operator": "АО \"Россельхозбанк\"", "opening_hours": null, "name:ru": "Россельхозбанк", "name:en": "Rosselkhozbank", "name": "Россельхозбанк", "contact:website": "https://www.rshb.ru/", "contact:phone": null, "brand:wikipedia": null, "brand:wikidata": null, "brand": null, "addr:street": null }, "geometry": { "type": "Point", "coordinates": [ 38.474823, 52.626686 ] } },
{ "type": "Feature", "properties": { "full_id": "n2905982194", "osm_id": "2905982194", "osm_type": "node", "amenity": null, "shop": "supermarket", "contact:email": null, "contact:youtube": null, "contact:vk": null, "contact:twitter": null, "contact:ok": null, "contact:instagram": null, "contact:facebook": null, "addr:postcode": null, "check_date": null, "atm": null, "addr:city": null, "phone": null, "addr:housenumber": null, "wheelchair": null, "operator:wikipedia": null, "operator:wikidata": null, "brand:ru": null, "brand:en": null, "branch": null, "ref": null, "operator": null, "opening_hours": null, "name:ru": null, "name:en": null, "name": "Магнит", "contact:website": null, "contact:phone": null, "brand:wikipedia": null, "brand:wikidata": null, "brand": null, "addr:street": null }, "geometry": { "type": "Point", "coordinates": [ 38.4709314, 52.6226274 ] } },
{ "type": "Feature", "properties": { "full_id": "n2906081350", "osm_id": "2906081350", "osm_type": "node", "amenity": "bank", "shop": null, "contact:email": null, "contact:youtube": null, "contact:vk": null, "contact:twitter": null, "contact:ok": null, "contact:instagram": null, "contact:facebook": null, "addr:postcode": null, "check_date": null, "atm": "yes", "addr:city": null, "phone": null, "addr:housenumber": null, "wheelchair": null, "operator:wikipedia": null, "operator:wikidata": null, "brand:ru": null, "brand:en": null, "branch": null, "ref": null, "operator": null, "opening_hours": null, "name:ru": null, "name:en": null, "name": "Газпромбанк", "contact:website": null, "contact:phone": null, "brand:wikipedia": null, "brand:wikidata": null, "brand": null, "addr:street": null }, "geometry": { "type": "Point", "coordinates": [ 38.4761295, 52.6226299 ] } },
{ "type": "Feature", "properties": { "full_id": "n3771093395", "osm_id": "3771093395", "osm_type": "node", "amenity": null, "shop": "supermarket", "contact:email": null, "contact:youtube": null, "contact:vk": null, "contact:twitter": null, "contact:ok": null, "contact:instagram": null, "contact:facebook": null, "addr:postcode": null, "check_date": null, "atm": null, "addr:city": null, "phone": null, "addr:housenumber": null, "wheelchair": null, "operator:wikipedia": null, "operator:wikidata": null, "brand:ru": null, "brand:en": null, "branch": null, "ref": null, "operator": null, "opening_hours": null, "name:ru": null, "name:en": null, "name": "Магнит", "contact:website": null, "contact:phone": null, "brand:wikipedia": null, "brand:wikidata": null, "brand": null, "addr:street": null }, "geometry": { "type": "Point", "coordinates": [ 38.5047671, 52.6266217 ] } },
{ "type": "Feature", "properties": { "full_id": "n4972342722", "osm_id": "4972342722", "osm_type": "node", "amenity": null, "shop": "supermarket", "contact:email": null, "contact:youtube": null, "contact:vk": null, "contact:twitter": null, "contact:ok": null, "contact:instagram": null, "contact:facebook": null, "addr:postcode": null, "check_date": "2024-01-13", "atm": null, "addr:city": null, "phone": null, "addr:housenumber": "22", "wheelchair": null, "operator:wikipedia": null, "operator:wikidata": null, "brand:ru": null, "brand:en": "Pyaterochka", "branch": null, "ref": "25441", "operator": "ООО \"Агроторг\"", "opening_hours": "07:30-23:00", "name:ru": "Пятёрочка", "name:en": "Pyaterochka", "name": "Пятёрочка", "contact:website": "https://5ka.ru", "contact:phone": "+7 800 5555505", "brand:wikipedia": "ru:Пятёрочка", "brand:wikidata": "Q1768969", "brand": "Пятёрочка", "addr:street": "улица Пушкина" }, "geometry": { "type": "Point", "coordinates": [ 38.501193, 52.6081773 ] } },
{ "type": "Feature", "properties": { "full_id": "n5765840954", "osm_id": "5765840954", "osm_type": "node", "amenity": "bank", "shop": null, "contact:email": null, "contact:youtube": null, "contact:vk": null, "contact:twitter": null, "contact:ok": null, "contact:instagram": null, "contact:facebook": null, "addr:postcode": null, "check_date": null, "atm": null, "addr:city": null, "phone": null, "addr:housenumber": null, "wheelchair": null, "operator:wikipedia": null, "operator:wikidata": null, "brand:ru": null, "brand:en": "Post Bank", "branch": null, "ref": null, "operator": "АО \"Почта Банк\"", "opening_hours": null, "name:ru": "Почта Банк", "name:en": "Post Bank", "name": "Почта Банк", "contact:website": "https://www.pochtabank.ru", "contact:phone": "+7 495 5321300", "brand:wikipedia": "en:Post Bank (Russia)", "brand:wikidata": "Q24930461", "brand": "Почта Банк", "addr:street": "улица Мира" }, "geometry": { "type": "Point", "coordinates": [ 38.5008648, 52.6219853 ] } },
{ "type": "Feature", "properties": { "full_id": "n5768769954", "osm_id": "5768769954", "osm_type": "node", "amenity": null, "shop": "hardware", "contact:email": null, "contact:youtube": null, "contact:vk": null, "contact:twitter": null, "contact:ok": null, "contact:instagram": null, "contact:facebook": null, "addr:postcode": null, "check_date": null, "atm": null, "addr:city": null, "phone": null, "addr:housenumber": null, "wheelchair": null, "operator:wikipedia": null, "operator:wikidata": null, "brand:ru": null, "brand:en": null, "branch": null, "ref": null, "operator": null, "opening_hours": null, "name:ru": null, "name:en": null, "name": "Домовёнок", "contact:website": null, "contact:phone": null, "brand:wikipedia": null, "brand:wikidata": null, "brand": null, "addr:street": null }, "geometry": { "type": "Point", "coordinates": [ 38.4987286, 52.6299174 ] } },
{ "type": "Feature", "properties": { "full_id": "n9648066952", "osm_id": "9648066952", "osm_type": "node", "amenity": "bank", "shop": null, "contact:email": null, "contact:youtube": null, "contact:vk": null, "contact:twitter": null, "contact:ok": null, "contact:instagram": null, "contact:facebook": null, "addr:postcode": null, "check_date": null, "atm": null, "addr:city": null, "phone": null, "addr:housenumber": null, "wheelchair": null, "operator:wikipedia": null, "operator:wikidata": null, "brand:ru": null, "brand:en": null, "branch": null, "ref": null, "operator": null, "opening_hours": "Mo-Fr 09:00-13:00,14:00-18:00; Sa-Su 09:00-15:00", "name:ru": null, "name:en": null, "name": "Совкомбанк", "contact:website": "https://sovcombank.ru/", "contact:phone": "+7 800 1000006", "brand:wikipedia": null, "brand:wikidata": null, "brand": null, "addr:street": null }, "geometry": { "type": "Point", "coordinates": [ 38.498725, 52.6205834 ] } },
{ "type": "Feature", "properties": { "full_id": "n11076882479", "osm_id": "11076882479", "osm_type": "node", "amenity": null, "shop": "supermarket", "contact:email": null, "contact:youtube": null, "contact:vk": null, "contact:twitter": null, "contact:ok": null, "contact:instagram": null, "contact:facebook": null, "addr:postcode": null, "check_date": null, "atm": null, "addr:city": null, "phone": null, "addr:housenumber": null, "wheelchair": null, "operator:wikipedia": null, "operator:wikidata": null, "brand:ru": null, "brand:en": null, "branch": null, "ref": "30196", "operator": "ООО \"Агроторг\"", "opening_hours": "08:00-22:00", "name:ru": "Пятёрочка", "name:en": "Pyaterochka", "name": "Пятёрочка", "contact:website": "https://5ka.ru", "contact:phone": "+7 800 5555505", "brand:wikipedia": "ru:Пятёрочка", "brand:wikidata": "Q1768969", "brand": "Пятёрочка", "addr:street": null }, "geometry": { "type": "Point", "coordinates": [ 38.5212119, 52.6078653 ] } },
{ "type": "Feature", "properties": { "full_id": "n11077684792", "osm_id": "11077684792", "osm_type": "node", "amenity": null, "shop": "supermarket", "contact:email": null, "contact:youtube": null, "contact:vk": null, "contact:twitter": null, "contact:ok": null, "contact:instagram": null, "contact:facebook": null, "addr:postcode": null, "check_date": null, "atm": null, "addr:city": null, "phone": null, "addr:housenumber": null, "wheelchair": null, "operator:wikipedia": null, "operator:wikidata": null, "brand:ru": null, "brand:en": null, "branch": null, "ref": "23452", "operator": "ООО \"Агроторг\"", "opening_hours": "07:30-22:00", "name:ru": "Пятёрочка", "name:en": "Pyaterochka", "name": "Пятёрочка", "contact:website": "https://5ka.ru", "contact:phone": "+7 800 5555505", "brand:wikipedia": "ru:Пятёрочка", "brand:wikidata": "Q1768969", "brand": "Пятёрочка", "addr:street": null }, "geometry": { "type": "Point", "coordinates": [ 38.4998054, 52.6069208 ] } },
{ "type": "Feature", "properties": { "full_id": "n11077684806", "osm_id": "11077684806", "osm_type": "node", "amenity": null, "shop": "supermarket", "contact:email": "vopros@5ka.ru", "contact:youtube": null, "contact:vk": null, "contact:twitter": null, "contact:ok": null, "contact:instagram": null, "contact:facebook": null, "addr:postcode": null, "check_date": null, "atm": null, "addr:city": null, "phone": null, "addr:housenumber": null, "wheelchair": null, "operator:wikipedia": null, "operator:wikidata": null, "brand:ru": null, "brand:en": null, "branch": null, "ref": "7893", "operator": "ООО \"Агроторг\"", "opening_hours": "08:00-22:00", "name:ru": "Пятёрочка", "name:en": "Pyaterochka", "name": "Пятёрочка", "contact:website": "https://5ka.ru", "contact:phone": "+7 800 5555505", "brand:wikipedia": "ru:Пятёрочка", "brand:wikidata": "Q1768969", "brand": "Пятёрочка", "addr:street": null }, "geometry": { "type": "Point", "coordinates": [ 38.487809, 52.607891 ] } },
{ "type": "Feature", "properties": { "full_id": "n11077684808", "osm_id": "11077684808", "osm_type": "node", "amenity": null, "shop": "supermarket", "contact:email": null, "contact:youtube": null, "contact:vk": null, "contact:twitter": null, "contact:ok": null, "contact:instagram": null, "contact:facebook": null, "addr:postcode": null, "check_date": null, "atm": null, "addr:city": null, "phone": null, "addr:housenumber": null, "wheelchair": null, "operator:wikipedia": null, "operator:wikidata": null, "brand:ru": null, "brand:en": null, "branch": null, "ref": "7407", "operator": "ООО \"Агроторг\"", "opening_hours": "08:00-22:00", "name:ru": "Пятёрочка", "name:en": "Pyaterochka", "name": "Пятёрочка", "contact:website": "https://5ka.ru", "contact:phone": "+7 800 5555505", "brand:wikipedia": "ru:Пятёрочка", "brand:wikidata": "Q1768969", "brand": "Пятёрочка", "addr:street": null }, "geometry": { "type": "Point", "coordinates": [ 38.520187, 52.6152216 ] } },
{ "type": "Feature", "properties": { "full_id": "n11077684814", "osm_id": "11077684814", "osm_type": "node", "amenity": null, "shop": "supermarket", "contact:email": null, "contact:youtube": null, "contact:vk": null, "contact:twitter": null, "contact:ok": null, "contact:instagram": null, "contact:facebook": null, "addr:postcode": null, "check_date": null, "atm": null, "addr:city": null, "phone": null, "addr:housenumber": null, "wheelchair": null, "operator:wikipedia": null, "operator:wikidata": null, "brand:ru": null, "brand:en": null, "branch": null, "ref": "15445", "operator": "ООО \"Агроторг\"", "opening_hours": "08:00-22:00", "name:ru": "Пятёрочка", "name:en": "Pyaterochka", "name": "Пятёрочка", "contact:website": "https://5ka.ru", "contact:phone": "+7 800 5555505", "brand:wikipedia": "ru:Пятёрочка", "brand:wikidata": "Q1768969", "brand": "Пятёрочка", "addr:street": null }, "geometry": { "type": "Point", "coordinates": [ 38.4925017, 52.6255737 ] } },
{ "type": "Feature", "properties": { "full_id": "n11077684816", "osm_id": "11077684816", "osm_type": "node", "amenity": null, "shop": "supermarket", "contact:email": null, "contact:youtube": null, "contact:vk": null, "contact:twitter": null, "contact:ok": null, "contact:instagram": null, "contact:facebook": null, "addr:postcode": null, "check_date": null, "atm": null, "addr:city": null, "phone": null, "addr:housenumber": null, "wheelchair": null, "operator:wikipedia": null, "operator:wikidata": null, "brand:ru": null, "brand:en": null, "branch": null, "ref": "9853", "operator": "ООО \"Агроторг\"", "opening_hours": "08:00-22:00", "name:ru": "Пятёрочка", "name:en": "Pyaterochka", "name": "Пятёрочка", "contact:website": "https://5ka.ru", "contact:phone": "+7 800 5555505", "brand:wikipedia": "ru:Пятёрочка", "brand:wikidata": "Q1768969", "brand": "Пятёрочка", "addr:street": null }, "geometry": { "type": "Point", "coordinates": [ 38.4986886, 52.6235393 ] } },
{ "type": "Feature", "properties": { "full_id": "n11077684819", "osm_id": "11077684819", "osm_type": "node", "amenity": null, "shop": "supermarket", "contact:email": "vopros@5ka.ru", "contact:youtube": null, "contact:vk": null, "contact:twitter": null, "contact:ok": null, "contact:instagram": null, "contact:facebook": null, "addr:postcode": null, "check_date": null, "atm": null, "addr:city": null, "phone": null, "addr:housenumber": null, "wheelchair": null, "operator:wikipedia": null, "operator:wikidata": null, "brand:ru": null, "brand:en": null, "branch": null, "ref": "13701", "operator": "ООО \"Агроторг\"", "opening_hours": "08:00-22:00", "name:ru": "Пятёрочка", "name:en": "Pyaterochka", "name": "Пятёрочка", "contact:website": "https://5ka.ru", "contact:phone": "+7 800 5555505", "brand:wikipedia": "ru:Пятёрочка", "brand:wikidata": "Q1768969", "brand": "Пятёрочка", "addr:street": null }, "geometry": { "type": "Point", "coordinates": [ 38.5006181, 52.6166863 ] } },
{ "type": "Feature", "properties": { "full_id": "n13408358439", "osm_id": "13408358439", "osm_type": "node", "amenity": null, "shop": "hardware", "contact:email": null, "contact:youtube": null, "contact:vk": null, "contact:twitter": null, "contact:ok": null, "contact:instagram": null, "contact:facebook": null, "addr:postcode": null, "check_date": "2025-12-26", "atm": null, "addr:city": null, "phone": null, "addr:housenumber": null, "wheelchair": null, "operator:wikipedia": null, "operator:wikidata": null, "brand:ru": null, "brand:en": null, "branch": null, "ref": null, "operator": null, "opening_hours": null, "name:ru": null, "name:en": null, "name": "Хорошая хозяйка", "contact:website": null, "contact:phone": null, "brand:wikipedia": null, "brand:wikidata": null, "brand": null, "addr:street": null }, "geometry": { "type": "Point", "coordinates": [ 38.5204313, 52.6147563 ] } },
{ "type": "Feature", "properties": { "full_id": "w279218922", "osm_id": "279218922", "osm_type": "way", "amenity": "marketplace", "shop": null, "contact:email": null, "contact:youtube": null, "contact:vk": null, "contact:twitter": null, "contact:ok": null, "contact:instagram": null, "contact:facebook": null, "addr:postcode": null, "check_date": null, "atm": null, "addr:city": null, "phone": null, "addr:housenumber": null, "wheelchair": null, "operator:wikipedia": null, "operator:wikidata": null, "brand:ru": null, "brand:en": null, "branch": null, "ref": null, "operator": null, "opening_hours": null, "name:ru": null, "name:en": null, "name": "ООО \"Елецкий Коопрынокторг\" (\"Мясной\" рынок)", "contact:website": null, "contact:phone": null, "brand:wikipedia": null, "brand:wikidata": null, "brand": null, "addr:street": null }, "geometry": { "type": "Point", "coordinates": [ 38.496823806758798, 52.616804431168994 ] } }
]
}
