{
"type": "FeatureCollection",
"name": "tour",
"crs": { "type": "name", "properties": { "name": "urn:ogc:def:crs:OGC:1.3:CRS84" } },
"features": [
{ "type": "Feature", "properties": { "full_id": "n1064595747", "osm_id": "1064595747", "osm_type": "node", "historic": "memorial", "tourism": null, "memorial": "bust", "start_date": null, "website": null, "phone": null, "opening_hours": null, "addr:street": null, "addr:housenumber": null, "subject:wikipedia": "ru:Соломенцев, Михаил Сергеевич", "subject:wikidata": "Q1342003", "name": "М. С. Соломенцеву", "memorial:subject": "Михаил Сергеевич Соломенцев" }, "geometry": { "type": "Point", "coordinates": [ 38.4986409, 52.6223041 ] } },
{ "type": "Feature", "properties": { "full_id": "n1064596018", "osm_id": "1064596018", "osm_type": "node", "historic": "memorial", "tourism": null, "memorial": "statue", "start_date": null, "website": null, "phone": null, "opening_hours": null, "addr:street": null, "addr:housenumber": null, "subject:wikipedia": "ru:Ленин, Владимир Ильич", "subject:wikidata": "Q1394", "name": "В. И. Ленину", "memorial:subject": "Владимир Ильич Ленин" }, "geometry": { "type": "Point", "coordinates": [ 38.5000661, 52.6220766 ] } },
{ "type": "Feature", "properties": { "full_id": "n1064596230", "osm_id": "1064596230", "osm_type": "node", "historic": "memorial", "tourism": null, "memorial": "statue", "start_date": null, "website": null, "phone": null, "opening_hours": null, "addr:street": null, "addr:housenumber": null, "subject:wikipedia": "ru:Бунин, Иван Алексеевич", "subject:wikidata": "Q46602", "name": "И. А. Бунину", "memorial:subject": "Иван Алексеевич Бунин" }, "geometry": { "type": "Point", "coordinates": [ 38.4980243, 52.6218602 ] } },
{ "type": "Feature", "properties": { "full_id": "n1064626839", "osm_id": "1064626839", "osm_type": "node", "historic": "memorial", "tourism": null, "memorial": "war_memorial", "start_date": null, "website": null, "phone": null, "opening_hours": null, "addr:street": null, "addr:housenumber": null, "subject:wikipedia": null, "subject:wikidata": null, "name": "Памятный знак участникам и жертвам Великой Отечественной войны", "memorial:subject": null }, "geometry": { "type": "Point", "coordinates": [ 38.5052319, 52.6174435 ] } },
{ "type": "Feature", "properties": { "full_id": "n1558195790", "osm_id": "1558195790", "osm_type": "node", "historic": null, "tourism": "museum", "memorial": null, "start_date": null, "website": "https://eletsmuseum.ru/", "phone": "+7 (47467) 4-17-74", "opening_hours": "Tu-Su 09:30-16:00", "addr:street": "улица Ленина", "addr:housenumber": "99", "subject:wikipedia": null, "subject:wikidata": null, "name": "Елецкий городской краеведческий музей", "memorial:subject": null }, "geometry": { "type": "Point", "coordinates": [ 38.4982994, 52.6271352 ] } },
{ "type": "Feature", "properties": { "full_id": "n2587688467", "osm_id": "2587688467", "osm_type": "node", "historic": "memorial", "tourism": null, "memorial": null, "start_date": null, "website": null, "phone": null, "opening_hours": null, "addr:street": null, "addr:housenumber": null, "subject:wikipedia": null, "subject:wikidata": null, "name": "Танк", "memorial:subject": null }, "geometry": { "type": "Point", "coordinates": [ 38.5095531, 52.6172902 ] } },
{ "type": "Feature", "properties": { "full_id": "n2746843506", "osm_id": "2746843506", "osm_type": "node", "historic": "memorial", "tourism": null, "memorial": null, "start_date": null, "website": null, "phone": null, "opening_hours": null, "addr:street": null, "addr:housenumber": null, "subject:wikipedia": null, "subject:wikidata": null, "name": "850-летию города", "memorial:subject": null }, "geometry": { "type": "Point", "coordinates": [ 38.5036627, 52.6242521 ] } },
{ "type": "Feature", "properties": { "full_id": "n2746843507", "osm_id": "2746843507", "osm_type": "node", "historic": "memorial", "tourism": null, "memorial": null, "start_date": null, "website": null, "phone": null, "opening_hours": null, "addr:street": null, "addr:housenumber": null, "subject:wikipedia": null, "subject:wikidata": null, "name": "Героям ельчанам", "memorial:subject": null }, "geometry": { "type": "Point", "coordinates": [ 38.5032523, 52.6244459 ] } },
{ "type": "Feature", "properties": { "full_id": "n2749126612", "osm_id": "2749126612", "osm_type": "node", "historic": "memorial", "tourism": null, "memorial": "bust", "start_date": null, "website": null, "phone": null, "opening_hours": null, "addr:street": null, "addr:housenumber": null, "subject:wikipedia": "ru:Хренников, Тихон Николаевич", "subject:wikidata": "Q367830", "name": "Т. Н. Хренникову", "memorial:subject": "Тихон Николаевич Хренников" }, "geometry": { "type": "Point", "coordinates": [ 38.5025797, 52.6216885 ] } },
{ "type": "Feature", "properties": { "full_id": "n2760917704", "osm_id": "2760917704", "osm_type": "node", "historic": "memorial", "tourism": null, "memorial": null, "start_date": null, "website": null, "phone": null, "opening_hours": null, "addr:street": null, "addr:housenumber": null, "subject:wikipedia": null, "subject:wikidata": null, "name": "Военнослужащим, погибшим в мирное время", "memorial:subject": null }, "geometry": { "type": "Point", "coordinates": [ 38.4908094, 52.6267031 ] } },
{ "type": "Feature", "properties": { "full_id": null, "osm_id": null, "osm_type": null, "historic": null, "tourism": null, "memorial": null, "start_date": null, "website": null, "phone": null, "opening_hours": null, "addr:street": null, "addr:housenumber": null, "subject:wikipedia": null, "subject:wikidata": null, "name": null, "memorial:subject": null }, "geometry": { "type": "Point", "coordinates": [ 38.49719083322838, 52.623787994130687 ] } },
{ "type": "Feature", "properties": { "full_id": "n2806304758", "osm_id": "2806304758", "osm_type": "node", "historic": "memorial", "tourism": null, "memorial": null, "start_date": null, "website": null, "phone": null, "opening_hours": null, "addr:street": null, "addr:housenumber": null, "subject:wikipedia": null, "subject:wikidata": null, "name": "Елецкому пехотному полку", "memorial:subject": null }, "geometry": { "type": "Point", "coordinates": [ 38.5043524, 52.6249498 ] } },
{ "type": "Feature", "properties": { "full_id": "n2806304759", "osm_id": "2806304759", "osm_type": "node", "historic": "memorial", "tourism": null, "memorial": "bust", "start_date": null, "website": null, "phone": null, "opening_hours": null, "addr:street": null, "addr:housenumber": null, "subject:wikipedia": "ru:Бунин, Иван Алексеевич", "subject:wikidata": "Q46602", "name": "И. А. Бунину", "memorial:subject": "Иван Алексеевич Бунин" }, "geometry": { "type": "Point", "coordinates": [ 38.5040868, 52.6247642 ] } },
{ "type": "Feature", "properties": { "full_id": "n2907731246", "osm_id": "2907731246", "osm_type": "node", "historic": "memorial", "tourism": null, "memorial": null, "start_date": null, "website": null, "phone": null, "opening_hours": null, "addr:street": null, "addr:housenumber": null, "subject:wikipedia": null, "subject:wikidata": null, "name": "Ани Гайтеровой", "memorial:subject": null }, "geometry": { "type": "Point", "coordinates": [ 38.5037899, 52.6127658 ] } },
{ "type": "Feature", "properties": { "full_id": "n3750954615", "osm_id": "3750954615", "osm_type": "node", "historic": "memorial", "tourism": null, "memorial": "bust", "start_date": null, "website": null, "phone": null, "opening_hours": null, "addr:street": null, "addr:housenumber": null, "subject:wikipedia": "ru:Пришвин, Михаил Михайлович", "subject:wikidata": "Q700323", "name": "М. М. Пришвину", "memorial:subject": "Михаил Михайлович Пришвин" }, "geometry": { "type": "Point", "coordinates": [ 38.5015489, 52.6236724 ] } },
{ "type": "Feature", "properties": { "full_id": "n3750955827", "osm_id": "3750955827", "osm_type": "node", "historic": "memorial", "tourism": null, "memorial": "statue", "start_date": "2008-09-12", "website": null, "phone": null, "opening_hours": null, "addr:street": null, "addr:housenumber": null, "subject:wikipedia": "ru:Жуков, Николай Николаевич", "subject:wikidata": "Q1990946", "name": "Н. Н. Жукову", "memorial:subject": "Николай Николаевич Жуков" }, "geometry": { "type": "Point", "coordinates": [ 38.5012319, 52.6247975 ] } },
{ "type": "Feature", "properties": { "full_id": "n3770980925", "osm_id": "3770980925", "osm_type": "node", "historic": null, "tourism": "museum", "memorial": null, "start_date": null, "website": null, "phone": null, "opening_hours": null, "addr:street": null, "addr:housenumber": null, "subject:wikipedia": null, "subject:wikidata": null, "name": "Военно-исторический музей", "memorial:subject": null }, "geometry": { "type": "Point", "coordinates": [ 38.5027166, 52.6244846 ] } },
{ "type": "Feature", "properties": { "full_id": "n4538320141", "osm_id": "4538320141", "osm_type": "node", "historic": "memorial", "tourism": null, "memorial": "plaque", "start_date": null, "website": null, "phone": null, "opening_hours": null, "addr:street": null, "addr:housenumber": null, "subject:wikipedia": null, "subject:wikidata": null, "name": null, "memorial:subject": null }, "geometry": { "type": "Point", "coordinates": [ 38.4998783, 52.6249274 ] } },
{ "type": "Feature", "properties": { "full_id": null, "osm_id": null, "osm_type": null, "historic": null, "tourism": null, "memorial": null, "start_date": null, "website": null, "phone": null, "opening_hours": null, "addr:street": null, "addr:housenumber": null, "subject:wikipedia": null, "subject:wikidata": null, "name": null, "memorial:subject": null }, "geometry": { "type": "Point", "coordinates": [ 38.496668120390261, 52.621195054825897 ] } },
{ "type": "Feature", "properties": { "full_id": "n5515804530", "osm_id": "5515804530", "osm_type": "node", "historic": "memorial", "tourism": null, "memorial": "statue", "start_date": null, "website": null, "phone": null, "opening_hours": null, "addr:street": null, "addr:housenumber": null, "subject:wikipedia": null, "subject:wikidata": null, "name": "Ивану Алексеевичу Бунину", "memorial:subject": null }, "geometry": { "type": "Point", "coordinates": [ 38.4966947, 52.6271052 ] } },
{ "type": "Feature", "properties": { "full_id": "n5515829377", "osm_id": "5515829377", "osm_type": "node", "historic": "memorial", "tourism": null, "memorial": "bust", "start_date": "2016-07-22", "website": null, "phone": null, "opening_hours": null, "addr:street": null, "addr:housenumber": null, "subject:wikipedia": "ru:Маргелов, Василий Филиппович", "subject:wikidata": "Q677432", "name": "В. Ф. Маргелову", "memorial:subject": "Василий Филиппович Маргелов" }, "geometry": { "type": "Point", "coordinates": [ 38.4909272, 52.6261404 ] } },
{ "type": "Feature", "properties": { "full_id": "n5758625323", "osm_id": "5758625323", "osm_type": "node", "historic": "memorial", "tourism": null, "memorial": null, "start_date": null, "website": null, "phone": null, "opening_hours": null, "addr:street": null, "addr:housenumber": null, "subject:wikipedia": "ru:Пушкин, Александр Сергеевич", "subject:wikidata": "Q7200", "name": "А. С. Пушкину", "memorial:subject": "Александр Сергеевич Пушкин" }, "geometry": { "type": "Point", "coordinates": [ 38.51062, 52.6165141 ] } },
{ "type": "Feature", "properties": { "full_id": "n8406188252", "osm_id": "8406188252", "osm_type": "node", "historic": "memorial", "tourism": null, "memorial": "bust", "start_date": "2018-09-01", "website": null, "phone": null, "opening_hours": null, "addr:street": null, "addr:housenumber": null, "subject:wikipedia": "ru:Милорадович, Михаил Андреевич", "subject:wikidata": "Q176306", "name": "М. А. Милорадовичу", "memorial:subject": "Михаил Андреевич Милорадович" }, "geometry": { "type": "Point", "coordinates": [ 38.4905456, 52.6261626 ] } },
{ "type": "Feature", "properties": { "full_id": "n8651534217", "osm_id": "8651534217", "osm_type": "node", "historic": "memorial", "tourism": null, "memorial": null, "start_date": null, "website": null, "phone": null, "opening_hours": null, "addr:street": null, "addr:housenumber": null, "subject:wikipedia": null, "subject:wikidata": null, "name": "Пушкин", "memorial:subject": null }, "geometry": { "type": "Point", "coordinates": [ 38.4980546, 52.6065208 ] } },
{ "type": "Feature", "properties": { "full_id": null, "osm_id": null, "osm_type": null, "historic": null, "tourism": null, "memorial": null, "start_date": null, "website": null, "phone": null, "opening_hours": null, "addr:street": null, "addr:housenumber": null, "subject:wikipedia": null, "subject:wikidata": null, "name": null, "memorial:subject": null }, "geometry": { "type": "Point", "coordinates": [ 38.501097880173461, 52.622733756054799 ] } },
{ "type": "Feature", "properties": { "full_id": "w269498297", "osm_id": "269498297", "osm_type": "way", "historic": null, "tourism": "gallery", "memorial": null, "start_date": null, "website": "https://elez-mezenat.ru/muzei/dom-eleckogo-kruzheva", "phone": "+7 (47467) 2-75-06", "opening_hours": null, "addr:street": "Советская улица", "addr:housenumber": "108", "subject:wikipedia": null, "subject:wikidata": null, "name": "Дом елецкого кружева", "memorial:subject": null }, "geometry": { "type": "Point", "coordinates": [ 38.501935688342492, 52.619583977651992 ] } },
{ "type": "Feature", "properties": { "full_id": "w268958493", "osm_id": "268958493", "osm_type": "way", "historic": null, "tourism": "museum", "memorial": null, "start_date": null, "website": null, "phone": null, "opening_hours": null, "addr:street": "Советская улица", "addr:housenumber": "56", "subject:wikipedia": null, "subject:wikidata": null, "name": "Культурный центр имени В.С.Сорокина", "memorial:subject": null }, "geometry": { "type": "Point", "coordinates": [ 38.4983392, 52.6183575 ] } },
{ "type": "Feature", "properties": { "full_id": "w91100061", "osm_id": "91100061", "osm_type": "way", "historic": null, "tourism": "gallery", "memorial": null, "start_date": null, "website": "http://hudotdel.eletsmuseum.ru/", "phone": "+7 (47467) 2-91-82", "opening_hours": "Mo-Tu 09:30-16:30; Fr-Su 09:30-16:30", "addr:street": "площадь Ленина", "addr:housenumber": "3", "subject:wikipedia": null, "subject:wikidata": null, "name": "Художественный отдел Елецкого краеведческого музея", "memorial:subject": null }, "geometry": { "type": "Point", "coordinates": [ 38.499495949999989, 52.6220627 ] } },
{ "type": "Feature", "properties": { "full_id": "w271748433", "osm_id": "271748433", "osm_type": "way", "historic": null, "tourism": "museum", "memorial": null, "start_date": null, "website": "http://zhukov.eletsmuseum.ru/", "phone": "+7 (47467) 2-31-02", "opening_hours": null, "addr:street": "улица 9 Декабря", "addr:housenumber": "42", "subject:wikipedia": null, "subject:wikidata": null, "name": "Дом-музей Н.Н. Жукова", "memorial:subject": null }, "geometry": { "type": "Point", "coordinates": [ 38.50000815, 52.62851905 ] } },
{ "type": "Feature", "properties": { "full_id": "w271062199", "osm_id": "271062199", "osm_type": "way", "historic": null, "tourism": "museum", "memorial": null, "start_date": null, "website": "http://hrennikov.eletsmuseum.ru/", "phone": "+7 (47467) 4-94-76", "opening_hours": "We-Su 09:30-16:00", "addr:street": "улица Маяковского", "addr:housenumber": "16", "subject:wikipedia": null, "subject:wikidata": null, "name": "Дом-музей Т.Н. Хренникова", "memorial:subject": null }, "geometry": { "type": "Point", "coordinates": [ 38.505240922662502, 52.627460375723146 ] } },
{ "type": "Feature", "properties": { "full_id": "w269884313", "osm_id": "269884313", "osm_type": "way", "historic": null, "tourism": "museum", "memorial": null, "start_date": null, "website": "http://bunin.eletsmuseum.ru/", "phone": "+7 (47467) 2-43-29", "opening_hours": "We-Su 09:00-17:00", "addr:street": "улица Горького", "addr:housenumber": "16", "subject:wikipedia": null, "subject:wikidata": null, "name": "Литературно-мемориальный музей И. А. Бунина", "memorial:subject": null }, "geometry": { "type": "Point", "coordinates": [ 38.49379835, 52.61872715 ] } },
{ "type": "Feature", "properties": { "full_id": "w269869634", "osm_id": "269869634", "osm_type": "way", "historic": null, "tourism": "museum", "memorial": null, "start_date": null, "website": "http://www.remprom.eletsmuseum.ru", "phone": "+7 (47467) 4-92-02", "opening_hours": "We-Su 09:00-17:00", "addr:street": "улица Ленина", "addr:housenumber": "68", "subject:wikipedia": null, "subject:wikidata": null, "name": "Музей народных ремёсел и промыслов", "memorial:subject": null }, "geometry": { "type": "Point", "coordinates": [ 38.49694264835469, 52.621258117603439 ] } },
{ "type": "Feature", "properties": { "full_id": null, "osm_id": null, "osm_type": null, "historic": null, "tourism": null, "memorial": null, "start_date": null, "website": null, "phone": null, "opening_hours": null, "addr:street": null, "addr:housenumber": null, "subject:wikipedia": null, "subject:wikidata": null, "name": null, "memorial:subject": null }, "geometry": { "type": "Point", "coordinates": [ 38.496109445093708, 52.624164803366838 ] } },
{ "type": "Feature", "properties": { "full_id": null, "osm_id": null, "osm_type": null, "historic": null, "tourism": null, "memorial": null, "start_date": null, "website": null, "phone": null, "opening_hours": null, "addr:street": null, "addr:housenumber": null, "subject:wikipedia": null, "subject:wikidata": null, "name": null, "memorial:subject": null }, "geometry": { "type": "Point", "coordinates": [ 38.494968671193774, 52.624052587983392 ] } },
{ "type": "Feature", "properties": { "full_id": null, "osm_id": null, "osm_type": null, "historic": null, "tourism": null, "memorial": null, "start_date": null, "website": null, "phone": null, "opening_hours": null, "addr:street": null, "addr:housenumber": null, "subject:wikipedia": null, "subject:wikidata": null, "name": null, "memorial:subject": null }, "geometry": { "type": "Point", "coordinates": [ 38.494855443326713, 52.623806311831508 ] } },
{ "type": "Feature", "properties": { "full_id": null, "osm_id": null, "osm_type": null, "historic": null, "tourism": null, "memorial": null, "start_date": null, "website": null, "phone": null, "opening_hours": null, "addr:street": null, "addr:housenumber": null, "subject:wikipedia": null, "subject:wikidata": null, "name": null, "memorial:subject": null }, "geometry": { "type": "Point", "coordinates": [ 38.498018432323029, 52.618810653408602 ] } },
{ "type": "Feature", "properties": { "full_id": null, "osm_id": null, "osm_type": null, "historic": null, "tourism": null, "memorial": null, "start_date": null, "website": null, "phone": null, "opening_hours": null, "addr:street": null, "addr:housenumber": null, "subject:wikipedia": null, "subject:wikidata": null, "name": null, "memorial:subject": null }, "geometry": { "type": "Point", "coordinates": [ 38.498188810705507, 52.621873906363831 ] } },
{ "type": "Feature", "properties": { "full_id": null, "osm_id": null, "osm_type": null, "historic": null, "tourism": null, "memorial": null, "start_date": null, "website": null, "phone": null, "opening_hours": null, "addr:street": null, "addr:housenumber": null, "subject:wikipedia": null, "subject:wikidata": null, "name": null, "memorial:subject": null }, "geometry": { "type": "Point", "coordinates": [ 38.498800286546327, 52.622293213606774 ] } },
{ "type": "Feature", "properties": { "full_id": null, "osm_id": null, "osm_type": null, "historic": null, "tourism": null, "memorial": null, "start_date": null, "website": null, "phone": null, "opening_hours": null, "addr:street": null, "addr:housenumber": null, "subject:wikipedia": null, "subject:wikidata": null, "name": null, "memorial:subject": null }, "geometry": { "type": "Point", "coordinates": [ 38.499113927964594, 52.622268406831651 ] } },
{ "type": "Feature", "properties": { "full_id": null, "osm_id": null, "osm_type": null, "historic": null, "tourism": null, "memorial": null, "start_date": null, "website": null, "phone": null, "opening_hours": null, "addr:street": null, "addr:housenumber": null, "subject:wikipedia": null, "subject:wikidata": null, "name": null, "memorial:subject": null }, "geometry": { "type": "Point", "coordinates": [ 38.498731234345954, 52.622343775283099 ] } }
]
}
