{
"type": "FeatureCollection",
"name": "tour",
"crs": { "type": "name", "properties": { "name": "urn:ogc:def:crs:OGC:1.3:CRS84" } },
"features": [
{ "type": "Feature", "properties": { "full_id": "n2961627251", "osm_id": "2961627251", "osm_type": "node", "memorial": "statue", "historic": "memorial", "name": "Шахтёр" }, "geometry": { "type": "Point", "coordinates": [ 37.7012081, 53.9462682 ] } },
{ "type": "Feature", "properties": { "full_id": "n2961627252", "osm_id": "2961627252", "osm_type": "node", "memorial": "statue", "historic": "memorial", "name": "Шахтёр" }, "geometry": { "type": "Point", "coordinates": [ 37.7014181, 53.9462698 ] } },
{ "type": "Feature", "properties": { "full_id": "n2961627253", "osm_id": "2961627253", "osm_type": "node", "memorial": "statue", "historic": "memorial", "name": "Маяковский" }, "geometry": { "type": "Point", "coordinates": [ 37.7016125, 53.9445952 ] } },
{ "type": "Feature", "properties": { "full_id": "n2961627279", "osm_id": "2961627279", "osm_type": "node", "memorial": "sculpture", "historic": "memorial", "name": "Мужчина с ребёнком" }, "geometry": { "type": "Point", "coordinates": [ 37.7015065, 53.9428269 ] } },
{ "type": "Feature", "properties": { "full_id": "n6177985819", "osm_id": "6177985819", "osm_type": "node", "memorial": "statue", "historic": "memorial", "name": "Максим Горький" }, "geometry": { "type": "Point", "coordinates": [ 37.701322, 53.9424009 ] } },
{ "type": "Feature", "properties": { "full_id": "n6178025716", "osm_id": "6178025716", "osm_type": "node", "memorial": null, "historic": "memorial", "name": "Футболист" }, "geometry": { "type": "Point", "coordinates": [ 37.7018701, 53.9368979 ] } },
{ "type": "Feature", "properties": { "full_id": "n6178028795", "osm_id": "6178028795", "osm_type": "node", "memorial": null, "historic": "memorial", "name": null }, "geometry": { "type": "Point", "coordinates": [ 37.7013601, 53.9415344 ] } },
{ "type": "Feature", "properties": { "full_id": "n8399869817", "osm_id": "8399869817", "osm_type": "node", "memorial": null, "historic": "memorial", "name": "Пушкин" }, "geometry": { "type": "Point", "coordinates": [ 37.7022538, 53.9410969 ] } },
{ "type": "Feature", "properties": { "full_id": null, "osm_id": null, "osm_type": null, "memorial": null, "historic": null, "name": null }, "geometry": { "type": "Point", "coordinates": [ 37.703622622985748, 53.941875019294699 ] } }
]
}
