{
"type": "FeatureCollection",
"name": "game",
"crs": { "type": "name", "properties": { "name": "urn:ogc:def:crs:OGC:1.3:CRS84" } },
"features": [
{ "type": "Feature", "properties": { "full_id": "n4589303589", "osm_id": "4589303589", "osm_type": "node", "amenity": "kindergarten", "name:ru": "Детский сад", "name": "Детский сад" }, "geometry": { "type": "Point", "coordinates": [ 36.0027694, 53.4523603 ] } },
{ "type": "Feature", "properties": { "full_id": "n4824637761", "osm_id": "4824637761", "osm_type": "node", "amenity": "kindergarten", "name:ru": "Детский сад #2", "name": "Детский сад #2" }, "geometry": { "type": "Point", "coordinates": [ 36.0044001, 53.4389122 ] } },
{ "type": "Feature", "properties": { "full_id": "n4832025726", "osm_id": "4832025726", "osm_type": "node", "amenity": "kindergarten", "name:ru": "Детский сад #4", "name": "Детский сад #4" }, "geometry": { "type": "Point", "coordinates": [ 36.0004529, 53.4487359 ] } },
{ "type": "Feature", "properties": { "full_id": "n4968053422", "osm_id": "4968053422", "osm_type": "node", "amenity": "kindergarten", "name:ru": null, "name": null }, "geometry": { "type": "Point", "coordinates": [ 36.0186176, 53.441212 ] } },
{ "type": "Feature", "properties": { "full_id": null, "osm_id": null, "osm_type": null, "amenity": null, "name:ru": null, "name": null }, "geometry": { "type": "Point", "coordinates": [ 36.006518263965653, 53.440680708873899 ] } }
]
}
