{
"type": "FeatureCollection",
"name": "highway_pt",
"crs": { "type": "name", "properties": { "name": "urn:ogc:def:crs:OGC:1.3:CRS84" } },
"features": [
{ "type": "Feature", "properties": { "full_id": "n1326968647", "osm_id": "1326968647", "osm_type": "node", "highway": "crossing", "traffic_calming": null, "entrance": null, "motor_vehicle": null, "barrier": null, "public_transport": null, "bus": null, "traffic_sign": null, "name": null, "direction": null, "colour:back": null, "crossing": "uncontrolled" }, "geometry": { "type": "Point", "coordinates": [ 35.8250621, 53.3917596 ] } },
{ "type": "Feature", "properties": { "full_id": "n2003429874", "osm_id": "2003429874", "osm_type": "node", "highway": "crossing", "traffic_calming": null, "entrance": null, "motor_vehicle": null, "barrier": null, "public_transport": null, "bus": null, "traffic_sign": null, "name": null, "direction": null, "colour:back": null, "crossing": "uncontrolled" }, "geometry": { "type": "Point", "coordinates": [ 35.8535447, 53.3987065 ] } },
{ "type": "Feature", "properties": { "full_id": "n2003429950", "osm_id": "2003429950", "osm_type": "node", "highway": "crossing", "traffic_calming": null, "entrance": null, "motor_vehicle": null, "barrier": null, "public_transport": null, "bus": null, "traffic_sign": null, "name": null, "direction": null, "colour:back": null, "crossing": "uncontrolled" }, "geometry": { "type": "Point", "coordinates": [ 35.9229404, 53.4179604 ] } },
{ "type": "Feature", "properties": { "full_id": "n2037120603", "osm_id": "2037120603", "osm_type": "node", "highway": "crossing", "traffic_calming": null, "entrance": null, "motor_vehicle": null, "barrier": null, "public_transport": null, "bus": null, "traffic_sign": null, "name": null, "direction": null, "colour:back": null, "crossing": "uncontrolled" }, "geometry": { "type": "Point", "coordinates": [ 36.0543684, 53.4146626 ] } },
{ "type": "Feature", "properties": { "full_id": "n3179182019", "osm_id": "3179182019", "osm_type": "node", "highway": null, "traffic_calming": null, "entrance": null, "motor_vehicle": null, "barrier": null, "public_transport": null, "bus": null, "traffic_sign": "city_limit", "name": "Болхов", "direction": "NNE", "colour:back": "white", "crossing": null }, "geometry": { "type": "Point", "coordinates": [ 36.0090771, 53.4719007 ] } },
{ "type": "Feature", "properties": { "full_id": "n4592546233", "osm_id": "4592546233", "osm_type": "node", "highway": "crossing", "traffic_calming": null, "entrance": null, "motor_vehicle": null, "barrier": null, "public_transport": null, "bus": null, "traffic_sign": null, "name": null, "direction": null, "colour:back": null, "crossing": "uncontrolled" }, "geometry": { "type": "Point", "coordinates": [ 36.005512, 53.4468666 ] } },
{ "type": "Feature", "properties": { "full_id": "n4825564721", "osm_id": "4825564721", "osm_type": "node", "highway": "bus_stop", "traffic_calming": null, "entrance": null, "motor_vehicle": null, "barrier": null, "public_transport": "stop_position", "bus": "yes", "traffic_sign": null, "name": null, "direction": null, "colour:back": null, "crossing": null }, "geometry": { "type": "Point", "coordinates": [ 36.0053851, 53.4445229 ] } },
{ "type": "Feature", "properties": { "full_id": "n4825564821", "osm_id": "4825564821", "osm_type": "node", "highway": "bus_stop", "traffic_calming": null, "entrance": null, "motor_vehicle": null, "barrier": null, "public_transport": null, "bus": null, "traffic_sign": null, "name": null, "direction": null, "colour:back": null, "crossing": null }, "geometry": { "type": "Point", "coordinates": [ 36.0146387, 53.4414506 ] } },
{ "type": "Feature", "properties": { "full_id": "n4825565122", "osm_id": "4825565122", "osm_type": "node", "highway": "bus_stop", "traffic_calming": null, "entrance": null, "motor_vehicle": null, "barrier": null, "public_transport": "platform", "bus": "yes", "traffic_sign": null, "name": "Магазин «Ямской»", "direction": null, "colour:back": null, "crossing": null }, "geometry": { "type": "Point", "coordinates": [ 36.0039746, 53.4652119 ] } },
{ "type": "Feature", "properties": { "full_id": "n4829982573", "osm_id": "4829982573", "osm_type": "node", "highway": "crossing", "traffic_calming": null, "entrance": null, "motor_vehicle": null, "barrier": null, "public_transport": null, "bus": null, "traffic_sign": null, "name": null, "direction": null, "colour:back": null, "crossing": "uncontrolled" }, "geometry": { "type": "Point", "coordinates": [ 36.0027795, 53.4407758 ] } },
{ "type": "Feature", "properties": { "full_id": "n4832025723", "osm_id": "4832025723", "osm_type": "node", "highway": "bus_stop", "traffic_calming": null, "entrance": null, "motor_vehicle": null, "barrier": null, "public_transport": "platform", "bus": "yes", "traffic_sign": null, "name": "Школа", "direction": null, "colour:back": null, "crossing": null }, "geometry": { "type": "Point", "coordinates": [ 35.9959743, 53.457395 ] } },
{ "type": "Feature", "properties": { "full_id": "n4832025724", "osm_id": "4832025724", "osm_type": "node", "highway": "bus_stop", "traffic_calming": null, "entrance": null, "motor_vehicle": null, "barrier": null, "public_transport": "platform", "bus": "yes", "traffic_sign": null, "name": "Гимназия", "direction": null, "colour:back": null, "crossing": null }, "geometry": { "type": "Point", "coordinates": [ 36.0048276, 53.4512503 ] } },
{ "type": "Feature", "properties": { "full_id": "n4832025725", "osm_id": "4832025725", "osm_type": "node", "highway": "bus_stop", "traffic_calming": null, "entrance": null, "motor_vehicle": null, "barrier": null, "public_transport": "platform", "bus": "yes", "traffic_sign": null, "name": null, "direction": null, "colour:back": null, "crossing": null }, "geometry": { "type": "Point", "coordinates": [ 36.0054735, 53.4487813 ] } },
{ "type": "Feature", "properties": { "full_id": "n4832037222", "osm_id": "4832037222", "osm_type": "node", "highway": "bus_stop", "traffic_calming": null, "entrance": null, "motor_vehicle": null, "barrier": null, "public_transport": "platform", "bus": "yes", "traffic_sign": null, "name": null, "direction": null, "colour:back": null, "crossing": null }, "geometry": { "type": "Point", "coordinates": [ 36.0057426, 53.4485118 ] } },
{ "type": "Feature", "properties": { "full_id": "n4832037521", "osm_id": "4832037521", "osm_type": "node", "highway": "bus_stop", "traffic_calming": null, "entrance": null, "motor_vehicle": null, "barrier": null, "public_transport": "platform", "bus": "yes", "traffic_sign": null, "name": "Гимназия", "direction": null, "colour:back": null, "crossing": null }, "geometry": { "type": "Point", "coordinates": [ 36.0041656, 53.4514927 ] } },
{ "type": "Feature", "properties": { "full_id": "n4876542942", "osm_id": "4876542942", "osm_type": "node", "highway": "crossing", "traffic_calming": null, "entrance": null, "motor_vehicle": null, "barrier": null, "public_transport": null, "bus": null, "traffic_sign": null, "name": null, "direction": null, "colour:back": null, "crossing": "uncontrolled" }, "geometry": { "type": "Point", "coordinates": [ 36.0485818, 53.418139 ] } },
{ "type": "Feature", "properties": { "full_id": "n4961169121", "osm_id": "4961169121", "osm_type": "node", "highway": "bus_stop", "traffic_calming": null, "entrance": null, "motor_vehicle": null, "barrier": null, "public_transport": null, "bus": null, "traffic_sign": null, "name": null, "direction": null, "colour:back": null, "crossing": null }, "geometry": { "type": "Point", "coordinates": [ 36.0056112, 53.444716 ] } },
{ "type": "Feature", "properties": { "full_id": "n4962425822", "osm_id": "4962425822", "osm_type": "node", "highway": "bus_stop", "traffic_calming": null, "entrance": null, "motor_vehicle": null, "barrier": null, "public_transport": "platform", "bus": "yes", "traffic_sign": null, "name": "5-й Ленинский переулок", "direction": null, "colour:back": null, "crossing": null }, "geometry": { "type": "Point", "coordinates": [ 35.9960343, 53.4565178 ] } },
{ "type": "Feature", "properties": { "full_id": "n4962429821", "osm_id": "4962429821", "osm_type": "node", "highway": "bus_stop", "traffic_calming": null, "entrance": null, "motor_vehicle": null, "barrier": null, "public_transport": "platform", "bus": "yes", "traffic_sign": null, "name": null, "direction": null, "colour:back": null, "crossing": null }, "geometry": { "type": "Point", "coordinates": [ 36.0046572, 53.4398327 ] } },
{ "type": "Feature", "properties": { "full_id": "n4962429822", "osm_id": "4962429822", "osm_type": "node", "highway": "bus_stop", "traffic_calming": null, "entrance": null, "motor_vehicle": null, "barrier": null, "public_transport": "platform", "bus": "yes", "traffic_sign": null, "name": "Ямская ул.", "direction": null, "colour:back": null, "crossing": null }, "geometry": { "type": "Point", "coordinates": [ 36.0086429, 53.471327 ] } },
{ "type": "Feature", "properties": { "full_id": "n4962430022", "osm_id": "4962430022", "osm_type": "node", "highway": "bus_stop", "traffic_calming": null, "entrance": null, "motor_vehicle": null, "barrier": null, "public_transport": "platform", "bus": "yes", "traffic_sign": null, "name": "Башня", "direction": null, "colour:back": null, "crossing": null }, "geometry": { "type": "Point", "coordinates": [ 35.9996267, 53.4547117 ] } },
{ "type": "Feature", "properties": { "full_id": "n4967639038", "osm_id": "4967639038", "osm_type": "node", "highway": "bus_stop", "traffic_calming": null, "entrance": null, "motor_vehicle": null, "barrier": null, "public_transport": "platform", "bus": "yes", "traffic_sign": null, "name": "2-й Калининский переулок", "direction": null, "colour:back": null, "crossing": null }, "geometry": { "type": "Point", "coordinates": [ 36.0115767, 53.430991 ] } },
{ "type": "Feature", "properties": { "full_id": "n5113279521", "osm_id": "5113279521", "osm_type": "node", "highway": "bus_stop", "traffic_calming": null, "entrance": null, "motor_vehicle": null, "barrier": null, "public_transport": "platform", "bus": "yes", "traffic_sign": null, "name": "Заречная улица", "direction": null, "colour:back": null, "crossing": null }, "geometry": { "type": "Point", "coordinates": [ 36.0298687, 53.422567 ] } },
{ "type": "Feature", "properties": { "full_id": "n5119046323", "osm_id": "5119046323", "osm_type": "node", "highway": "bus_stop", "traffic_calming": null, "entrance": null, "motor_vehicle": null, "barrier": null, "public_transport": null, "bus": null, "traffic_sign": null, "name": null, "direction": null, "colour:back": null, "crossing": null }, "geometry": { "type": "Point", "coordinates": [ 35.9597823, 53.4229615 ] } },
{ "type": "Feature", "properties": { "full_id": "n5613610126", "osm_id": "5613610126", "osm_type": "node", "highway": "crossing", "traffic_calming": null, "entrance": null, "motor_vehicle": null, "barrier": null, "public_transport": null, "bus": null, "traffic_sign": null, "name": null, "direction": null, "colour:back": null, "crossing": "uncontrolled" }, "geometry": { "type": "Point", "coordinates": [ 36.0025434, 53.4370093 ] } },
{ "type": "Feature", "properties": { "full_id": "n8012743458", "osm_id": "8012743458", "osm_type": "node", "highway": null, "traffic_calming": null, "entrance": null, "motor_vehicle": null, "barrier": "gate", "public_transport": null, "bus": null, "traffic_sign": null, "name": null, "direction": null, "colour:back": null, "crossing": null }, "geometry": { "type": "Point", "coordinates": [ 35.9753512, 53.4403537 ] } },
{ "type": "Feature", "properties": { "full_id": "n8953424587", "osm_id": "8953424587", "osm_type": "node", "highway": "turning_circle", "traffic_calming": null, "entrance": null, "motor_vehicle": null, "barrier": null, "public_transport": null, "bus": null, "traffic_sign": null, "name": null, "direction": null, "colour:back": null, "crossing": null }, "geometry": { "type": "Point", "coordinates": [ 35.9931379, 53.4322143 ] } },
{ "type": "Feature", "properties": { "full_id": "n9035631964", "osm_id": "9035631964", "osm_type": "node", "highway": "bus_stop", "traffic_calming": null, "entrance": null, "motor_vehicle": null, "barrier": null, "public_transport": "platform", "bus": "yes", "traffic_sign": null, "name": "Улица 8-го Марта", "direction": null, "colour:back": null, "crossing": null }, "geometry": { "type": "Point", "coordinates": [ 36.021797, 53.4241096 ] } },
{ "type": "Feature", "properties": { "full_id": "n9509801197", "osm_id": "9509801197", "osm_type": "node", "highway": null, "traffic_calming": null, "entrance": null, "motor_vehicle": null, "barrier": "gate", "public_transport": null, "bus": null, "traffic_sign": null, "name": null, "direction": null, "colour:back": null, "crossing": null }, "geometry": { "type": "Point", "coordinates": [ 35.9740458, 53.4641823 ] } },
{ "type": "Feature", "properties": { "full_id": "n9509801227", "osm_id": "9509801227", "osm_type": "node", "highway": null, "traffic_calming": null, "entrance": null, "motor_vehicle": null, "barrier": "gate", "public_transport": null, "bus": null, "traffic_sign": null, "name": null, "direction": null, "colour:back": null, "crossing": null }, "geometry": { "type": "Point", "coordinates": [ 35.9717247, 53.4646162 ] } },
{ "type": "Feature", "properties": { "full_id": "n10296166843", "osm_id": "10296166843", "osm_type": "node", "highway": null, "traffic_calming": null, "entrance": null, "motor_vehicle": null, "barrier": null, "public_transport": null, "bus": null, "traffic_sign": "city_limit", "name": "Болхов", "direction": "SE", "colour:back": "white", "crossing": null }, "geometry": { "type": "Point", "coordinates": [ 36.0421575, 53.4213745 ] } },
{ "type": "Feature", "properties": { "full_id": "n10669419009", "osm_id": "10669419009", "osm_type": "node", "highway": "bus_stop", "traffic_calming": null, "entrance": null, "motor_vehicle": null, "barrier": null, "public_transport": "platform", "bus": "yes", "traffic_sign": null, "name": "Васьковка", "direction": null, "colour:back": null, "crossing": null }, "geometry": { "type": "Point", "coordinates": [ 36.0429909, 53.4210274 ] } },
{ "type": "Feature", "properties": { "full_id": "n10669419010", "osm_id": "10669419010", "osm_type": "node", "highway": "bus_stop", "traffic_calming": null, "entrance": null, "motor_vehicle": null, "barrier": null, "public_transport": "platform", "bus": "yes", "traffic_sign": null, "name": "Васьковка", "direction": null, "colour:back": null, "crossing": null }, "geometry": { "type": "Point", "coordinates": [ 36.0432993, 53.4207077 ] } },
{ "type": "Feature", "properties": { "full_id": "n10669419032", "osm_id": "10669419032", "osm_type": "node", "highway": "bus_stop", "traffic_calming": null, "entrance": null, "motor_vehicle": null, "barrier": null, "public_transport": "platform", "bus": "yes", "traffic_sign": null, "name": "Сырзавод", "direction": null, "colour:back": null, "crossing": null }, "geometry": { "type": "Point", "coordinates": [ 36.0396237, 53.4227658 ] } },
{ "type": "Feature", "properties": { "full_id": "n10669419033", "osm_id": "10669419033", "osm_type": "node", "highway": "bus_stop", "traffic_calming": null, "entrance": null, "motor_vehicle": null, "barrier": null, "public_transport": "platform", "bus": "yes", "traffic_sign": null, "name": "Сырзавод", "direction": null, "colour:back": null, "crossing": null }, "geometry": { "type": "Point", "coordinates": [ 36.0387248, 53.4227995 ] } },
{ "type": "Feature", "properties": { "full_id": "n10669419037", "osm_id": "10669419037", "osm_type": "node", "highway": "bus_stop", "traffic_calming": null, "entrance": null, "motor_vehicle": null, "barrier": null, "public_transport": "platform", "bus": "yes", "traffic_sign": null, "name": "Улица 8-го Марта", "direction": null, "colour:back": null, "crossing": null }, "geometry": { "type": "Point", "coordinates": [ 36.021676, 53.4239663 ] } },
{ "type": "Feature", "properties": { "full_id": "n10669419038", "osm_id": "10669419038", "osm_type": "node", "highway": "bus_stop", "traffic_calming": null, "entrance": null, "motor_vehicle": null, "barrier": null, "public_transport": "platform", "bus": "yes", "traffic_sign": null, "name": "Метеостанция", "direction": null, "colour:back": null, "crossing": null }, "geometry": { "type": "Point", "coordinates": [ 36.0176632, 53.4259035 ] } },
{ "type": "Feature", "properties": { "full_id": "n10669419039", "osm_id": "10669419039", "osm_type": "node", "highway": "bus_stop", "traffic_calming": null, "entrance": null, "motor_vehicle": null, "barrier": null, "public_transport": "platform", "bus": "yes", "traffic_sign": null, "name": "Метеостанция", "direction": null, "colour:back": null, "crossing": null }, "geometry": { "type": "Point", "coordinates": [ 36.0168528, 53.4262641 ] } },
{ "type": "Feature", "properties": { "full_id": "n10669419040", "osm_id": "10669419040", "osm_type": "node", "highway": "bus_stop", "traffic_calming": null, "entrance": null, "motor_vehicle": null, "barrier": null, "public_transport": "platform", "bus": "yes", "traffic_sign": null, "name": "Деевский мост", "direction": null, "colour:back": null, "crossing": null }, "geometry": { "type": "Point", "coordinates": [ 36.0153697, 53.4273628 ] } },
{ "type": "Feature", "properties": { "full_id": "n10669419041", "osm_id": "10669419041", "osm_type": "node", "highway": "bus_stop", "traffic_calming": null, "entrance": null, "motor_vehicle": null, "barrier": null, "public_transport": "platform", "bus": "yes", "traffic_sign": null, "name": "Деевский мост", "direction": null, "colour:back": null, "crossing": null }, "geometry": { "type": "Point", "coordinates": [ 36.015772, 53.4273292 ] } },
{ "type": "Feature", "properties": { "full_id": "n10669419048", "osm_id": "10669419048", "osm_type": "node", "highway": "crossing", "traffic_calming": null, "entrance": null, "motor_vehicle": null, "barrier": null, "public_transport": null, "bus": null, "traffic_sign": null, "name": null, "direction": null, "colour:back": null, "crossing": "uncontrolled" }, "geometry": { "type": "Point", "coordinates": [ 36.0115989, 53.4309101 ] } },
{ "type": "Feature", "properties": { "full_id": "n10669419058", "osm_id": "10669419058", "osm_type": "node", "highway": "bus_stop", "traffic_calming": null, "entrance": null, "motor_vehicle": null, "barrier": null, "public_transport": "platform", "bus": "yes", "traffic_sign": null, "name": "2-й Первомайский переулок", "direction": null, "colour:back": null, "crossing": null }, "geometry": { "type": "Point", "coordinates": [ 36.0051367, 53.4351453 ] } },
{ "type": "Feature", "properties": { "full_id": "n10669419059", "osm_id": "10669419059", "osm_type": "node", "highway": "bus_stop", "traffic_calming": null, "entrance": null, "motor_vehicle": null, "barrier": null, "public_transport": "platform", "bus": "yes", "traffic_sign": null, "name": "2-й Первомайский переулок", "direction": null, "colour:back": null, "crossing": null }, "geometry": { "type": "Point", "coordinates": [ 36.005602, 53.4350076 ] } },
{ "type": "Feature", "properties": { "full_id": "n10669419060", "osm_id": "10669419060", "osm_type": "node", "highway": "crossing", "traffic_calming": null, "entrance": null, "motor_vehicle": null, "barrier": null, "public_transport": null, "bus": null, "traffic_sign": null, "name": null, "direction": null, "colour:back": null, "crossing": "uncontrolled" }, "geometry": { "type": "Point", "coordinates": [ 36.0043688, 53.4357455 ] } },
{ "type": "Feature", "properties": { "full_id": "n10669419061", "osm_id": "10669419061", "osm_type": "node", "highway": "crossing", "traffic_calming": null, "entrance": null, "motor_vehicle": null, "barrier": null, "public_transport": null, "bus": null, "traffic_sign": null, "name": null, "direction": null, "colour:back": null, "crossing": "uncontrolled" }, "geometry": { "type": "Point", "coordinates": [ 36.0043603, 53.4358917 ] } },
{ "type": "Feature", "properties": { "full_id": "n10669419070", "osm_id": "10669419070", "osm_type": "node", "highway": "bus_stop", "traffic_calming": null, "entrance": null, "motor_vehicle": null, "barrier": null, "public_transport": "platform", "bus": "yes", "traffic_sign": null, "name": "Автовокзал \"Болхов\"", "direction": null, "colour:back": null, "crossing": null }, "geometry": { "type": "Point", "coordinates": [ 36.0030876, 53.4369833 ] } },
{ "type": "Feature", "properties": { "full_id": "n10669419076", "osm_id": "10669419076", "osm_type": "node", "highway": null, "traffic_calming": null, "entrance": null, "motor_vehicle": "private", "barrier": "lift_gate", "public_transport": null, "bus": null, "traffic_sign": null, "name": null, "direction": null, "colour:back": null, "crossing": null }, "geometry": { "type": "Point", "coordinates": [ 36.0028563, 53.436935 ] } },
{ "type": "Feature", "properties": { "full_id": "n10669419081", "osm_id": "10669419081", "osm_type": "node", "highway": null, "traffic_calming": null, "entrance": "yes", "motor_vehicle": null, "barrier": null, "public_transport": null, "bus": null, "traffic_sign": null, "name": null, "direction": null, "colour:back": null, "crossing": null }, "geometry": { "type": "Point", "coordinates": [ 36.0027401, 53.43717 ] } },
{ "type": "Feature", "properties": { "full_id": "n10669419083", "osm_id": "10669419083", "osm_type": "node", "highway": "crossing", "traffic_calming": null, "entrance": null, "motor_vehicle": null, "barrier": null, "public_transport": null, "bus": null, "traffic_sign": null, "name": null, "direction": null, "colour:back": null, "crossing": "uncontrolled" }, "geometry": { "type": "Point", "coordinates": [ 36.0021477, 53.437555 ] } },
{ "type": "Feature", "properties": { "full_id": "n10669419084", "osm_id": "10669419084", "osm_type": "node", "highway": "crossing", "traffic_calming": null, "entrance": null, "motor_vehicle": null, "barrier": null, "public_transport": null, "bus": null, "traffic_sign": null, "name": null, "direction": null, "colour:back": null, "crossing": "uncontrolled" }, "geometry": { "type": "Point", "coordinates": [ 36.0020437, 53.4373445 ] } },
{ "type": "Feature", "properties": { "full_id": "n10669419085", "osm_id": "10669419085", "osm_type": "node", "highway": "crossing", "traffic_calming": null, "entrance": null, "motor_vehicle": null, "barrier": null, "public_transport": null, "bus": null, "traffic_sign": null, "name": null, "direction": null, "colour:back": null, "crossing": "uncontrolled" }, "geometry": { "type": "Point", "coordinates": [ 36.0017773, 53.4375245 ] } },
{ "type": "Feature", "properties": { "full_id": "n10669419086", "osm_id": "10669419086", "osm_type": "node", "highway": "crossing", "traffic_calming": null, "entrance": null, "motor_vehicle": null, "barrier": null, "public_transport": null, "bus": null, "traffic_sign": null, "name": null, "direction": null, "colour:back": null, "crossing": "uncontrolled" }, "geometry": { "type": "Point", "coordinates": [ 36.0018007, 53.4373832 ] } },
{ "type": "Feature", "properties": { "full_id": "n10669419092", "osm_id": "10669419092", "osm_type": "node", "highway": "crossing", "traffic_calming": null, "entrance": null, "motor_vehicle": null, "barrier": null, "public_transport": null, "bus": null, "traffic_sign": null, "name": null, "direction": null, "colour:back": null, "crossing": "uncontrolled" }, "geometry": { "type": "Point", "coordinates": [ 36.0075787, 53.4376024 ] } },
{ "type": "Feature", "properties": { "full_id": "n10669419093", "osm_id": "10669419093", "osm_type": "node", "highway": "crossing", "traffic_calming": null, "entrance": null, "motor_vehicle": null, "barrier": null, "public_transport": null, "bus": null, "traffic_sign": null, "name": null, "direction": null, "colour:back": null, "crossing": "uncontrolled" }, "geometry": { "type": "Point", "coordinates": [ 36.0078104, 53.4376463 ] } },
{ "type": "Feature", "properties": { "full_id": "n10669419094", "osm_id": "10669419094", "osm_type": "node", "highway": "crossing", "traffic_calming": null, "entrance": null, "motor_vehicle": null, "barrier": null, "public_transport": null, "bus": null, "traffic_sign": null, "name": null, "direction": null, "colour:back": null, "crossing": null }, "geometry": { "type": "Point", "coordinates": [ 36.0128012, 53.4341598 ] } },
{ "type": "Feature", "properties": { "full_id": "n10669953283", "osm_id": "10669953283", "osm_type": "node", "highway": "crossing", "traffic_calming": null, "entrance": null, "motor_vehicle": null, "barrier": null, "public_transport": null, "bus": null, "traffic_sign": null, "name": null, "direction": null, "colour:back": null, "crossing": "traffic_signals" }, "geometry": { "type": "Point", "coordinates": [ 36.0024602, 53.4388942 ] } },
{ "type": "Feature", "properties": { "full_id": "n10669953284", "osm_id": "10669953284", "osm_type": "node", "highway": "crossing", "traffic_calming": null, "entrance": null, "motor_vehicle": null, "barrier": null, "public_transport": null, "bus": null, "traffic_sign": null, "name": null, "direction": null, "colour:back": null, "crossing": null }, "geometry": { "type": "Point", "coordinates": [ 36.0057039, 53.4366909 ] } },
{ "type": "Feature", "properties": { "full_id": "n10669953285", "osm_id": "10669953285", "osm_type": "node", "highway": "crossing", "traffic_calming": null, "entrance": null, "motor_vehicle": null, "barrier": null, "public_transport": null, "bus": null, "traffic_sign": null, "name": null, "direction": null, "colour:back": null, "crossing": null }, "geometry": { "type": "Point", "coordinates": [ 36.0058196, 53.4366797 ] } },
{ "type": "Feature", "properties": { "full_id": "n10669953286", "osm_id": "10669953286", "osm_type": "node", "highway": "crossing", "traffic_calming": null, "entrance": null, "motor_vehicle": null, "barrier": null, "public_transport": null, "bus": null, "traffic_sign": null, "name": null, "direction": null, "colour:back": null, "crossing": null }, "geometry": { "type": "Point", "coordinates": [ 36.0053065, 53.4391732 ] } },
{ "type": "Feature", "properties": { "full_id": "n10669953287", "osm_id": "10669953287", "osm_type": "node", "highway": "crossing", "traffic_calming": null, "entrance": null, "motor_vehicle": null, "barrier": null, "public_transport": null, "bus": null, "traffic_sign": null, "name": null, "direction": null, "colour:back": null, "crossing": null }, "geometry": { "type": "Point", "coordinates": [ 36.0078498, 53.4377454 ] } },
{ "type": "Feature", "properties": { "full_id": "n10669953289", "osm_id": "10669953289", "osm_type": "node", "highway": "crossing", "traffic_calming": null, "entrance": null, "motor_vehicle": null, "barrier": null, "public_transport": null, "bus": null, "traffic_sign": null, "name": null, "direction": null, "colour:back": null, "crossing": null }, "geometry": { "type": "Point", "coordinates": [ 36.002874, 53.4409212 ] } },
{ "type": "Feature", "properties": { "full_id": "n10669953292", "osm_id": "10669953292", "osm_type": "node", "highway": null, "traffic_calming": "hump", "entrance": null, "motor_vehicle": null, "barrier": null, "public_transport": null, "bus": null, "traffic_sign": null, "name": null, "direction": null, "colour:back": null, "crossing": null }, "geometry": { "type": "Point", "coordinates": [ 36.0032279, 53.4406845 ] } },
{ "type": "Feature", "properties": { "full_id": "n10669953293", "osm_id": "10669953293", "osm_type": "node", "highway": null, "traffic_calming": "hump", "entrance": null, "motor_vehicle": null, "barrier": null, "public_transport": null, "bus": null, "traffic_sign": null, "name": null, "direction": null, "colour:back": null, "crossing": null }, "geometry": { "type": "Point", "coordinates": [ 36.002734, 53.4410185 ] } },
{ "type": "Feature", "properties": { "full_id": "n10669953294", "osm_id": "10669953294", "osm_type": "node", "highway": null, "traffic_calming": "hump", "entrance": null, "motor_vehicle": null, "barrier": null, "public_transport": null, "bus": null, "traffic_sign": null, "name": null, "direction": null, "colour:back": null, "crossing": null }, "geometry": { "type": "Point", "coordinates": [ 36.002226, 53.4390493 ] } },
{ "type": "Feature", "properties": { "full_id": "n10669953295", "osm_id": "10669953295", "osm_type": "node", "highway": null, "traffic_calming": "hump", "entrance": null, "motor_vehicle": null, "barrier": null, "public_transport": null, "bus": null, "traffic_sign": null, "name": null, "direction": null, "colour:back": null, "crossing": null }, "geometry": { "type": "Point", "coordinates": [ 36.0026737, 53.4387478 ] } },
{ "type": "Feature", "properties": { "full_id": "n10669953299", "osm_id": "10669953299", "osm_type": "node", "highway": "crossing", "traffic_calming": null, "entrance": null, "motor_vehicle": null, "barrier": null, "public_transport": null, "bus": null, "traffic_sign": null, "name": null, "direction": null, "colour:back": null, "crossing": null }, "geometry": { "type": "Point", "coordinates": [ 36.0010239, 53.4397556 ] } },
{ "type": "Feature", "properties": { "full_id": "n10669953304", "osm_id": "10669953304", "osm_type": "node", "highway": "crossing", "traffic_calming": null, "entrance": null, "motor_vehicle": null, "barrier": null, "public_transport": null, "bus": null, "traffic_sign": null, "name": null, "direction": null, "colour:back": null, "crossing": null }, "geometry": { "type": "Point", "coordinates": [ 36.01515, 53.4326045 ] } },
{ "type": "Feature", "properties": { "full_id": "n10669978068", "osm_id": "10669978068", "osm_type": "node", "highway": "crossing", "traffic_calming": null, "entrance": null, "motor_vehicle": null, "barrier": null, "public_transport": null, "bus": null, "traffic_sign": null, "name": null, "direction": null, "colour:back": null, "crossing": "uncontrolled" }, "geometry": { "type": "Point", "coordinates": [ 36.0054397, 53.4446381 ] } },
{ "type": "Feature", "properties": { "full_id": "n10669978093", "osm_id": "10669978093", "osm_type": "node", "highway": "crossing", "traffic_calming": null, "entrance": null, "motor_vehicle": null, "barrier": null, "public_transport": null, "bus": null, "traffic_sign": null, "name": null, "direction": null, "colour:back": null, "crossing": null }, "geometry": { "type": "Point", "coordinates": [ 36.0050066, 53.4494889 ] } },
{ "type": "Feature", "properties": { "full_id": "n10669978101", "osm_id": "10669978101", "osm_type": "node", "highway": "crossing", "traffic_calming": null, "entrance": null, "motor_vehicle": null, "barrier": null, "public_transport": null, "bus": null, "traffic_sign": null, "name": null, "direction": null, "colour:back": null, "crossing": "uncontrolled" }, "geometry": { "type": "Point", "coordinates": [ 36.005586, 53.4487019 ] } },
{ "type": "Feature", "properties": { "full_id": "n10669978102", "osm_id": "10669978102", "osm_type": "node", "highway": "crossing", "traffic_calming": null, "entrance": null, "motor_vehicle": null, "barrier": null, "public_transport": null, "bus": null, "traffic_sign": null, "name": null, "direction": null, "colour:back": null, "crossing": "uncontrolled" }, "geometry": { "type": "Point", "coordinates": [ 36.0041559, 53.4516212 ] } },
{ "type": "Feature", "properties": { "full_id": "n10669978103", "osm_id": "10669978103", "osm_type": "node", "highway": null, "traffic_calming": "hump", "entrance": null, "motor_vehicle": null, "barrier": null, "public_transport": null, "bus": null, "traffic_sign": null, "name": null, "direction": null, "colour:back": null, "crossing": null }, "geometry": { "type": "Point", "coordinates": [ 36.0039461, 53.451765 ] } },
{ "type": "Feature", "properties": { "full_id": "n10669978104", "osm_id": "10669978104", "osm_type": "node", "highway": null, "traffic_calming": "hump", "entrance": null, "motor_vehicle": null, "barrier": null, "public_transport": null, "bus": null, "traffic_sign": null, "name": null, "direction": null, "colour:back": null, "crossing": null }, "geometry": { "type": "Point", "coordinates": [ 36.004397, 53.4514562 ] } },
{ "type": "Feature", "properties": { "full_id": "n10669978130", "osm_id": "10669978130", "osm_type": "node", "highway": "bus_stop", "traffic_calming": null, "entrance": null, "motor_vehicle": null, "barrier": null, "public_transport": "platform", "bus": "yes", "traffic_sign": null, "name": "Башня", "direction": null, "colour:back": null, "crossing": null }, "geometry": { "type": "Point", "coordinates": [ 35.9998117, 53.4547739 ] } },
{ "type": "Feature", "properties": { "full_id": "n10669978131", "osm_id": "10669978131", "osm_type": "node", "highway": "bus_stop", "traffic_calming": null, "entrance": null, "motor_vehicle": null, "barrier": null, "public_transport": "platform", "bus": "yes", "traffic_sign": null, "name": "Школа", "direction": null, "colour:back": null, "crossing": null }, "geometry": { "type": "Point", "coordinates": [ 35.9961376, 53.4574466 ] } },
{ "type": "Feature", "properties": { "full_id": "n10669978154", "osm_id": "10669978154", "osm_type": "node", "highway": "bus_stop", "traffic_calming": null, "entrance": null, "motor_vehicle": null, "barrier": null, "public_transport": "platform", "bus": "yes", "traffic_sign": null, "name": "5-й Ленинский переулок", "direction": null, "colour:back": null, "crossing": null }, "geometry": { "type": "Point", "coordinates": [ 35.9961744, 53.4567427 ] } },
{ "type": "Feature", "properties": { "full_id": "n10669978242", "osm_id": "10669978242", "osm_type": "node", "highway": null, "traffic_calming": null, "entrance": null, "motor_vehicle": null, "barrier": "gate", "public_transport": null, "bus": null, "traffic_sign": null, "name": null, "direction": null, "colour:back": null, "crossing": null }, "geometry": { "type": "Point", "coordinates": [ 35.9932311, 53.4386364 ] } },
{ "type": "Feature", "properties": { "full_id": "n10669978290", "osm_id": "10669978290", "osm_type": "node", "highway": "crossing", "traffic_calming": null, "entrance": null, "motor_vehicle": null, "barrier": null, "public_transport": null, "bus": null, "traffic_sign": null, "name": null, "direction": null, "colour:back": null, "crossing": null }, "geometry": { "type": "Point", "coordinates": [ 36.0010243, 53.4398467 ] } },
{ "type": "Feature", "properties": { "full_id": "n10669978291", "osm_id": "10669978291", "osm_type": "node", "highway": "crossing", "traffic_calming": null, "entrance": null, "motor_vehicle": null, "barrier": null, "public_transport": null, "bus": null, "traffic_sign": null, "name": null, "direction": null, "colour:back": null, "crossing": null }, "geometry": { "type": "Point", "coordinates": [ 36.0011731, 53.4398398 ] } },
{ "type": "Feature", "properties": { "full_id": "n10669978292", "osm_id": "10669978292", "osm_type": "node", "highway": "crossing", "traffic_calming": null, "entrance": null, "motor_vehicle": null, "barrier": null, "public_transport": null, "bus": null, "traffic_sign": null, "name": null, "direction": null, "colour:back": null, "crossing": null }, "geometry": { "type": "Point", "coordinates": [ 36.0011594, 53.439756 ] } },
{ "type": "Feature", "properties": { "full_id": "n10670582864", "osm_id": "10670582864", "osm_type": "node", "highway": "bus_stop", "traffic_calming": null, "entrance": null, "motor_vehicle": null, "barrier": null, "public_transport": "platform", "bus": "yes", "traffic_sign": null, "name": "Заречная улица", "direction": null, "colour:back": null, "crossing": null }, "geometry": { "type": "Point", "coordinates": [ 36.0295397, 53.4224869 ] } },
{ "type": "Feature", "properties": { "full_id": "n10670582865", "osm_id": "10670582865", "osm_type": "node", "highway": "bus_stop", "traffic_calming": null, "entrance": null, "motor_vehicle": null, "barrier": null, "public_transport": "platform", "bus": "yes", "traffic_sign": null, "name": "2-й Калининский переулок", "direction": null, "colour:back": null, "crossing": null }, "geometry": { "type": "Point", "coordinates": [ 36.0112256, 53.4310756 ] } }
]
}
