{
"type": "FeatureCollection",
"name": "sp_big",
"crs": { "type": "name", "properties": { "name": "urn:ogc:def:crs:EPSG::32637" } },
"features": [
{ "type": "Feature", "properties": { }, "geometry": { "type": "Point", "coordinates": [ 568414.092113075428642, 5975687.424173730425537 ] } },
{ "type": "Feature", "properties": { }, "geometry": { "type": "Point", "coordinates": [ 567716.545217999140732, 5976275.16271392814815 ] } },
{ "type": "Feature", "properties": { }, "geometry": { "type": "Point", "coordinates": [ 567815.925548331462778, 5976371.276434160768986 ] } }
]
}
