{
"type": "FeatureCollection",
"name": "rel",
"crs": { "type": "name", "properties": { "name": "urn:ogc:def:crs:OGC:1.3:CRS84" } },
"features": [
{ "type": "Feature", "properties": { "full_id": "r18229058", "osm_id": "18229058", "osm_type": "relation", "religion": "christian", "amenity": "place_of_worship", "wikidata": null, "denomination:ru": null, "addr:place": null, "abandoned": null, "start_date": null, "source:addr": null, "ref:temples.ru": null, "ref:sobory.ru": null, "name:ru": null, "contact:website": null, "addr:street": null, "addr:housenumber": null, "landuse": null, "type": "multipolygon", "name": "Кафедральный Собор Благовещения", "denomination": "orthodox", "building": "church" }, "geometry": { "type": "Point", "coordinates": [ 36.485794471736639, 55.208132998856364 ] } },
{ "type": "Feature", "properties": { "full_id": "w110490535", "osm_id": "110490535", "osm_type": "way", "religion": "christian", "amenity": "place_of_worship", "wikidata": null, "denomination:ru": null, "addr:place": null, "abandoned": null, "start_date": "1804", "source:addr": "ЕГРН", "ref:temples.ru": "8092", "ref:sobory.ru": "02038", "name:ru": "Церковь Спаса Преображения", "contact:website": "https://cpgv.narod.ru", "addr:street": "улица Урицкого", "addr:housenumber": "15", "landuse": null, "type": null, "name": "Церковь Спаса Преображения", "denomination": "russian_orthodox", "building": "church" }, "geometry": { "type": "Point", "coordinates": [ 36.481016956928485, 55.207204919294163 ] } },
{ "type": "Feature", "properties": { "full_id": "w205603396", "osm_id": "205603396", "osm_type": "way", "religion": "christian", "amenity": "place_of_worship", "wikidata": null, "denomination:ru": "старообрядцы", "addr:place": "площадь Протопопа Аввакума", "abandoned": "yes", "start_date": null, "source:addr": null, "ref:temples.ru": "8762", "ref:sobory.ru": null, "name:ru": null, "contact:website": null, "addr:street": null, "addr:housenumber": "1", "landuse": null, "type": null, "name": "Церковь Покрова Пресвятой Богородицы", "denomination": "old_believers", "building": "church" }, "geometry": { "type": "Point", "coordinates": [ 36.4991364, 55.21305045 ] } },
{ "type": "Feature", "properties": { "full_id": "w205603479", "osm_id": "205603479", "osm_type": "way", "religion": "christian", "amenity": "place_of_worship", "wikidata": null, "denomination:ru": "РПСЦ", "addr:place": null, "abandoned": null, "start_date": null, "source:addr": "ЕГРН", "ref:temples.ru": null, "ref:sobory.ru": null, "name:ru": null, "contact:website": null, "addr:street": "Советская улица", "addr:housenumber": "6Б", "landuse": null, "type": null, "name": "Старообрядческая часовня", "denomination": "old_believers", "building": "chapel" }, "geometry": { "type": "Point", "coordinates": [ 36.485927643550369, 55.209657759108573 ] } },
{ "type": "Feature", "properties": { "full_id": "w205603523", "osm_id": "205603523", "osm_type": "way", "religion": "christian", "amenity": "place_of_worship", "wikidata": "Q87063567", "denomination:ru": "РПСЦ", "addr:place": null, "abandoned": null, "start_date": null, "source:addr": "ЕГРН", "ref:temples.ru": null, "ref:sobory.ru": null, "name:ru": null, "contact:website": null, "addr:street": "улица Циолковского", "addr:housenumber": "10", "landuse": null, "type": null, "name": "церковь Введения во Храм Пресвятой Богородицы", "denomination": "old_believers", "building": "church" }, "geometry": { "type": "Point", "coordinates": [ 36.493167786002289, 55.207900879212836 ] } },
{ "type": "Feature", "properties": { "full_id": "w207438995", "osm_id": "207438995", "osm_type": "way", "religion": "christian", "amenity": "place_of_worship", "wikidata": null, "denomination:ru": null, "addr:place": null, "abandoned": null, "start_date": null, "source:addr": null, "ref:temples.ru": "8759", "ref:sobory.ru": null, "name:ru": null, "contact:website": null, "addr:street": null, "addr:housenumber": null, "landuse": null, "type": null, "name": "Церковь Бориса и Глеба", "denomination": "russian_orthodox", "building": "church" }, "geometry": { "type": "Point", "coordinates": [ 36.505000639708285, 55.21413345910527 ] } },
{ "type": "Feature", "properties": { "full_id": "w210394749", "osm_id": "210394749", "osm_type": "way", "religion": "christian", "amenity": "place_of_worship", "wikidata": null, "denomination:ru": null, "addr:place": null, "abandoned": null, "start_date": "1814", "source:addr": null, "ref:temples.ru": "8046", "ref:sobory.ru": null, "name:ru": null, "contact:website": null, "addr:street": null, "addr:housenumber": null, "landuse": null, "type": null, "name": "Церковь Воздвижения Честного Креста Господня", "denomination": "russian_orthodox", "building": "church" }, "geometry": { "type": "Point", "coordinates": [ 36.485332844250699, 55.201596605224694 ] } },
{ "type": "Feature", "properties": { "full_id": "w797259025", "osm_id": "797259025", "osm_type": "way", "religion": "christian", "amenity": null, "wikidata": null, "denomination:ru": null, "addr:place": null, "abandoned": null, "start_date": null, "source:addr": null, "ref:temples.ru": null, "ref:sobory.ru": null, "name:ru": null, "contact:website": null, "addr:street": null, "addr:housenumber": null, "landuse": "cemetery", "type": null, "name": "Записное старообрядческое кладбище", "denomination": "russian_orthodox", "building": null }, "geometry": { "type": "Point", "coordinates": [ 36.505137247630877, 55.218113898021848 ] } }
]
}
