{
"type": "FeatureCollection",
"name": "tour",
"crs": { "type": "name", "properties": { "name": "urn:ogc:def:crs:OGC:1.3:CRS84" } },
"features": [
{ "type": "Feature", "properties": { "full_id": "n2196513064", "osm_id": "2196513064", "osm_type": "node", "historic": "memorial", "tourism": null, "memorial": null, "direction": null, "wikidata": null, "phone": null, "name:en": null, "museum": null, "email": null, "addr:housenumber": null, "name:ru": null, "check_date": null, "war_memorial": null, "material": null, "amenity": null, "website": null, "operator": null, "opening_hours": null, "addr:street": null, "addr:postcode": null, "addr:city": null, "shop": null, "artwork_type": null, "artist_name": null, "subject:wikipedia": null, "subject:wikidata": null, "name": "памятный камень в честь героев Куликовской битвы" }, "geometry": { "type": "Point", "coordinates": [ 36.4857963, 55.2101488 ] } },
{ "type": "Feature", "properties": { "full_id": "n2201667325", "osm_id": "2201667325", "osm_type": "node", "historic": "memorial", "tourism": null, "memorial": null, "direction": null, "wikidata": null, "phone": null, "name:en": null, "museum": null, "email": null, "addr:housenumber": null, "name:ru": null, "check_date": null, "war_memorial": null, "material": null, "amenity": null, "website": null, "operator": null, "opening_hours": null, "addr:street": null, "addr:postcode": null, "addr:city": null, "shop": null, "artwork_type": null, "artist_name": null, "subject:wikipedia": null, "subject:wikidata": null, "name": null }, "geometry": { "type": "Point", "coordinates": [ 36.4742037, 55.2064588 ] } },
{ "type": "Feature", "properties": { "full_id": "n2203099128", "osm_id": "2203099128", "osm_type": "node", "historic": null, "tourism": "viewpoint", "memorial": null, "direction": null, "wikidata": null, "phone": null, "name:en": null, "museum": null, "email": null, "addr:housenumber": null, "name:ru": null, "check_date": null, "war_memorial": null, "material": null, "amenity": null, "website": null, "operator": null, "opening_hours": null, "addr:street": null, "addr:postcode": null, "addr:city": null, "shop": null, "artwork_type": null, "artist_name": null, "subject:wikipedia": null, "subject:wikidata": null, "name": null }, "geometry": { "type": "Point", "coordinates": [ 36.4870629, 55.209294 ] } },
{ "type": "Feature", "properties": { "full_id": "n2203254508", "osm_id": "2203254508", "osm_type": "node", "historic": null, "tourism": "viewpoint", "memorial": null, "direction": null, "wikidata": null, "phone": null, "name:en": null, "museum": null, "email": null, "addr:housenumber": null, "name:ru": null, "check_date": null, "war_memorial": null, "material": null, "amenity": null, "website": null, "operator": null, "opening_hours": null, "addr:street": null, "addr:postcode": null, "addr:city": null, "shop": null, "artwork_type": null, "artist_name": null, "subject:wikipedia": null, "subject:wikidata": null, "name": null }, "geometry": { "type": "Point", "coordinates": [ 36.4876343, 55.2058001 ] } },
{ "type": "Feature", "properties": { "full_id": "n2638558011", "osm_id": "2638558011", "osm_type": "node", "historic": "memorial", "tourism": null, "memorial": null, "direction": null, "wikidata": null, "phone": null, "name:en": null, "museum": null, "email": null, "addr:housenumber": null, "name:ru": null, "check_date": null, "war_memorial": null, "material": null, "amenity": null, "website": null, "operator": null, "opening_hours": null, "addr:street": null, "addr:postcode": null, "addr:city": null, "shop": null, "artwork_type": null, "artist_name": null, "subject:wikipedia": "ru:Сенявин, Дмитрий Николаевич", "subject:wikidata": "Q638642", "name": "Памятник адмиралу Сенявину" }, "geometry": { "type": "Point", "coordinates": [ 36.5095569, 55.1883662 ] } },
{ "type": "Feature", "properties": { "full_id": "n2958375746", "osm_id": "2958375746", "osm_type": "node", "historic": null, "tourism": "artwork", "memorial": null, "direction": null, "wikidata": null, "phone": null, "name:en": null, "museum": null, "email": null, "addr:housenumber": null, "name:ru": null, "check_date": null, "war_memorial": null, "material": null, "amenity": null, "website": null, "operator": null, "opening_hours": null, "addr:street": null, "addr:postcode": null, "addr:city": null, "shop": null, "artwork_type": "mural", "artist_name": "Владимир Овчинников", "subject:wikipedia": null, "subject:wikidata": null, "name": "Глобус Боровска" }, "geometry": { "type": "Point", "coordinates": [ 36.485838, 55.2087132 ] } },
{ "type": "Feature", "properties": { "full_id": "n2958378142", "osm_id": "2958378142", "osm_type": "node", "historic": null, "tourism": "artwork", "memorial": null, "direction": null, "wikidata": null, "phone": null, "name:en": null, "museum": null, "email": null, "addr:housenumber": null, "name:ru": null, "check_date": null, "war_memorial": null, "material": null, "amenity": null, "website": null, "operator": null, "opening_hours": null, "addr:street": null, "addr:postcode": null, "addr:city": null, "shop": null, "artwork_type": "mural", "artist_name": "Владимир Овчинников", "subject:wikipedia": null, "subject:wikidata": null, "name": "Успенская улица" }, "geometry": { "type": "Point", "coordinates": [ 36.4868146, 55.2043154 ] } },
{ "type": "Feature", "properties": { "full_id": "n3423704435", "osm_id": "3423704435", "osm_type": "node", "historic": "memorial", "tourism": null, "memorial": null, "direction": null, "wikidata": null, "phone": null, "name:en": null, "museum": null, "email": null, "addr:housenumber": null, "name:ru": null, "check_date": null, "war_memorial": null, "material": null, "amenity": null, "website": null, "operator": null, "opening_hours": null, "addr:street": null, "addr:postcode": null, "addr:city": null, "shop": null, "artwork_type": null, "artist_name": null, "subject:wikipedia": null, "subject:wikidata": null, "name": "Братская могила" }, "geometry": { "type": "Point", "coordinates": [ 36.5018728, 55.1887552 ] } },
{ "type": "Feature", "properties": { "full_id": "n4885976844", "osm_id": "4885976844", "osm_type": "node", "historic": null, "tourism": "museum", "memorial": null, "direction": null, "wikidata": null, "phone": null, "name:en": null, "museum": null, "email": null, "addr:housenumber": null, "name:ru": null, "check_date": null, "war_memorial": null, "material": null, "amenity": null, "website": "https://mvc-borovsk.kaluga.muzkult.ru/", "operator": "Музейно-выставочный центр", "opening_hours": "Mo-Su 10:00-17:00", "addr:street": "площадь Ленина, д.42", "addr:postcode": "249010", "addr:city": "Боровск", "shop": null, "artwork_type": null, "artist_name": null, "subject:wikipedia": null, "subject:wikidata": null, "name": "Культурный центр" }, "geometry": { "type": "Point", "coordinates": [ 36.4853845, 55.2074397 ] } },
{ "type": "Feature", "properties": { "full_id": "n4885979666", "osm_id": "4885979666", "osm_type": "node", "historic": "memorial", "tourism": null, "memorial": null, "direction": null, "wikidata": null, "phone": null, "name:en": null, "museum": null, "email": null, "addr:housenumber": null, "name:ru": null, "check_date": null, "war_memorial": null, "material": null, "amenity": null, "website": null, "operator": null, "opening_hours": null, "addr:street": null, "addr:postcode": null, "addr:city": null, "shop": null, "artwork_type": null, "artist_name": null, "subject:wikipedia": null, "subject:wikidata": null, "name": "Памятник Сенявину Д. Н." }, "geometry": { "type": "Point", "coordinates": [ 36.4861785, 55.2072591 ] } },
{ "type": "Feature", "properties": { "full_id": "n4885983009", "osm_id": "4885983009", "osm_type": "node", "historic": null, "tourism": "viewpoint", "memorial": null, "direction": null, "wikidata": null, "phone": null, "name:en": null, "museum": null, "email": null, "addr:housenumber": null, "name:ru": null, "check_date": null, "war_memorial": null, "material": null, "amenity": null, "website": null, "operator": null, "opening_hours": null, "addr:street": null, "addr:postcode": null, "addr:city": null, "shop": null, "artwork_type": null, "artist_name": null, "subject:wikipedia": null, "subject:wikidata": null, "name": null }, "geometry": { "type": "Point", "coordinates": [ 36.4864664, 55.2073679 ] } },
{ "type": "Feature", "properties": { "full_id": "n5319964564", "osm_id": "5319964564", "osm_type": "node", "historic": null, "tourism": "artwork", "memorial": null, "direction": null, "wikidata": null, "phone": null, "name:en": null, "museum": null, "email": null, "addr:housenumber": null, "name:ru": null, "check_date": null, "war_memorial": null, "material": null, "amenity": "fountain", "website": null, "operator": null, "opening_hours": null, "addr:street": null, "addr:postcode": null, "addr:city": null, "shop": null, "artwork_type": "sculpture", "artist_name": null, "subject:wikipedia": null, "subject:wikidata": null, "name": "Пусть светит!" }, "geometry": { "type": "Point", "coordinates": [ 36.4881871, 55.202167 ] } },
{ "type": "Feature", "properties": { "full_id": "n5319968470", "osm_id": "5319968470", "osm_type": "node", "historic": null, "tourism": "artwork", "memorial": null, "direction": null, "wikidata": null, "phone": null, "name:en": null, "museum": null, "email": null, "addr:housenumber": null, "name:ru": null, "check_date": null, "war_memorial": null, "material": null, "amenity": null, "website": null, "operator": null, "opening_hours": null, "addr:street": null, "addr:postcode": null, "addr:city": null, "shop": null, "artwork_type": "sculpture", "artist_name": null, "subject:wikipedia": null, "subject:wikidata": null, "name": "Юрий Гагарин" }, "geometry": { "type": "Point", "coordinates": [ 36.4863013, 55.2089765 ] } },
{ "type": "Feature", "properties": { "full_id": "n7454824472", "osm_id": "7454824472", "osm_type": "node", "historic": "memorial", "tourism": null, "memorial": null, "direction": null, "wikidata": null, "phone": null, "name:en": null, "museum": null, "email": null, "addr:housenumber": null, "name:ru": null, "check_date": null, "war_memorial": null, "material": null, "amenity": null, "website": null, "operator": null, "opening_hours": null, "addr:street": null, "addr:postcode": null, "addr:city": null, "shop": null, "artwork_type": null, "artist_name": null, "subject:wikipedia": null, "subject:wikidata": null, "name": null }, "geometry": { "type": "Point", "coordinates": [ 36.5030609, 55.1924237 ] } },
{ "type": "Feature", "properties": { "full_id": "n7711346410", "osm_id": "7711346410", "osm_type": "node", "historic": "memorial", "tourism": null, "memorial": "stele", "direction": null, "wikidata": null, "phone": null, "name:en": null, "museum": null, "email": null, "addr:housenumber": null, "name:ru": null, "check_date": null, "war_memorial": "yes", "material": null, "amenity": null, "website": null, "operator": null, "opening_hours": null, "addr:street": null, "addr:postcode": null, "addr:city": null, "shop": null, "artwork_type": null, "artist_name": null, "subject:wikipedia": null, "subject:wikidata": null, "name": "Памятный знак в честь присвоения городу Боровску почётного звания Калужской области «Город воинской доблести»" }, "geometry": { "type": "Point", "coordinates": [ 36.500145, 55.2129359 ] } },
{ "type": "Feature", "properties": { "full_id": "n7726023486", "osm_id": "7726023486", "osm_type": "node", "historic": null, "tourism": "museum", "memorial": null, "direction": null, "wikidata": null, "phone": null, "name:en": null, "museum": null, "email": null, "addr:housenumber": null, "name:ru": "Музей Компьютеров братьев Архиповых", "check_date": "2024-09-15", "war_memorial": null, "material": null, "amenity": null, "website": null, "operator": null, "opening_hours": "Sa-Su 11:00-17:00", "addr:street": null, "addr:postcode": null, "addr:city": null, "shop": null, "artwork_type": null, "artist_name": null, "subject:wikipedia": null, "subject:wikidata": null, "name": "Музей Компьютеров братьев" }, "geometry": { "type": "Point", "coordinates": [ 36.4860771, 55.2085237 ] } },
{ "type": "Feature", "properties": { "full_id": "n8789301919", "osm_id": "8789301919", "osm_type": "node", "historic": null, "tourism": "viewpoint", "memorial": null, "direction": null, "wikidata": null, "phone": null, "name:en": null, "museum": null, "email": null, "addr:housenumber": null, "name:ru": null, "check_date": null, "war_memorial": null, "material": null, "amenity": null, "website": null, "operator": null, "opening_hours": null, "addr:street": null, "addr:postcode": null, "addr:city": null, "shop": null, "artwork_type": null, "artist_name": null, "subject:wikipedia": null, "subject:wikidata": null, "name": null }, "geometry": { "type": "Point", "coordinates": [ 36.4869063, 55.2074389 ] } },
{ "type": "Feature", "properties": { "full_id": "n8793792717", "osm_id": "8793792717", "osm_type": "node", "historic": "memorial", "tourism": null, "memorial": null, "direction": null, "wikidata": null, "phone": null, "name:en": null, "museum": null, "email": null, "addr:housenumber": null, "name:ru": "Памятник Циолковскому", "check_date": null, "war_memorial": null, "material": null, "amenity": null, "website": null, "operator": null, "opening_hours": null, "addr:street": null, "addr:postcode": null, "addr:city": null, "shop": null, "artwork_type": null, "artist_name": null, "subject:wikipedia": null, "subject:wikidata": null, "name": "Памятник" }, "geometry": { "type": "Point", "coordinates": [ 36.4849919, 55.2090208 ] } },
{ "type": "Feature", "properties": { "full_id": "n9253887319", "osm_id": "9253887319", "osm_type": "node", "historic": "memorial", "tourism": null, "memorial": null, "direction": null, "wikidata": null, "phone": null, "name:en": null, "museum": null, "email": null, "addr:housenumber": null, "name:ru": null, "check_date": null, "war_memorial": null, "material": null, "amenity": null, "website": null, "operator": null, "opening_hours": null, "addr:street": null, "addr:postcode": null, "addr:city": null, "shop": null, "artwork_type": null, "artist_name": null, "subject:wikipedia": null, "subject:wikidata": null, "name": "Ленин" }, "geometry": { "type": "Point", "coordinates": [ 36.4553234, 55.2114297 ] } },
{ "type": "Feature", "properties": { "full_id": "n10250457009", "osm_id": "10250457009", "osm_type": "node", "historic": null, "tourism": "museum", "memorial": null, "direction": null, "wikidata": "Q121357620", "phone": "+79262095775", "name:en": "house-museum of the airplane Yak-40", "museum": "aerospace", "email": "borovsk.22@ya.ru", "addr:housenumber": "22", "name:ru": null, "check_date": null, "war_memorial": null, "material": null, "amenity": null, "website": "http://borovsk-camping.ru", "operator": null, "opening_hours": "Fr-Sa 10:00-18:00; Su-Th 00:00-24:00", "addr:street": "Калужская улица", "addr:postcode": null, "addr:city": null, "shop": null, "artwork_type": null, "artist_name": null, "subject:wikipedia": null, "subject:wikidata": null, "name": "музей Дом Самолёта ЯК-40" }, "geometry": { "type": "Point", "coordinates": [ 36.4822291, 55.2048994 ] } },
{ "type": "Feature", "properties": { "full_id": "n11895697869", "osm_id": "11895697869", "osm_type": "node", "historic": null, "tourism": "viewpoint", "memorial": null, "direction": null, "wikidata": null, "phone": null, "name:en": null, "museum": null, "email": null, "addr:housenumber": null, "name:ru": null, "check_date": null, "war_memorial": null, "material": null, "amenity": null, "website": null, "operator": null, "opening_hours": null, "addr:street": null, "addr:postcode": null, "addr:city": null, "shop": null, "artwork_type": null, "artist_name": null, "subject:wikipedia": null, "subject:wikidata": null, "name": null }, "geometry": { "type": "Point", "coordinates": [ 36.4884097, 55.2037202 ] } },
{ "type": "Feature", "properties": { "full_id": "n13171731155", "osm_id": "13171731155", "osm_type": "node", "historic": null, "tourism": "viewpoint", "memorial": null, "direction": null, "wikidata": null, "phone": null, "name:en": null, "museum": null, "email": null, "addr:housenumber": null, "name:ru": null, "check_date": null, "war_memorial": null, "material": null, "amenity": null, "website": null, "operator": null, "opening_hours": null, "addr:street": null, "addr:postcode": null, "addr:city": null, "shop": null, "artwork_type": null, "artist_name": null, "subject:wikipedia": null, "subject:wikidata": null, "name": null }, "geometry": { "type": "Point", "coordinates": [ 36.49063, 55.20421 ] } },
{ "type": "Feature", "properties": { "full_id": "n13380425923", "osm_id": "13380425923", "osm_type": "node", "historic": null, "tourism": "museum", "memorial": null, "direction": null, "wikidata": null, "phone": null, "name:en": null, "museum": "art", "email": null, "addr:housenumber": "11", "name:ru": null, "check_date": null, "war_memorial": null, "material": null, "amenity": null, "website": null, "operator": null, "opening_hours": "Mo-Fr 10:00-18:00", "addr:street": "улица Мира", "addr:postcode": "249010", "addr:city": "Боровск", "shop": null, "artwork_type": null, "artist_name": null, "subject:wikipedia": null, "subject:wikidata": null, "name": "Картинная галерея Людмилы Киселевой" }, "geometry": { "type": "Point", "coordinates": [ 36.4876095, 55.2021197 ] } },
{ "type": "Feature", "properties": { "full_id": "w205657852", "osm_id": "205657852", "osm_type": "way", "historic": null, "tourism": "museum", "memorial": null, "direction": null, "wikidata": null, "phone": "+7 48438 43999", "name:en": null, "museum": null, "email": null, "addr:housenumber": "49", "name:ru": null, "check_date": null, "war_memorial": null, "material": null, "amenity": null, "website": null, "operator": "Государственный музей истории космонавтики", "opening_hours": null, "addr:street": "улица Циолковского", "addr:postcode": "249010", "addr:city": "Боровск", "shop": null, "artwork_type": null, "artist_name": null, "subject:wikipedia": null, "subject:wikidata": null, "name": "Музей-квартира К.Э. Циолковского" }, "geometry": { "type": "Point", "coordinates": [ 36.501146230349342, 55.210196894009798 ] } },
{ "type": "Feature", "properties": { "full_id": "w110491683", "osm_id": "110491683", "osm_type": "way", "historic": null, "tourism": "museum", "memorial": null, "direction": null, "wikidata": null, "phone": null, "name:en": null, "museum": null, "email": null, "addr:housenumber": "27", "name:ru": null, "check_date": null, "war_memorial": null, "material": null, "amenity": null, "website": null, "operator": null, "opening_hours": "Mo-Fr 10:00-18:00", "addr:street": "улица Ленина", "addr:postcode": "249010", "addr:city": "Боровск", "shop": null, "artwork_type": null, "artist_name": null, "subject:wikipedia": null, "subject:wikidata": null, "name": "Музейно-выставочный центр" }, "geometry": { "type": "Point", "coordinates": [ 36.48771415, 55.2036819 ] } },
{ "type": "Feature", "properties": { "full_id": "w110490540", "osm_id": "110490540", "osm_type": "way", "historic": null, "tourism": "museum", "memorial": null, "direction": null, "wikidata": null, "phone": null, "name:en": null, "museum": null, "email": null, "addr:housenumber": "7", "name:ru": null, "check_date": null, "war_memorial": null, "material": null, "amenity": null, "website": null, "operator": "Калужский областной креведческий музей", "opening_hours": "Tu-Su 10:00-17:00", "addr:street": "площадь Ленина", "addr:postcode": "249010", "addr:city": "Боровск", "shop": null, "artwork_type": null, "artist_name": null, "subject:wikipedia": null, "subject:wikidata": null, "name": "Городской музей" }, "geometry": { "type": "Point", "coordinates": [ 36.482868142123813, 55.208126832139264 ] } },
{ "type": "Feature", "properties": { "full_id": null, "osm_id": null, "osm_type": null, "historic": null, "tourism": null, "memorial": null, "direction": null, "wikidata": null, "phone": null, "name:en": null, "museum": null, "email": null, "addr:housenumber": null, "name:ru": null, "check_date": null, "war_memorial": null, "material": null, "amenity": null, "website": null, "operator": null, "opening_hours": null, "addr:street": null, "addr:postcode": null, "addr:city": null, "shop": null, "artwork_type": null, "artist_name": null, "subject:wikipedia": null, "subject:wikidata": null, "name": null }, "geometry": { "type": "Point", "coordinates": [ 36.485267275767448, 55.207411181247387 ] } },
{ "type": "Feature", "properties": { "full_id": null, "osm_id": null, "osm_type": null, "historic": null, "tourism": "viewport", "memorial": null, "direction": null, "wikidata": null, "phone": null, "name:en": null, "museum": null, "email": null, "addr:housenumber": null, "name:ru": null, "check_date": null, "war_memorial": null, "material": null, "amenity": null, "website": null, "operator": null, "opening_hours": null, "addr:street": null, "addr:postcode": null, "addr:city": null, "shop": null, "artwork_type": null, "artist_name": null, "subject:wikipedia": null, "subject:wikidata": null, "name": null }, "geometry": { "type": "Point", "coordinates": [ 36.486820629310174, 55.207508035293671 ] } },
{ "type": "Feature", "properties": { "full_id": null, "osm_id": null, "osm_type": null, "historic": null, "tourism": null, "memorial": null, "direction": null, "wikidata": null, "phone": null, "name:en": null, "museum": null, "email": null, "addr:housenumber": null, "name:ru": null, "check_date": null, "war_memorial": null, "material": null, "amenity": null, "website": null, "operator": null, "opening_hours": null, "addr:street": null, "addr:postcode": null, "addr:city": null, "shop": null, "artwork_type": null, "artist_name": null, "subject:wikipedia": null, "subject:wikidata": null, "name": null }, "geometry": { "type": "Point", "coordinates": [ 36.486585222348005, 55.208569301973846 ] } },
{ "type": "Feature", "properties": { "full_id": null, "osm_id": null, "osm_type": null, "historic": null, "tourism": null, "memorial": null, "direction": null, "wikidata": null, "phone": null, "name:en": null, "museum": null, "email": null, "addr:housenumber": null, "name:ru": null, "check_date": null, "war_memorial": null, "material": null, "amenity": null, "website": null, "operator": null, "opening_hours": null, "addr:street": null, "addr:postcode": null, "addr:city": null, "shop": null, "artwork_type": null, "artist_name": null, "subject:wikipedia": null, "subject:wikidata": null, "name": null }, "geometry": { "type": "Point", "coordinates": [ 36.479680049746513, 55.206666829732065 ] } },
{ "type": "Feature", "properties": { "full_id": null, "osm_id": null, "osm_type": null, "historic": null, "tourism": null, "memorial": null, "direction": null, "wikidata": null, "phone": null, "name:en": null, "museum": null, "email": null, "addr:housenumber": null, "name:ru": null, "check_date": null, "war_memorial": null, "material": null, "amenity": null, "website": null, "operator": null, "opening_hours": null, "addr:street": null, "addr:postcode": null, "addr:city": null, "shop": null, "artwork_type": null, "artist_name": null, "subject:wikipedia": null, "subject:wikidata": null, "name": null }, "geometry": { "type": "Point", "coordinates": [ 36.486430336878605, 55.203493061926984 ] } },
{ "type": "Feature", "properties": { "full_id": null, "osm_id": null, "osm_type": null, "historic": null, "tourism": null, "memorial": null, "direction": null, "wikidata": null, "phone": null, "name:en": null, "museum": null, "email": null, "addr:housenumber": null, "name:ru": null, "check_date": null, "war_memorial": null, "material": null, "amenity": null, "website": null, "operator": null, "opening_hours": null, "addr:street": null, "addr:postcode": null, "addr:city": null, "shop": null, "artwork_type": null, "artist_name": null, "subject:wikipedia": null, "subject:wikidata": null, "name": null }, "geometry": { "type": "Point", "coordinates": [ 36.499383648891545, 55.213833649607416 ] } }
]
}
