{
"type": "FeatureCollection",
"name": "tour",
"crs": { "type": "name", "properties": { "name": "urn:ogc:def:crs:OGC:1.3:CRS84" } },
"features": [
{ "type": "Feature", "properties": { "full_id": "n4942432267", "osm_id": "4942432267", "osm_type": "node", "historic": "memorial", "name": "Памятник комсомольцам" }, "geometry": { "type": "Point", "coordinates": [ 36.5024267, 52.4002473 ] } },
{ "type": "Feature", "properties": { "full_id": "n4942496321", "osm_id": "4942496321", "osm_type": "node", "historic": "memorial", "name": "А. С. Пушкину" }, "geometry": { "type": "Point", "coordinates": [ 36.5060595, 52.4008985 ] } },
{ "type": "Feature", "properties": { "full_id": "n6718077586", "osm_id": "6718077586", "osm_type": "node", "historic": "memorial", "name": "А.С. Пушкин" }, "geometry": { "type": "Point", "coordinates": [ 36.5060025, 52.4007828 ] } },
{ "type": "Feature", "properties": { "full_id": "n6718118389", "osm_id": "6718118389", "osm_type": "node", "historic": "memorial", "name": "А.С. Пушкин" }, "geometry": { "type": "Point", "coordinates": [ 36.5059477, 52.4007863 ] } },
{ "type": "Feature", "properties": { "full_id": "n9823096944", "osm_id": "9823096944", "osm_type": "node", "historic": "memorial", "name": "САУ Гвоздика" }, "geometry": { "type": "Point", "coordinates": [ 36.4903432, 52.4097136 ] } },
{ "type": "Feature", "properties": { "full_id": "w504034912", "osm_id": "504034912", "osm_type": "way", "historic": null, "name": null }, "geometry": { "type": "Point", "coordinates": [ 36.50887255, 52.4010543 ] } }
]
}
