{
"type": "FeatureCollection",
"name": "food",
"crs": { "type": "name", "properties": { "name": "urn:ogc:def:crs:OGC:1.3:CRS84" } },
"features": [
{ "type": "Feature", "properties": { "full_id": null, "osm_id": null, "osm_type": null, "amenity": "restaraunt", "email": null, "addr:postcode": null, "toilets": null, "building": null, "drink:coffee": null, "addr:street": null, "addr:housenumber": null, "shop": null, "phone": null, "delivery": null, "contact:twitter": null, "contact:ok": null, "contact:instagram": null, "contact:facebook": null, "was:amenity": null, "operator": null, "opening_hours": null, "name:ru": null, "internet_access:fee": null, "internet_access": null, "contact:vk": null, "contact:telegram": null, "check_date": null, "brand:wikipedia": null, "takeaway": null, "smoking": null, "old_name:en": null, "old_name": null, "name:en": null, "name": null, "diet:vegetarian": null, "cuisine": null, "contact:website": null, "contact:phone": null, "contact:email": null, "brand:wikidata": null, "brand:ru": null, "brand:en": null, "brand": null, "addr:country": null }, "geometry": { "type": "Point", "coordinates": [ 38.440685542917585, 55.856881632395378 ] } },
{ "type": "Feature", "properties": { "full_id": null, "osm_id": null, "osm_type": null, "amenity": "restaraunt", "email": null, "addr:postcode": null, "toilets": null, "building": null, "drink:coffee": null, "addr:street": null, "addr:housenumber": null, "shop": null, "phone": null, "delivery": null, "contact:twitter": null, "contact:ok": null, "contact:instagram": null, "contact:facebook": null, "was:amenity": null, "operator": null, "opening_hours": null, "name:ru": null, "internet_access:fee": null, "internet_access": null, "contact:vk": null, "contact:telegram": null, "check_date": null, "brand:wikipedia": null, "takeaway": null, "smoking": null, "old_name:en": null, "old_name": null, "name:en": null, "name": null, "diet:vegetarian": null, "cuisine": null, "contact:website": null, "contact:phone": null, "contact:email": null, "brand:wikidata": null, "brand:ru": null, "brand:en": null, "brand": null, "addr:country": null }, "geometry": { "type": "Point", "coordinates": [ 38.43898161503693, 55.856683241352215 ] } },
{ "type": "Feature", "properties": { "full_id": "n599723730", "osm_id": "599723730", "osm_type": "node", "amenity": "fast_food", "email": null, "addr:postcode": null, "toilets": null, "building": null, "drink:coffee": null, "addr:street": null, "addr:housenumber": null, "shop": null, "phone": null, "delivery": null, "contact:twitter": null, "contact:ok": null, "contact:instagram": null, "contact:facebook": null, "was:amenity": null, "operator": null, "opening_hours": null, "name:ru": null, "internet_access:fee": null, "internet_access": null, "contact:vk": null, "contact:telegram": null, "check_date": null, "brand:wikipedia": null, "takeaway": "yes", "smoking": "no", "old_name:en": "McDonald’s", "old_name": "Макдоналдс", "name:en": "Vkusno i tochka", "name": "Вкусно — и точка", "diet:vegetarian": "no", "cuisine": "burger", "contact:website": "https://vkusnoitochka.ru/", "contact:phone": "+7 496 5192904", "contact:email": "info@qsrsystem.ru", "brand:wikidata": "Q112406961", "brand:ru": "Вкусно — и точка", "brand:en": "Vkusno i tochka", "brand": "Вкусно — и точка", "addr:country": "RU" }, "geometry": { "type": "Point", "coordinates": [ 38.4414999, 55.8524536 ] } },
{ "type": "Feature", "properties": { "full_id": "n2401103074", "osm_id": "2401103074", "osm_type": "node", "amenity": "restaurant", "email": null, "addr:postcode": null, "toilets": null, "building": null, "drink:coffee": null, "addr:street": null, "addr:housenumber": null, "shop": null, "phone": null, "delivery": null, "contact:twitter": null, "contact:ok": null, "contact:instagram": null, "contact:facebook": null, "was:amenity": null, "operator": null, "opening_hours": null, "name:ru": null, "internet_access:fee": null, "internet_access": null, "contact:vk": null, "contact:telegram": null, "check_date": null, "brand:wikipedia": null, "takeaway": null, "smoking": null, "old_name:en": null, "old_name": null, "name:en": null, "name": "Беркут", "diet:vegetarian": null, "cuisine": null, "contact:website": null, "contact:phone": null, "contact:email": null, "brand:wikidata": null, "brand:ru": null, "brand:en": null, "brand": null, "addr:country": null }, "geometry": { "type": "Point", "coordinates": [ 38.4288033, 55.8512749 ] } },
{ "type": "Feature", "properties": { "full_id": "n2661402162", "osm_id": "2661402162", "osm_type": "node", "amenity": "fast_food", "email": null, "addr:postcode": null, "toilets": null, "building": null, "drink:coffee": null, "addr:street": null, "addr:housenumber": null, "shop": null, "phone": null, "delivery": null, "contact:twitter": null, "contact:ok": null, "contact:instagram": null, "contact:facebook": null, "was:amenity": null, "operator": "ООО \"Бургер Рус\"", "opening_hours": "Mo-Su 07:00-23:55", "name:ru": "Бургер Кинг", "internet_access:fee": "no", "internet_access": "wlan", "contact:vk": "https://vk.com/burgerking", "contact:telegram": "https://t.me/burgerkingrf", "check_date": "2025-11-15", "brand:wikipedia": "ru:Burger King", "takeaway": "yes", "smoking": null, "old_name:en": null, "old_name": null, "name:en": "Burger King", "name": "Бургер Кинг", "diet:vegetarian": "no", "cuisine": "burger", "contact:website": "https://burgerkingrus.ru/", "contact:phone": "+7 495 5445000", "contact:email": "info@burgerkingrus.ru", "brand:wikidata": "Q177054", "brand:ru": "Бургер Кинг", "brand:en": "Burger King", "brand": "Бургер Кинг", "addr:country": null }, "geometry": { "type": "Point", "coordinates": [ 38.4390433, 55.8548689 ] } },
{ "type": "Feature", "properties": { "full_id": "n3352836347", "osm_id": "3352836347", "osm_type": "node", "amenity": "cafe", "email": null, "addr:postcode": null, "toilets": null, "building": null, "drink:coffee": null, "addr:street": null, "addr:housenumber": null, "shop": null, "phone": null, "delivery": null, "contact:twitter": null, "contact:ok": null, "contact:instagram": null, "contact:facebook": null, "was:amenity": null, "operator": null, "opening_hours": null, "name:ru": null, "internet_access:fee": null, "internet_access": null, "contact:vk": null, "contact:telegram": null, "check_date": null, "brand:wikipedia": null, "takeaway": null, "smoking": null, "old_name:en": null, "old_name": null, "name:en": null, "name": "Самолет", "diet:vegetarian": null, "cuisine": null, "contact:website": null, "contact:phone": null, "contact:email": null, "brand:wikidata": null, "brand:ru": null, "brand:en": null, "brand": null, "addr:country": null }, "geometry": { "type": "Point", "coordinates": [ 38.4384876, 55.8558821 ] } },
{ "type": "Feature", "properties": { "full_id": "n3625761708", "osm_id": "3625761708", "osm_type": "node", "amenity": "fast_food", "email": null, "addr:postcode": null, "toilets": null, "building": null, "drink:coffee": null, "addr:street": null, "addr:housenumber": null, "shop": null, "phone": null, "delivery": null, "contact:twitter": null, "contact:ok": null, "contact:instagram": null, "contact:facebook": null, "was:amenity": null, "operator": null, "opening_hours": "Mo-Su 10:00-23:00", "name:ru": null, "internet_access:fee": null, "internet_access": null, "contact:vk": null, "contact:telegram": null, "check_date": null, "brand:wikipedia": null, "takeaway": null, "smoking": null, "old_name:en": null, "old_name": null, "name:en": null, "name": "ПиццаФабрика", "diet:vegetarian": null, "cuisine": "pizza", "contact:website": "https://pizzafabrika.ru/", "contact:phone": "+7 800 5500600", "contact:email": "pizzafab.ngn@gmail.com", "brand:wikidata": null, "brand:ru": null, "brand:en": null, "brand": null, "addr:country": null }, "geometry": { "type": "Point", "coordinates": [ 38.4398045, 55.8553306 ] } },
{ "type": "Feature", "properties": { "full_id": "n3625776001", "osm_id": "3625776001", "osm_type": "node", "amenity": "fast_food", "email": null, "addr:postcode": null, "toilets": null, "building": null, "drink:coffee": null, "addr:street": null, "addr:housenumber": null, "shop": null, "phone": null, "delivery": null, "contact:twitter": null, "contact:ok": null, "contact:instagram": null, "contact:facebook": null, "was:amenity": null, "operator": null, "opening_hours": null, "name:ru": "Сушишоп", "internet_access:fee": null, "internet_access": null, "contact:vk": null, "contact:telegram": null, "check_date": null, "brand:wikipedia": null, "takeaway": "yes", "smoking": null, "old_name:en": null, "old_name": null, "name:en": "Sushishop", "name": "Сушишоп", "diet:vegetarian": null, "cuisine": "sushi", "contact:website": null, "contact:phone": null, "contact:email": null, "brand:wikidata": "Q104003006", "brand:ru": "Сушишоп", "brand:en": "Sushishop", "brand": "Сушишоп", "addr:country": null }, "geometry": { "type": "Point", "coordinates": [ 38.4389811, 55.8551303 ] } },
{ "type": "Feature", "properties": { "full_id": "n4239240089", "osm_id": "4239240089", "osm_type": "node", "amenity": "fast_food", "email": null, "addr:postcode": null, "toilets": null, "building": null, "drink:coffee": null, "addr:street": null, "addr:housenumber": null, "shop": null, "phone": null, "delivery": null, "contact:twitter": null, "contact:ok": null, "contact:instagram": null, "contact:facebook": null, "was:amenity": null, "operator": null, "opening_hours": "Mo-Su 07:00-00:00", "name:ru": null, "internet_access:fee": null, "internet_access": null, "contact:vk": "https://vk.com/rostics_official", "contact:telegram": null, "check_date": null, "brand:wikipedia": "ru:Ростикс", "takeaway": "yes", "smoking": null, "old_name:en": null, "old_name": "KFC", "name:en": "Rostic's", "name": "Rostic's", "diet:vegetarian": "no", "cuisine": "chicken", "contact:website": "https://rostics.ru", "contact:phone": null, "contact:email": null, "brand:wikidata": "Q3442874", "brand:ru": null, "brand:en": null, "brand": "Rostic's", "addr:country": null }, "geometry": { "type": "Point", "coordinates": [ 38.4421306, 55.8532607 ] } },
{ "type": "Feature", "properties": { "full_id": "n4242481082", "osm_id": "4242481082", "osm_type": "node", "amenity": "cafe", "email": null, "addr:postcode": null, "toilets": null, "building": null, "drink:coffee": null, "addr:street": null, "addr:housenumber": null, "shop": null, "phone": null, "delivery": null, "contact:twitter": null, "contact:ok": null, "contact:instagram": null, "contact:facebook": null, "was:amenity": "cafe", "operator": null, "opening_hours": null, "name:ru": null, "internet_access:fee": null, "internet_access": null, "contact:vk": null, "contact:telegram": null, "check_date": null, "brand:wikipedia": null, "takeaway": null, "smoking": null, "old_name:en": null, "old_name": null, "name:en": null, "name": "Встреча", "diet:vegetarian": null, "cuisine": null, "contact:website": null, "contact:phone": null, "contact:email": null, "brand:wikidata": null, "brand:ru": null, "brand:en": null, "brand": null, "addr:country": null }, "geometry": { "type": "Point", "coordinates": [ 38.4436188, 55.8512454 ] } },
{ "type": "Feature", "properties": { "full_id": "n4261550629", "osm_id": "4261550629", "osm_type": "node", "amenity": "cafe", "email": null, "addr:postcode": null, "toilets": null, "building": null, "drink:coffee": null, "addr:street": null, "addr:housenumber": null, "shop": null, "phone": null, "delivery": null, "contact:twitter": null, "contact:ok": null, "contact:instagram": null, "contact:facebook": null, "was:amenity": null, "operator": null, "opening_hours": null, "name:ru": null, "internet_access:fee": null, "internet_access": null, "contact:vk": null, "contact:telegram": null, "check_date": null, "brand:wikipedia": null, "takeaway": null, "smoking": null, "old_name:en": null, "old_name": null, "name:en": null, "name": null, "diet:vegetarian": null, "cuisine": null, "contact:website": null, "contact:phone": null, "contact:email": null, "brand:wikidata": null, "brand:ru": null, "brand:en": null, "brand": null, "addr:country": null }, "geometry": { "type": "Point", "coordinates": [ 38.4315628, 55.8550713 ] } },
{ "type": "Feature", "properties": { "full_id": "n4543006096", "osm_id": "4543006096", "osm_type": "node", "amenity": "fast_food", "email": null, "addr:postcode": null, "toilets": null, "building": null, "drink:coffee": null, "addr:street": null, "addr:housenumber": null, "shop": "convenience", "phone": "+7 499 7544444", "delivery": "yes", "contact:twitter": "https://twitter.com/WokSushi", "contact:ok": "https://ok.ru/group/53844357873904", "contact:instagram": "https://www.instagram.com/sushi_wok", "contact:facebook": "https://www.facebook.com/sushiwokofficial", "was:amenity": null, "operator": null, "opening_hours": null, "name:ru": "Суши Wok", "internet_access:fee": null, "internet_access": null, "contact:vk": "https://vk.com/woksushi", "contact:telegram": null, "check_date": null, "brand:wikipedia": null, "takeaway": "yes", "smoking": null, "old_name:en": null, "old_name": null, "name:en": "Sushi Wok", "name": "Суши Wok", "diet:vegetarian": null, "cuisine": "asian", "contact:website": "https://sushiwok.ru", "contact:phone": null, "contact:email": null, "brand:wikidata": "Q25444754", "brand:ru": "Суши Wok", "brand:en": "Sushi Wok", "brand": "Суши Wok", "addr:country": null }, "geometry": { "type": "Point", "coordinates": [ 38.438011, 55.8548887 ] } },
{ "type": "Feature", "properties": { "full_id": "n4555823517", "osm_id": "4555823517", "osm_type": "node", "amenity": "restaurant", "email": null, "addr:postcode": null, "toilets": null, "building": null, "drink:coffee": null, "addr:street": null, "addr:housenumber": null, "shop": null, "phone": null, "delivery": null, "contact:twitter": null, "contact:ok": null, "contact:instagram": null, "contact:facebook": null, "was:amenity": null, "operator": null, "opening_hours": null, "name:ru": null, "internet_access:fee": null, "internet_access": null, "contact:vk": null, "contact:telegram": null, "check_date": null, "brand:wikipedia": null, "takeaway": null, "smoking": null, "old_name:en": null, "old_name": null, "name:en": null, "name": "Пекин", "diet:vegetarian": null, "cuisine": "chinese", "contact:website": null, "contact:phone": null, "contact:email": null, "brand:wikidata": null, "brand:ru": null, "brand:en": null, "brand": null, "addr:country": null }, "geometry": { "type": "Point", "coordinates": [ 38.4481064, 55.8531688 ] } },
{ "type": "Feature", "properties": { "full_id": "n4756559208", "osm_id": "4756559208", "osm_type": "node", "amenity": "cafe", "email": null, "addr:postcode": null, "toilets": null, "building": null, "drink:coffee": null, "addr:street": null, "addr:housenumber": null, "shop": null, "phone": null, "delivery": null, "contact:twitter": null, "contact:ok": null, "contact:instagram": null, "contact:facebook": null, "was:amenity": null, "operator": null, "opening_hours": null, "name:ru": null, "internet_access:fee": null, "internet_access": null, "contact:vk": null, "contact:telegram": null, "check_date": null, "brand:wikipedia": null, "takeaway": null, "smoking": null, "old_name:en": null, "old_name": null, "name:en": null, "name": "Халяль", "diet:vegetarian": null, "cuisine": null, "contact:website": null, "contact:phone": null, "contact:email": null, "brand:wikidata": null, "brand:ru": null, "brand:en": null, "brand": null, "addr:country": null }, "geometry": { "type": "Point", "coordinates": [ 38.4454651, 55.8524087 ] } },
{ "type": "Feature", "properties": { "full_id": "n5328249323", "osm_id": "5328249323", "osm_type": "node", "amenity": "cafe", "email": null, "addr:postcode": null, "toilets": null, "building": null, "drink:coffee": null, "addr:street": null, "addr:housenumber": null, "shop": null, "phone": null, "delivery": null, "contact:twitter": null, "contact:ok": null, "contact:instagram": null, "contact:facebook": null, "was:amenity": null, "operator": null, "opening_hours": null, "name:ru": null, "internet_access:fee": null, "internet_access": null, "contact:vk": null, "contact:telegram": null, "check_date": null, "brand:wikipedia": null, "takeaway": null, "smoking": null, "old_name:en": null, "old_name": null, "name:en": "Panda", "name": "Панда", "diet:vegetarian": null, "cuisine": null, "contact:website": null, "contact:phone": null, "contact:email": null, "brand:wikidata": null, "brand:ru": null, "brand:en": null, "brand": null, "addr:country": null }, "geometry": { "type": "Point", "coordinates": [ 38.4441687, 55.8538991 ] } },
{ "type": "Feature", "properties": { "full_id": "n5408146321", "osm_id": "5408146321", "osm_type": "node", "amenity": "restaurant", "email": null, "addr:postcode": null, "toilets": null, "building": null, "drink:coffee": null, "addr:street": "Комсомольская улица", "addr:housenumber": "24", "shop": null, "phone": null, "delivery": null, "contact:twitter": null, "contact:ok": null, "contact:instagram": null, "contact:facebook": null, "was:amenity": null, "operator": null, "opening_hours": null, "name:ru": null, "internet_access:fee": null, "internet_access": null, "contact:vk": null, "contact:telegram": null, "check_date": null, "brand:wikipedia": null, "takeaway": null, "smoking": null, "old_name:en": null, "old_name": null, "name:en": null, "name": "Пекин", "diet:vegetarian": null, "cuisine": null, "contact:website": null, "contact:phone": null, "contact:email": null, "brand:wikidata": null, "brand:ru": null, "brand:en": null, "brand": null, "addr:country": null }, "geometry": { "type": "Point", "coordinates": [ 38.4481486, 55.8532454 ] } },
{ "type": "Feature", "properties": { "full_id": "n5585780234", "osm_id": "5585780234", "osm_type": "node", "amenity": "cafe", "email": null, "addr:postcode": null, "toilets": null, "building": null, "drink:coffee": null, "addr:street": null, "addr:housenumber": null, "shop": null, "phone": null, "delivery": null, "contact:twitter": null, "contact:ok": null, "contact:instagram": null, "contact:facebook": null, "was:amenity": null, "operator": null, "opening_hours": null, "name:ru": null, "internet_access:fee": null, "internet_access": null, "contact:vk": null, "contact:telegram": null, "check_date": null, "brand:wikipedia": null, "takeaway": null, "smoking": null, "old_name:en": null, "old_name": null, "name:en": null, "name": "Вкусняшка", "diet:vegetarian": null, "cuisine": null, "contact:website": null, "contact:phone": null, "contact:email": null, "brand:wikidata": null, "brand:ru": null, "brand:en": null, "brand": null, "addr:country": null }, "geometry": { "type": "Point", "coordinates": [ 38.442799, 55.8510007 ] } },
{ "type": "Feature", "properties": { "full_id": "n5585780235", "osm_id": "5585780235", "osm_type": "node", "amenity": "cafe", "email": null, "addr:postcode": null, "toilets": null, "building": null, "drink:coffee": null, "addr:street": null, "addr:housenumber": null, "shop": null, "phone": null, "delivery": null, "contact:twitter": null, "contact:ok": null, "contact:instagram": null, "contact:facebook": null, "was:amenity": null, "operator": null, "opening_hours": null, "name:ru": null, "internet_access:fee": null, "internet_access": null, "contact:vk": null, "contact:telegram": null, "check_date": null, "brand:wikipedia": null, "takeaway": null, "smoking": null, "old_name:en": null, "old_name": null, "name:en": null, "name": "Coffee Shop", "diet:vegetarian": null, "cuisine": null, "contact:website": null, "contact:phone": null, "contact:email": null, "brand:wikidata": null, "brand:ru": null, "brand:en": null, "brand": null, "addr:country": null }, "geometry": { "type": "Point", "coordinates": [ 38.4427695, 55.8510488 ] } },
{ "type": "Feature", "properties": { "full_id": "n5668096330", "osm_id": "5668096330", "osm_type": "node", "amenity": "cafe", "email": null, "addr:postcode": null, "toilets": null, "building": null, "drink:coffee": "yes", "addr:street": null, "addr:housenumber": null, "shop": null, "phone": null, "delivery": null, "contact:twitter": null, "contact:ok": null, "contact:instagram": "https://www.instagram.com/steamcoffeenoginsk", "contact:facebook": null, "was:amenity": null, "operator": null, "opening_hours": "Mo-Su 08:00-23:00", "name:ru": null, "internet_access:fee": null, "internet_access": null, "contact:vk": null, "contact:telegram": null, "check_date": null, "brand:wikipedia": null, "takeaway": "yes", "smoking": null, "old_name:en": null, "old_name": null, "name:en": null, "name": "Steam", "diet:vegetarian": null, "cuisine": "coffee_shop", "contact:website": null, "contact:phone": null, "contact:email": null, "brand:wikidata": null, "brand:ru": null, "brand:en": null, "brand": null, "addr:country": null }, "geometry": { "type": "Point", "coordinates": [ 38.4438819, 55.8537815 ] } },
{ "type": "Feature", "properties": { "full_id": "n5842298302", "osm_id": "5842298302", "osm_type": "node", "amenity": "ice_cream", "email": null, "addr:postcode": null, "toilets": null, "building": "kiosk", "drink:coffee": null, "addr:street": null, "addr:housenumber": null, "shop": null, "phone": null, "delivery": null, "contact:twitter": null, "contact:ok": null, "contact:instagram": null, "contact:facebook": null, "was:amenity": null, "operator": null, "opening_hours": null, "name:ru": null, "internet_access:fee": null, "internet_access": null, "contact:vk": null, "contact:telegram": null, "check_date": null, "brand:wikipedia": null, "takeaway": null, "smoking": null, "old_name:en": null, "old_name": null, "name:en": null, "name": "Ногинское мороженое", "diet:vegetarian": null, "cuisine": null, "contact:website": null, "contact:phone": null, "contact:email": null, "brand:wikidata": null, "brand:ru": null, "brand:en": null, "brand": null, "addr:country": null }, "geometry": { "type": "Point", "coordinates": [ 38.4430119, 55.8520348 ] } },
{ "type": "Feature", "properties": { "full_id": "n5846331293", "osm_id": "5846331293", "osm_type": "node", "amenity": "cafe", "email": null, "addr:postcode": null, "toilets": null, "building": null, "drink:coffee": null, "addr:street": null, "addr:housenumber": null, "shop": null, "phone": null, "delivery": null, "contact:twitter": null, "contact:ok": null, "contact:instagram": null, "contact:facebook": null, "was:amenity": null, "operator": null, "opening_hours": null, "name:ru": null, "internet_access:fee": null, "internet_access": null, "contact:vk": null, "contact:telegram": null, "check_date": null, "brand:wikipedia": null, "takeaway": null, "smoking": null, "old_name:en": null, "old_name": null, "name:en": null, "name": null, "diet:vegetarian": null, "cuisine": null, "contact:website": null, "contact:phone": null, "contact:email": null, "brand:wikidata": null, "brand:ru": null, "brand:en": null, "brand": null, "addr:country": null }, "geometry": { "type": "Point", "coordinates": [ 38.4296906, 55.8482045 ] } },
{ "type": "Feature", "properties": { "full_id": "n5846331294", "osm_id": "5846331294", "osm_type": "node", "amenity": "cafe", "email": null, "addr:postcode": null, "toilets": null, "building": null, "drink:coffee": null, "addr:street": null, "addr:housenumber": null, "shop": null, "phone": null, "delivery": null, "contact:twitter": null, "contact:ok": null, "contact:instagram": null, "contact:facebook": null, "was:amenity": null, "operator": null, "opening_hours": null, "name:ru": null, "internet_access:fee": null, "internet_access": null, "contact:vk": null, "contact:telegram": null, "check_date": null, "brand:wikipedia": null, "takeaway": null, "smoking": null, "old_name:en": null, "old_name": null, "name:en": null, "name": null, "diet:vegetarian": null, "cuisine": null, "contact:website": null, "contact:phone": null, "contact:email": null, "brand:wikidata": null, "brand:ru": null, "brand:en": null, "brand": null, "addr:country": null }, "geometry": { "type": "Point", "coordinates": [ 38.4293527, 55.848319 ] } },
{ "type": "Feature", "properties": { "full_id": "n5869448892", "osm_id": "5869448892", "osm_type": "node", "amenity": "fast_food", "email": null, "addr:postcode": null, "toilets": null, "building": null, "drink:coffee": null, "addr:street": null, "addr:housenumber": null, "shop": null, "phone": null, "delivery": "yes", "contact:twitter": null, "contact:ok": null, "contact:instagram": "https://www.instagram.com/dodopizza", "contact:facebook": "https://www.facebook.com/dodopizza/", "was:amenity": null, "operator": null, "opening_hours": null, "name:ru": "Додо Пицца", "internet_access:fee": null, "internet_access": "wlan", "contact:vk": "https://vk.com/dodo", "contact:telegram": null, "check_date": null, "brand:wikipedia": "ru:Додо Пицца", "takeaway": "yes", "smoking": null, "old_name:en": null, "old_name": null, "name:en": "Dodo Pizza", "name": "Додо Пицца", "diet:vegetarian": "yes", "cuisine": "pizza", "contact:website": "https://dodopizza.ru", "contact:phone": "+7 800 3020060", "contact:email": "feedback@dodopizza.com", "brand:wikidata": "Q61949318", "brand:ru": "Додо Пицца", "brand:en": "Dodo Pizza", "brand": "Додо Пицца", "addr:country": null }, "geometry": { "type": "Point", "coordinates": [ 38.4383599, 55.8570593 ] } },
{ "type": "Feature", "properties": { "full_id": "n5869601688", "osm_id": "5869601688", "osm_type": "node", "amenity": "cafe", "email": null, "addr:postcode": null, "toilets": null, "building": null, "drink:coffee": null, "addr:street": "Rabochaya str.", "addr:housenumber": "14А", "shop": null, "phone": null, "delivery": null, "contact:twitter": null, "contact:ok": null, "contact:instagram": null, "contact:facebook": null, "was:amenity": null, "operator": null, "opening_hours": null, "name:ru": null, "internet_access:fee": null, "internet_access": null, "contact:vk": null, "contact:telegram": null, "check_date": null, "brand:wikipedia": null, "takeaway": null, "smoking": null, "old_name:en": null, "old_name": null, "name:en": "Matreshka", "name": "Матрёшка", "diet:vegetarian": null, "cuisine": null, "contact:website": null, "contact:phone": null, "contact:email": null, "brand:wikidata": null, "brand:ru": null, "brand:en": null, "brand": null, "addr:country": null }, "geometry": { "type": "Point", "coordinates": [ 38.4406166, 55.8582039 ] } },
{ "type": "Feature", "properties": { "full_id": "n5869642585", "osm_id": "5869642585", "osm_type": "node", "amenity": "restaurant", "email": null, "addr:postcode": null, "toilets": null, "building": null, "drink:coffee": null, "addr:street": "Rogozhskaya str.", "addr:housenumber": "72", "shop": null, "phone": null, "delivery": null, "contact:twitter": null, "contact:ok": null, "contact:instagram": null, "contact:facebook": null, "was:amenity": null, "operator": null, "opening_hours": null, "name:ru": null, "internet_access:fee": null, "internet_access": null, "contact:vk": null, "contact:telegram": null, "check_date": null, "brand:wikipedia": null, "takeaway": null, "smoking": null, "old_name:en": null, "old_name": null, "name:en": "Mishki bar", "name": "Мишки бар", "diet:vegetarian": null, "cuisine": "sushi;russian;pizza;italian", "contact:website": null, "contact:phone": null, "contact:email": null, "brand:wikidata": null, "brand:ru": null, "brand:en": null, "brand": null, "addr:country": null }, "geometry": { "type": "Point", "coordinates": [ 38.4391813, 55.8566449 ] } },
{ "type": "Feature", "properties": { "full_id": "n5869717386", "osm_id": "5869717386", "osm_type": "node", "amenity": "restaurant", "email": null, "addr:postcode": null, "toilets": null, "building": null, "drink:coffee": null, "addr:street": null, "addr:housenumber": null, "shop": null, "phone": null, "delivery": null, "contact:twitter": null, "contact:ok": null, "contact:instagram": null, "contact:facebook": null, "was:amenity": null, "operator": null, "opening_hours": null, "name:ru": null, "internet_access:fee": null, "internet_access": null, "contact:vk": null, "contact:telegram": null, "check_date": null, "brand:wikipedia": null, "takeaway": null, "smoking": null, "old_name:en": null, "old_name": null, "name:en": null, "name": null, "diet:vegetarian": null, "cuisine": null, "contact:website": null, "contact:phone": null, "contact:email": null, "brand:wikidata": null, "brand:ru": null, "brand:en": null, "brand": null, "addr:country": null }, "geometry": { "type": "Point", "coordinates": [ 38.4383342, 55.8546775 ] } },
{ "type": "Feature", "properties": { "full_id": "n6460007745", "osm_id": "6460007745", "osm_type": "node", "amenity": "fast_food", "email": null, "addr:postcode": null, "toilets": null, "building": null, "drink:coffee": null, "addr:street": null, "addr:housenumber": null, "shop": null, "phone": null, "delivery": null, "contact:twitter": null, "contact:ok": null, "contact:instagram": null, "contact:facebook": null, "was:amenity": null, "operator": null, "opening_hours": null, "name:ru": null, "internet_access:fee": null, "internet_access": null, "contact:vk": null, "contact:telegram": null, "check_date": null, "brand:wikipedia": null, "takeaway": null, "smoking": null, "old_name:en": null, "old_name": null, "name:en": null, "name": "Шаурма 24", "diet:vegetarian": null, "cuisine": "turkish", "contact:website": null, "contact:phone": null, "contact:email": null, "brand:wikidata": null, "brand:ru": null, "brand:en": null, "brand": null, "addr:country": null }, "geometry": { "type": "Point", "coordinates": [ 38.4549724, 55.857479 ] } },
{ "type": "Feature", "properties": { "full_id": "n8491519495", "osm_id": "8491519495", "osm_type": "node", "amenity": "restaurant", "email": null, "addr:postcode": null, "toilets": "yes", "building": null, "drink:coffee": null, "addr:street": null, "addr:housenumber": null, "shop": null, "phone": null, "delivery": null, "contact:twitter": null, "contact:ok": null, "contact:instagram": null, "contact:facebook": null, "was:amenity": null, "operator": null, "opening_hours": "Mo-Su 11:00-22:00", "name:ru": null, "internet_access:fee": null, "internet_access": null, "contact:vk": null, "contact:telegram": null, "check_date": null, "brand:wikipedia": null, "takeaway": null, "smoking": null, "old_name:en": null, "old_name": null, "name:en": null, "name": "Ви-Во", "diet:vegetarian": null, "cuisine": "vietnamese", "contact:website": null, "contact:phone": null, "contact:email": null, "brand:wikidata": null, "brand:ru": null, "brand:en": null, "brand": null, "addr:country": null }, "geometry": { "type": "Point", "coordinates": [ 38.4395827, 55.8560675 ] } },
{ "type": "Feature", "properties": { "full_id": "n8947360888", "osm_id": "8947360888", "osm_type": "node", "amenity": "fast_food", "email": null, "addr:postcode": null, "toilets": null, "building": null, "drink:coffee": null, "addr:street": null, "addr:housenumber": null, "shop": null, "phone": null, "delivery": null, "contact:twitter": null, "contact:ok": null, "contact:instagram": null, "contact:facebook": null, "was:amenity": null, "operator": null, "opening_hours": "24/7", "name:ru": null, "internet_access:fee": null, "internet_access": null, "contact:vk": null, "contact:telegram": null, "check_date": null, "brand:wikipedia": "ru:Стардогс", "takeaway": "yes", "smoking": null, "old_name:en": null, "old_name": null, "name:en": "Stardog!s", "name": "Стардог!s", "diet:vegetarian": null, "cuisine": "sausage", "contact:website": null, "contact:phone": null, "contact:email": null, "brand:wikidata": "Q4439856", "brand:ru": "Стардог!s", "brand:en": "Stardog!s", "brand": "Стардог!s", "addr:country": null }, "geometry": { "type": "Point", "coordinates": [ 38.4819569, 55.8600644 ] } },
{ "type": "Feature", "properties": { "full_id": "n10253281712", "osm_id": "10253281712", "osm_type": "node", "amenity": "cafe", "email": null, "addr:postcode": null, "toilets": null, "building": null, "drink:coffee": null, "addr:street": null, "addr:housenumber": null, "shop": null, "phone": null, "delivery": null, "contact:twitter": null, "contact:ok": null, "contact:instagram": null, "contact:facebook": null, "was:amenity": null, "operator": null, "opening_hours": null, "name:ru": null, "internet_access:fee": null, "internet_access": null, "contact:vk": null, "contact:telegram": null, "check_date": null, "brand:wikipedia": null, "takeaway": null, "smoking": null, "old_name:en": null, "old_name": null, "name:en": null, "name": "Сансара", "diet:vegetarian": null, "cuisine": null, "contact:website": null, "contact:phone": null, "contact:email": null, "brand:wikidata": null, "brand:ru": null, "brand:en": null, "brand": null, "addr:country": null }, "geometry": { "type": "Point", "coordinates": [ 38.4482496, 55.8527125 ] } },
{ "type": "Feature", "properties": { "full_id": "n10697229900", "osm_id": "10697229900", "osm_type": "node", "amenity": "fast_food", "email": null, "addr:postcode": null, "toilets": null, "building": null, "drink:coffee": null, "addr:street": null, "addr:housenumber": null, "shop": null, "phone": null, "delivery": null, "contact:twitter": null, "contact:ok": null, "contact:instagram": null, "contact:facebook": null, "was:amenity": null, "operator": null, "opening_hours": "Mo-Su 08:00-22:00", "name:ru": null, "internet_access:fee": null, "internet_access": null, "contact:vk": null, "contact:telegram": null, "check_date": null, "brand:wikipedia": null, "takeaway": "yes", "smoking": null, "old_name:en": null, "old_name": null, "name:en": null, "name": "One Price Coffee", "diet:vegetarian": null, "cuisine": "coffee_shop", "contact:website": "https://onepricecoffee.com/", "contact:phone": "+7 495 0153150", "contact:email": "b2b@onepricecoffee.com", "brand:wikidata": "Q108215010", "brand:ru": null, "brand:en": null, "brand": "One Price Coffee", "addr:country": null }, "geometry": { "type": "Point", "coordinates": [ 38.439333, 55.855284 ] } },
{ "type": "Feature", "properties": { "full_id": "n11216207455", "osm_id": "11216207455", "osm_type": "node", "amenity": "fast_food", "email": null, "addr:postcode": null, "toilets": null, "building": "kiosk", "drink:coffee": null, "addr:street": null, "addr:housenumber": null, "shop": null, "phone": null, "delivery": null, "contact:twitter": null, "contact:ok": null, "contact:instagram": null, "contact:facebook": null, "was:amenity": null, "operator": null, "opening_hours": "Mo-Su 11:00-21:00", "name:ru": "Стардогs", "internet_access:fee": null, "internet_access": null, "contact:vk": null, "contact:telegram": null, "check_date": null, "brand:wikipedia": null, "takeaway": "yes", "smoking": null, "old_name:en": null, "old_name": null, "name:en": "Stardogs", "name": "Стардогs", "diet:vegetarian": null, "cuisine": "sausage", "contact:website": null, "contact:phone": null, "contact:email": null, "brand:wikidata": "Q4439856", "brand:ru": "Стардогs", "brand:en": "Stardogs", "brand": "Стардогs", "addr:country": null }, "geometry": { "type": "Point", "coordinates": [ 38.4291922, 55.8485129 ] } },
{ "type": "Feature", "properties": { "full_id": "n11216231063", "osm_id": "11216231063", "osm_type": "node", "amenity": "restaurant", "email": null, "addr:postcode": null, "toilets": null, "building": null, "drink:coffee": null, "addr:street": null, "addr:housenumber": null, "shop": null, "phone": null, "delivery": null, "contact:twitter": null, "contact:ok": null, "contact:instagram": null, "contact:facebook": null, "was:amenity": null, "operator": null, "opening_hours": null, "name:ru": null, "internet_access:fee": null, "internet_access": null, "contact:vk": null, "contact:telegram": null, "check_date": null, "brand:wikipedia": null, "takeaway": null, "smoking": null, "old_name:en": null, "old_name": null, "name:en": null, "name": "Stand Art", "diet:vegetarian": null, "cuisine": null, "contact:website": null, "contact:phone": null, "contact:email": null, "brand:wikidata": null, "brand:ru": null, "brand:en": null, "brand": null, "addr:country": null }, "geometry": { "type": "Point", "coordinates": [ 38.4329386, 55.8559026 ] } },
{ "type": "Feature", "properties": { "full_id": "n11237096229", "osm_id": "11237096229", "osm_type": "node", "amenity": "fast_food", "email": null, "addr:postcode": null, "toilets": null, "building": null, "drink:coffee": null, "addr:street": null, "addr:housenumber": null, "shop": null, "phone": null, "delivery": null, "contact:twitter": null, "contact:ok": null, "contact:instagram": null, "contact:facebook": null, "was:amenity": null, "operator": null, "opening_hours": null, "name:ru": null, "internet_access:fee": null, "internet_access": null, "contact:vk": null, "contact:telegram": null, "check_date": null, "brand:wikipedia": null, "takeaway": null, "smoking": null, "old_name:en": null, "old_name": null, "name:en": null, "name": null, "diet:vegetarian": null, "cuisine": "donut", "contact:website": null, "contact:phone": null, "contact:email": null, "brand:wikidata": null, "brand:ru": null, "brand:en": null, "brand": null, "addr:country": null }, "geometry": { "type": "Point", "coordinates": [ 38.4292255, 55.8484933 ] } },
{ "type": "Feature", "properties": { "full_id": "n11237122387", "osm_id": "11237122387", "osm_type": "node", "amenity": "cafe", "email": null, "addr:postcode": null, "toilets": null, "building": null, "drink:coffee": null, "addr:street": null, "addr:housenumber": null, "shop": null, "phone": null, "delivery": null, "contact:twitter": null, "contact:ok": null, "contact:instagram": null, "contact:facebook": null, "was:amenity": null, "operator": null, "opening_hours": null, "name:ru": null, "internet_access:fee": null, "internet_access": null, "contact:vk": null, "contact:telegram": null, "check_date": null, "brand:wikipedia": null, "takeaway": null, "smoking": null, "old_name:en": null, "old_name": null, "name:en": null, "name": "Мясо на углях", "diet:vegetarian": null, "cuisine": null, "contact:website": null, "contact:phone": null, "contact:email": null, "brand:wikidata": null, "brand:ru": null, "brand:en": null, "brand": null, "addr:country": null }, "geometry": { "type": "Point", "coordinates": [ 38.4306641, 55.8546043 ] } },
{ "type": "Feature", "properties": { "full_id": "n11237152449", "osm_id": "11237152449", "osm_type": "node", "amenity": "fast_food", "email": null, "addr:postcode": null, "toilets": null, "building": null, "drink:coffee": null, "addr:street": null, "addr:housenumber": null, "shop": null, "phone": null, "delivery": null, "contact:twitter": null, "contact:ok": null, "contact:instagram": null, "contact:facebook": null, "was:amenity": null, "operator": null, "opening_hours": null, "name:ru": null, "internet_access:fee": null, "internet_access": null, "contact:vk": null, "contact:telegram": null, "check_date": null, "brand:wikipedia": null, "takeaway": null, "smoking": null, "old_name:en": null, "old_name": null, "name:en": null, "name": "Чебуреки ГОСТ", "diet:vegetarian": null, "cuisine": null, "contact:website": null, "contact:phone": null, "contact:email": null, "brand:wikidata": null, "brand:ru": null, "brand:en": null, "brand": null, "addr:country": null }, "geometry": { "type": "Point", "coordinates": [ 38.4376281, 55.8568548 ] } },
{ "type": "Feature", "properties": { "full_id": "n11715925452", "osm_id": "11715925452", "osm_type": "node", "amenity": "cafe", "email": "sima200379@mail.ru", "addr:postcode": "142400", "toilets": null, "building": null, "drink:coffee": null, "addr:street": "улица Леснова", "addr:housenumber": "2", "shop": null, "phone": "+7 906 7450042", "delivery": null, "contact:twitter": null, "contact:ok": null, "contact:instagram": null, "contact:facebook": null, "was:amenity": null, "operator": null, "opening_hours": null, "name:ru": null, "internet_access:fee": null, "internet_access": null, "contact:vk": null, "contact:telegram": null, "check_date": null, "brand:wikipedia": null, "takeaway": null, "smoking": null, "old_name:en": null, "old_name": null, "name:en": null, "name": "Смайлик", "diet:vegetarian": null, "cuisine": null, "contact:website": null, "contact:phone": null, "contact:email": null, "brand:wikidata": null, "brand:ru": null, "brand:en": null, "brand": null, "addr:country": null }, "geometry": { "type": "Point", "coordinates": [ 38.4298865, 55.8490541 ] } },
{ "type": "Feature", "properties": { "full_id": "n11879023342", "osm_id": "11879023342", "osm_type": "node", "amenity": "cafe", "email": null, "addr:postcode": null, "toilets": null, "building": null, "drink:coffee": null, "addr:street": null, "addr:housenumber": null, "shop": null, "phone": null, "delivery": null, "contact:twitter": null, "contact:ok": null, "contact:instagram": null, "contact:facebook": null, "was:amenity": null, "operator": null, "opening_hours": null, "name:ru": null, "internet_access:fee": null, "internet_access": null, "contact:vk": null, "contact:telegram": null, "check_date": "2025-11-15", "brand:wikipedia": null, "takeaway": null, "smoking": null, "old_name:en": null, "old_name": null, "name:en": null, "name": "Ателье вкуса", "diet:vegetarian": null, "cuisine": "coffee_shop", "contact:website": null, "contact:phone": null, "contact:email": null, "brand:wikidata": null, "brand:ru": null, "brand:en": null, "brand": null, "addr:country": null }, "geometry": { "type": "Point", "coordinates": [ 38.4402291, 55.8551893 ] } },
{ "type": "Feature", "properties": { "full_id": "n11879023343", "osm_id": "11879023343", "osm_type": "node", "amenity": "cafe", "email": null, "addr:postcode": null, "toilets": null, "building": null, "drink:coffee": null, "addr:street": null, "addr:housenumber": null, "shop": null, "phone": null, "delivery": null, "contact:twitter": null, "contact:ok": null, "contact:instagram": null, "contact:facebook": null, "was:amenity": null, "operator": null, "opening_hours": null, "name:ru": null, "internet_access:fee": null, "internet_access": null, "contact:vk": null, "contact:telegram": null, "check_date": "2025-11-15", "brand:wikipedia": null, "takeaway": null, "smoking": null, "old_name:en": null, "old_name": null, "name:en": null, "name": "Sorry babushka", "diet:vegetarian": null, "cuisine": "coffee_shop", "contact:website": null, "contact:phone": null, "contact:email": null, "brand:wikidata": null, "brand:ru": null, "brand:en": null, "brand": null, "addr:country": null }, "geometry": { "type": "Point", "coordinates": [ 38.439686, 55.8550586 ] } },
{ "type": "Feature", "properties": { "full_id": "n11909685118", "osm_id": "11909685118", "osm_type": "node", "amenity": "fast_food", "email": null, "addr:postcode": null, "toilets": null, "building": null, "drink:coffee": null, "addr:street": null, "addr:housenumber": null, "shop": null, "phone": null, "delivery": null, "contact:twitter": null, "contact:ok": null, "contact:instagram": null, "contact:facebook": null, "was:amenity": null, "operator": null, "opening_hours": "Fr-Su 11:00-23:00; Mo-Th 11:00-22:45", "name:ru": null, "internet_access:fee": null, "internet_access": null, "contact:vk": null, "contact:telegram": null, "check_date": null, "brand:wikipedia": null, "takeaway": null, "smoking": null, "old_name:en": null, "old_name": null, "name:en": null, "name": "Моккано", "diet:vegetarian": null, "cuisine": "sushi", "contact:website": "https://noginsk.mokkano.ru", "contact:phone": "+7 499 4441547", "contact:email": "help@mokkano.ru", "brand:wikidata": null, "brand:ru": null, "brand:en": null, "brand": null, "addr:country": null }, "geometry": { "type": "Point", "coordinates": [ 38.4492409, 55.8543295 ] } },
{ "type": "Feature", "properties": { "full_id": "n12836339252", "osm_id": "12836339252", "osm_type": "node", "amenity": "fast_food", "email": null, "addr:postcode": null, "toilets": null, "building": null, "drink:coffee": null, "addr:street": null, "addr:housenumber": null, "shop": null, "phone": null, "delivery": null, "contact:twitter": null, "contact:ok": null, "contact:instagram": null, "contact:facebook": null, "was:amenity": null, "operator": null, "opening_hours": "Mo-Su 10:00-23:00", "name:ru": null, "internet_access:fee": null, "internet_access": null, "contact:vk": null, "contact:telegram": null, "check_date": null, "brand:wikipedia": null, "takeaway": null, "smoking": null, "old_name:en": null, "old_name": null, "name:en": null, "name": "Ролик", "diet:vegetarian": null, "cuisine": "sushi", "contact:website": "https://rolik-sushi.ru", "contact:phone": "+7 939 1135795", "contact:email": null, "brand:wikidata": null, "brand:ru": null, "brand:en": null, "brand": null, "addr:country": null }, "geometry": { "type": "Point", "coordinates": [ 38.4447805, 55.8570499 ] } },
{ "type": "Feature", "properties": { "full_id": "n12981962483", "osm_id": "12981962483", "osm_type": "node", "amenity": "cafe", "email": null, "addr:postcode": null, "toilets": null, "building": null, "drink:coffee": null, "addr:street": null, "addr:housenumber": null, "shop": null, "phone": null, "delivery": null, "contact:twitter": null, "contact:ok": null, "contact:instagram": null, "contact:facebook": null, "was:amenity": null, "operator": null, "opening_hours": null, "name:ru": null, "internet_access:fee": null, "internet_access": null, "contact:vk": null, "contact:telegram": null, "check_date": null, "brand:wikipedia": null, "takeaway": null, "smoking": null, "old_name:en": null, "old_name": null, "name:en": null, "name": "Зам-Зам", "diet:vegetarian": null, "cuisine": null, "contact:website": null, "contact:phone": null, "contact:email": null, "brand:wikidata": null, "brand:ru": null, "brand:en": null, "brand": null, "addr:country": null }, "geometry": { "type": "Point", "coordinates": [ 38.4666833, 55.8733426 ] } },
{ "type": "Feature", "properties": { "full_id": "n13138079993", "osm_id": "13138079993", "osm_type": "node", "amenity": "ice_cream", "email": null, "addr:postcode": null, "toilets": null, "building": "kiosk", "drink:coffee": null, "addr:street": null, "addr:housenumber": null, "shop": null, "phone": null, "delivery": null, "contact:twitter": null, "contact:ok": null, "contact:instagram": null, "contact:facebook": null, "was:amenity": null, "operator": null, "opening_hours": null, "name:ru": null, "internet_access:fee": null, "internet_access": null, "contact:vk": null, "contact:telegram": null, "check_date": null, "brand:wikipedia": null, "takeaway": null, "smoking": null, "old_name:en": null, "old_name": null, "name:en": null, "name": "Ногинское мороженое", "diet:vegetarian": null, "cuisine": null, "contact:website": null, "contact:phone": null, "contact:email": null, "brand:wikidata": null, "brand:ru": null, "brand:en": null, "brand": null, "addr:country": null }, "geometry": { "type": "Point", "coordinates": [ 38.4534805, 55.8616216 ] } },
{ "type": "Feature", "properties": { "full_id": null, "osm_id": null, "osm_type": null, "amenity": "restaraunt", "email": null, "addr:postcode": null, "toilets": null, "building": null, "drink:coffee": null, "addr:street": null, "addr:housenumber": null, "shop": null, "phone": null, "delivery": null, "contact:twitter": null, "contact:ok": null, "contact:instagram": null, "contact:facebook": null, "was:amenity": null, "operator": null, "opening_hours": null, "name:ru": null, "internet_access:fee": null, "internet_access": null, "contact:vk": null, "contact:telegram": null, "check_date": null, "brand:wikipedia": null, "takeaway": null, "smoking": null, "old_name:en": null, "old_name": null, "name:en": null, "name": null, "diet:vegetarian": null, "cuisine": null, "contact:website": null, "contact:phone": null, "contact:email": null, "brand:wikidata": null, "brand:ru": null, "brand:en": null, "brand": null, "addr:country": null }, "geometry": { "type": "Point", "coordinates": [ 38.440685542917585, 55.856881632395378 ] } },
{ "type": "Feature", "properties": { "full_id": null, "osm_id": null, "osm_type": null, "amenity": "restaraunt", "email": null, "addr:postcode": null, "toilets": null, "building": null, "drink:coffee": null, "addr:street": null, "addr:housenumber": null, "shop": null, "phone": null, "delivery": null, "contact:twitter": null, "contact:ok": null, "contact:instagram": null, "contact:facebook": null, "was:amenity": null, "operator": null, "opening_hours": null, "name:ru": null, "internet_access:fee": null, "internet_access": null, "contact:vk": null, "contact:telegram": null, "check_date": null, "brand:wikipedia": null, "takeaway": null, "smoking": null, "old_name:en": null, "old_name": null, "name:en": null, "name": null, "diet:vegetarian": null, "cuisine": null, "contact:website": null, "contact:phone": null, "contact:email": null, "brand:wikidata": null, "brand:ru": null, "brand:en": null, "brand": null, "addr:country": null }, "geometry": { "type": "Point", "coordinates": [ 38.43898161503693, 55.856683241352215 ] } }
]
}
