{
"type": "FeatureCollection",
"name": "poi",
"crs": { "type": "name", "properties": { "name": "urn:ogc:def:crs:OGC:1.3:CRS84" } },
"features": [
{ "type": "Feature", "properties": { "full_id": "n1422993683", "osm_id": "1422993683", "osm_type": "node", "amenity": "library", "website": null, "phone": null, "name": "Городская библиотека им. А.П. Чехова" }, "geometry": { "type": "Point", "coordinates": [ 36.8592017, 55.7313139 ] } },
{ "type": "Feature", "properties": { "full_id": "n2002495959", "osm_id": "2002495959", "osm_type": "node", "amenity": "community_centre", "website": "http://zvenddt.ru", "phone": "+7 498 6974109", "name": "Дом детского творчества" }, "geometry": { "type": "Point", "coordinates": [ 36.8601593, 55.731684 ] } }
]
}
