{
"type": "FeatureCollection",
"name": "game",
"crs": { "type": "name", "properties": { "name": "urn:ogc:def:crs:OGC:1.3:CRS84" } },
"features": [
{ "type": "Feature", "properties": { "full_id": null, "osm_id": null, "osm_type": null, "motor_vehicle": null, "horse": null, "foot": null, "bicycle": null, "barrier": null, "access": null }, "geometry": { "type": "Point", "coordinates": [ 39.49020677614363, 50.199536962419145 ] } },
{ "type": "Feature", "properties": { "full_id": null, "osm_id": null, "osm_type": null, "motor_vehicle": null, "horse": null, "foot": null, "bicycle": null, "barrier": null, "access": null }, "geometry": { "type": "Point", "coordinates": [ 39.49629269895123, 50.205158254609884 ] } }
]
}
