{
"type": "FeatureCollection",
"name": "food",
"crs": { "type": "name", "properties": { "name": "urn:ogc:def:crs:OGC:1.3:CRS84" } },
"features": [
{ "type": "Feature", "properties": { "full_id": "n1177866143", "osm_id": "1177866143", "osm_type": "node", "amenity": "cafe", "outdoor_seating": null, "addr:city": null, "check_date": null, "name:ru": null, "addr:postcode": null, "addr:street": null, "addr:housenumber": null, "website": null, "phone": null, "contact:website": null, "contact:phone": null, "contact:email": null, "opening_hours": null, "name:en": null, "internet_access": null, "contact:vk": null, "name": "кафе \"Рандеву\"", "cuisine": null }, "geometry": { "type": "Point", "coordinates": [ 38.4831891, 52.6260552 ] } },
{ "type": "Feature", "properties": { "full_id": "n1546825625", "osm_id": "1546825625", "osm_type": "node", "amenity": "restaurant", "outdoor_seating": null, "addr:city": null, "check_date": null, "name:ru": null, "addr:postcode": null, "addr:street": null, "addr:housenumber": null, "website": null, "phone": null, "contact:website": null, "contact:phone": null, "contact:email": null, "opening_hours": null, "name:en": null, "internet_access": null, "contact:vk": null, "name": "Елец", "cuisine": null }, "geometry": { "type": "Point", "coordinates": [ 38.4944411, 52.6262364 ] } },
{ "type": "Feature", "properties": { "full_id": "n2789786993", "osm_id": "2789786993", "osm_type": "node", "amenity": "cafe", "outdoor_seating": null, "addr:city": null, "check_date": null, "name:ru": null, "addr:postcode": null, "addr:street": null, "addr:housenumber": null, "website": null, "phone": null, "contact:website": null, "contact:phone": null, "contact:email": null, "opening_hours": null, "name:en": null, "internet_access": null, "contact:vk": null, "name": "Кафе Сказка", "cuisine": null }, "geometry": { "type": "Point", "coordinates": [ 38.517065, 52.6157169 ] } },
{ "type": "Feature", "properties": { "full_id": "n3750955828", "osm_id": "3750955828", "osm_type": "node", "amenity": "restaurant", "outdoor_seating": null, "addr:city": null, "check_date": null, "name:ru": null, "addr:postcode": null, "addr:street": null, "addr:housenumber": null, "website": null, "phone": null, "contact:website": null, "contact:phone": null, "contact:email": null, "opening_hours": "Mo-Su 12:00-00:00", "name:en": "Baku", "internet_access": "wlan", "contact:vk": "public198414347", "name": "Баку", "cuisine": "russian" }, "geometry": { "type": "Point", "coordinates": [ 38.5014063, 52.6246419 ] } },
{ "type": "Feature", "properties": { "full_id": "n3770910106", "osm_id": "3770910106", "osm_type": "node", "amenity": "cafe", "outdoor_seating": null, "addr:city": null, "check_date": null, "name:ru": null, "addr:postcode": null, "addr:street": null, "addr:housenumber": null, "website": null, "phone": null, "contact:website": "https://milanofood.ru", "contact:phone": "+7 800 3503355", "contact:email": "info@milanofood.ru", "opening_hours": "Mo-Su 10:00-22:00", "name:en": null, "internet_access": null, "contact:vk": null, "name": "Милано", "cuisine": "pizza" }, "geometry": { "type": "Point", "coordinates": [ 38.5012152, 52.6234828 ] } },
{ "type": "Feature", "properties": { "full_id": "n3770910110", "osm_id": "3770910110", "osm_type": "node", "amenity": "restaurant", "outdoor_seating": null, "addr:city": null, "check_date": null, "name:ru": null, "addr:postcode": null, "addr:street": null, "addr:housenumber": null, "website": null, "phone": null, "contact:website": null, "contact:phone": null, "contact:email": null, "opening_hours": null, "name:en": null, "internet_access": null, "contact:vk": null, "name": "Старый Город", "cuisine": null }, "geometry": { "type": "Point", "coordinates": [ 38.5011099, 52.6229673 ] } },
{ "type": "Feature", "properties": { "full_id": "n3770910112", "osm_id": "3770910112", "osm_type": "node", "amenity": "restaurant", "outdoor_seating": null, "addr:city": null, "check_date": null, "name:ru": null, "addr:postcode": null, "addr:street": null, "addr:housenumber": null, "website": "https://www.tomato-pizza.ru/menu/elets/pizza/", "phone": "+7(47467) 6-03-34;+7(47467) 6-08-13", "contact:website": null, "contact:phone": null, "contact:email": null, "opening_hours": null, "name:en": null, "internet_access": null, "contact:vk": null, "name": "Томато пицца", "cuisine": "pizza" }, "geometry": { "type": "Point", "coordinates": [ 38.5002876, 52.6225751 ] } },
{ "type": "Feature", "properties": { "full_id": "n4167027391", "osm_id": "4167027391", "osm_type": "node", "amenity": "cafe", "outdoor_seating": null, "addr:city": null, "check_date": null, "name:ru": null, "addr:postcode": null, "addr:street": "улица Мира", "addr:housenumber": "133", "website": null, "phone": "+79042836898", "contact:website": null, "contact:phone": null, "contact:email": null, "opening_hours": "Mo-Su 17:00-23:00", "name:en": null, "internet_access": null, "contact:vk": null, "name": "Арт-кафе Сцена", "cuisine": null }, "geometry": { "type": "Point", "coordinates": [ 38.501215, 52.6255384 ] } },
{ "type": "Feature", "properties": { "full_id": "n4298773083", "osm_id": "4298773083", "osm_type": "node", "amenity": "fast_food", "outdoor_seating": null, "addr:city": null, "check_date": null, "name:ru": null, "addr:postcode": null, "addr:street": "Советская улица", "addr:housenumber": "81", "website": null, "phone": null, "contact:website": "https://elc.avtosushi.ru/", "contact:phone": "+7 474 6757755", "contact:email": null, "opening_hours": "Mo-Su 10:00-23:00", "name:en": null, "internet_access": null, "contact:vk": null, "name": "Автосуши Автопицца", "cuisine": "pizza;sushi" }, "geometry": { "type": "Point", "coordinates": [ 38.4993573, 52.6230044 ] } },
{ "type": "Feature", "properties": { "full_id": "n4370574590", "osm_id": "4370574590", "osm_type": "node", "amenity": "cafe", "outdoor_seating": null, "addr:city": null, "check_date": null, "name:ru": "cafe Jem", "addr:postcode": "399770", "addr:street": "улица Свердлова", "addr:housenumber": "17", "website": "http://cafejem.ru/", "phone": "+79051785221", "contact:website": null, "contact:phone": null, "contact:email": null, "opening_hours": null, "name:en": null, "internet_access": "wlan", "contact:vk": null, "name": "cafe Jem", "cuisine": null }, "geometry": { "type": "Point", "coordinates": [ 38.4976979, 52.6219985 ] } },
{ "type": "Feature", "properties": { "full_id": "n4972342723", "osm_id": "4972342723", "osm_type": "node", "amenity": "fast_food", "outdoor_seating": null, "addr:city": null, "check_date": "2024-01-13", "name:ru": "Русский аппетит", "addr:postcode": null, "addr:street": null, "addr:housenumber": null, "website": null, "phone": null, "contact:website": null, "contact:phone": null, "contact:email": null, "opening_hours": null, "name:en": null, "internet_access": null, "contact:vk": null, "name": "Русский аппетит", "cuisine": null }, "geometry": { "type": "Point", "coordinates": [ 38.5011036, 52.6084478 ] } },
{ "type": "Feature", "properties": { "full_id": "n5768769953", "osm_id": "5768769953", "osm_type": "node", "amenity": "cafe", "outdoor_seating": null, "addr:city": null, "check_date": null, "name:ru": null, "addr:postcode": null, "addr:street": null, "addr:housenumber": null, "website": null, "phone": null, "contact:website": null, "contact:phone": null, "contact:email": null, "opening_hours": null, "name:en": null, "internet_access": null, "contact:vk": null, "name": "Олень", "cuisine": null }, "geometry": { "type": "Point", "coordinates": [ 38.5013908, 52.6217929 ] } },
{ "type": "Feature", "properties": { "full_id": "n7820182385", "osm_id": "7820182385", "osm_type": "node", "amenity": "cafe", "outdoor_seating": null, "addr:city": null, "check_date": null, "name:ru": null, "addr:postcode": null, "addr:street": "улица Мира", "addr:housenumber": "144", "website": null, "phone": null, "contact:website": null, "contact:phone": null, "contact:email": null, "opening_hours": null, "name:en": "Lenin", "internet_access": null, "contact:vk": null, "name": "Ленин", "cuisine": null }, "geometry": { "type": "Point", "coordinates": [ 38.5014698, 52.6250162 ] } },
{ "type": "Feature", "properties": { "full_id": "n9436270031", "osm_id": "9436270031", "osm_type": "node", "amenity": "cafe", "outdoor_seating": null, "addr:city": null, "check_date": null, "name:ru": null, "addr:postcode": null, "addr:street": "улица Коммунаров", "addr:housenumber": "10А", "website": null, "phone": null, "contact:website": null, "contact:phone": null, "contact:email": null, "opening_hours": "Mo-Fr 08:00-17:00", "name:en": null, "internet_access": null, "contact:vk": null, "name": "Кафе-студия Ельчик", "cuisine": null }, "geometry": { "type": "Point", "coordinates": [ 38.4978913, 52.6253707 ] } },
{ "type": "Feature", "properties": { "full_id": "n9859962207", "osm_id": "9859962207", "osm_type": "node", "amenity": "cafe", "outdoor_seating": null, "addr:city": null, "check_date": "2022-07-01", "name:ru": null, "addr:postcode": null, "addr:street": null, "addr:housenumber": null, "website": null, "phone": null, "contact:website": null, "contact:phone": null, "contact:email": null, "opening_hours": null, "name:en": null, "internet_access": null, "contact:vk": null, "name": null, "cuisine": null }, "geometry": { "type": "Point", "coordinates": [ 38.4977876, 52.6171658 ] } },
{ "type": "Feature", "properties": { "full_id": "n11513901823", "osm_id": "11513901823", "osm_type": "node", "amenity": "restaurant", "outdoor_seating": null, "addr:city": null, "check_date": "2024-01-13", "name:ru": null, "addr:postcode": null, "addr:street": null, "addr:housenumber": null, "website": null, "phone": null, "contact:website": null, "contact:phone": null, "contact:email": null, "opening_hours": null, "name:en": null, "internet_access": null, "contact:vk": null, "name": "Суши даром", "cuisine": "japanese" }, "geometry": { "type": "Point", "coordinates": [ 38.5011949, 52.6080739 ] } },
{ "type": "Feature", "properties": { "full_id": "n12061577440", "osm_id": "12061577440", "osm_type": "node", "amenity": "fast_food", "outdoor_seating": null, "addr:city": null, "check_date": "2024-07-18", "name:ru": null, "addr:postcode": null, "addr:street": null, "addr:housenumber": null, "website": null, "phone": null, "contact:website": null, "contact:phone": null, "contact:email": null, "opening_hours": null, "name:en": null, "internet_access": null, "contact:vk": null, "name": "Шаурма №1", "cuisine": "kebab" }, "geometry": { "type": "Point", "coordinates": [ 38.5179664, 52.6150307 ] } },
{ "type": "Feature", "properties": { "full_id": "n12208535501", "osm_id": "12208535501", "osm_type": "node", "amenity": "cafe", "outdoor_seating": null, "addr:city": null, "check_date": null, "name:ru": null, "addr:postcode": null, "addr:street": null, "addr:housenumber": null, "website": null, "phone": null, "contact:website": null, "contact:phone": null, "contact:email": null, "opening_hours": null, "name:en": null, "internet_access": null, "contact:vk": null, "name": "Барбарис", "cuisine": null }, "geometry": { "type": "Point", "coordinates": [ 38.4979148, 52.6265317 ] } },
{ "type": "Feature", "properties": { "full_id": "n12208604702", "osm_id": "12208604702", "osm_type": "node", "amenity": "cafe", "outdoor_seating": null, "addr:city": null, "check_date": null, "name:ru": null, "addr:postcode": null, "addr:street": null, "addr:housenumber": null, "website": null, "phone": null, "contact:website": null, "contact:phone": null, "contact:email": null, "opening_hours": null, "name:en": null, "internet_access": null, "contact:vk": null, "name": "Лира", "cuisine": null }, "geometry": { "type": "Point", "coordinates": [ 38.4983997, 52.6254111 ] } },
{ "type": "Feature", "properties": { "full_id": "n12208717301", "osm_id": "12208717301", "osm_type": "node", "amenity": "cafe", "outdoor_seating": null, "addr:city": null, "check_date": null, "name:ru": null, "addr:postcode": null, "addr:street": null, "addr:housenumber": null, "website": null, "phone": null, "contact:website": null, "contact:phone": null, "contact:email": null, "opening_hours": null, "name:en": null, "internet_access": null, "contact:vk": null, "name": "Можжевеловые веточки", "cuisine": null }, "geometry": { "type": "Point", "coordinates": [ 38.5004866, 52.6205319 ] } },
{ "type": "Feature", "properties": { "full_id": "n12735979276", "osm_id": "12735979276", "osm_type": "node", "amenity": "restaurant", "outdoor_seating": null, "addr:city": null, "check_date": null, "name:ru": null, "addr:postcode": null, "addr:street": null, "addr:housenumber": null, "website": null, "phone": null, "contact:website": null, "contact:phone": null, "contact:email": null, "opening_hours": null, "name:en": "Yesenin", "internet_access": null, "contact:vk": "public198414347", "name": "Есенин", "cuisine": null }, "geometry": { "type": "Point", "coordinates": [ 38.5020519, 52.6247542 ] } },
{ "type": "Feature", "properties": { "full_id": "n13163016101", "osm_id": "13163016101", "osm_type": "node", "amenity": "cafe", "outdoor_seating": null, "addr:city": null, "check_date": null, "name:ru": null, "addr:postcode": null, "addr:street": null, "addr:housenumber": null, "website": null, "phone": null, "contact:website": null, "contact:phone": null, "contact:email": null, "opening_hours": null, "name:en": null, "internet_access": null, "contact:vk": null, "name": "Старик Хинкалыч", "cuisine": null }, "geometry": { "type": "Point", "coordinates": [ 38.5008145, 52.6215978 ] } }
]
}
