{
"type": "FeatureCollection",
"name": "food",
"crs": { "type": "name", "properties": { "name": "urn:ogc:def:crs:OGC:1.3:CRS84" } },
"features": [
{ "type": "Feature", "properties": { "full_id": "n6723415678", "osm_id": "6723415678", "osm_type": "node", "amenity": "cafe", "name": "Марио" }, "geometry": { "type": "Point", "coordinates": [ 40.0302405, 53.928276 ] } },
{ "type": "Feature", "properties": { "full_id": null, "osm_id": null, "osm_type": null, "amenity": null, "name": null }, "geometry": { "type": "Point", "coordinates": [ 40.030006768856424, 53.926004812754108 ] } },
{ "type": "Feature", "properties": { "full_id": null, "osm_id": null, "osm_type": null, "amenity": null, "name": null }, "geometry": { "type": "Point", "coordinates": [ 40.042571891866622, 53.929297847725593 ] } },
{ "type": "Feature", "properties": { "full_id": null, "osm_id": null, "osm_type": null, "amenity": null, "name": null }, "geometry": { "type": "Point", "coordinates": [ 40.035477942237797, 53.932141818438389 ] } },
{ "type": "Feature", "properties": { "full_id": null, "osm_id": null, "osm_type": null, "amenity": null, "name": null }, "geometry": { "type": "Point", "coordinates": [ 40.037585116063852, 53.935312778201201 ] } },
{ "type": "Feature", "properties": { "full_id": null, "osm_id": null, "osm_type": null, "amenity": null, "name": null }, "geometry": { "type": "Point", "coordinates": [ 40.03898319904426, 53.931808893582513 ] } },
{ "type": "Feature", "properties": { "full_id": null, "osm_id": null, "osm_type": null, "amenity": null, "name": null }, "geometry": { "type": "Point", "coordinates": [ 40.030710211512258, 53.929160820827065 ] } }
]
}
