{
"type": "FeatureCollection",
"name": "highway",
"crs": { "type": "name", "properties": { "name": "urn:ogc:def:crs:OGC:1.3:CRS84" } },
"features": [
{ "type": "Feature", "properties": { "full_id": "n1356043421", "osm_id": "1356043421", "osm_type": "node", "highway": "bus_stop", "ford": null, "barrier": null, "railway": null, "noexit": null, "crossing": null, "covered": null, "alt_name": "Школа", "tactile_paving": "no", "shelter": "yes", "pole": "yes", "lit": "no", "kerb": "raised", "departures_board": "no", "bin": "no", "bench": "yes", "public_transport": "platform", "name": "Стадион", "bus": null, "traffic_calming": null }, "geometry": { "type": "Point", "coordinates": [ 41.6056312, 51.0920515 ] } },
{ "type": "Feature", "properties": { "full_id": "n1356134572", "osm_id": "1356134572", "osm_type": "node", "highway": "bus_stop", "ford": null, "barrier": null, "railway": null, "noexit": null, "crossing": null, "covered": null, "alt_name": null, "tactile_paving": "no", "shelter": "yes", "pole": "yes", "lit": "yes", "kerb": "raised", "departures_board": "no", "bin": "no", "bench": "yes", "public_transport": "platform", "name": "Улица Кирова", "bus": null, "traffic_calming": null }, "geometry": { "type": "Point", "coordinates": [ 41.6244494, 51.0987787 ] } },
{ "type": "Feature", "properties": { "full_id": "n12496000281", "osm_id": "12496000281", "osm_type": "node", "highway": "bus_stop", "ford": null, "barrier": null, "railway": null, "noexit": null, "crossing": null, "covered": null, "alt_name": null, "tactile_paving": "no", "shelter": "yes", "pole": "yes", "lit": "no", "kerb": "raised", "departures_board": "no", "bin": "no", "bench": "yes", "public_transport": "platform", "name": "Автостанция", "bus": null, "traffic_calming": null }, "geometry": { "type": "Point", "coordinates": [ 41.6126758, 51.0942478 ] } },
{ "type": "Feature", "properties": { "full_id": "n12496000283", "osm_id": "12496000283", "osm_type": "node", "highway": "bus_stop", "ford": null, "barrier": null, "railway": null, "noexit": null, "crossing": null, "covered": null, "alt_name": null, "tactile_paving": "no", "shelter": "yes", "pole": "yes", "lit": "no", "kerb": "raised", "departures_board": "no", "bin": "no", "bench": "yes", "public_transport": "platform", "name": "Автостанция", "bus": null, "traffic_calming": null }, "geometry": { "type": "Point", "coordinates": [ 41.6119087, 51.0942225 ] } },
{ "type": "Feature", "properties": { "full_id": "n12496000294", "osm_id": "12496000294", "osm_type": "node", "highway": "bus_stop", "ford": null, "barrier": null, "railway": null, "noexit": null, "crossing": null, "covered": null, "alt_name": null, "tactile_paving": null, "shelter": null, "pole": "no", "lit": "no", "kerb": null, "departures_board": "asphalt", "bin": "no", "bench": null, "public_transport": "platform", "name": "Автостанция Новохопёрск", "bus": null, "traffic_calming": null }, "geometry": { "type": "Point", "coordinates": [ 41.6123405, 51.0939101 ] } },
{ "type": "Feature", "properties": { "full_id": "n12512653892", "osm_id": "12512653892", "osm_type": "node", "highway": "bus_stop", "ford": null, "barrier": null, "railway": null, "noexit": null, "crossing": null, "covered": null, "alt_name": null, "tactile_paving": "no", "shelter": "yes", "pole": "yes", "lit": "yes", "kerb": "raised", "departures_board": "no", "bin": "no", "bench": "yes", "public_transport": "platform", "name": "Детский сад «Солнышко»", "bus": null, "traffic_calming": null }, "geometry": { "type": "Point", "coordinates": [ 41.6197246, 51.0968339 ] } },
{ "type": "Feature", "properties": { "full_id": "n12512653893", "osm_id": "12512653893", "osm_type": "node", "highway": "bus_stop", "ford": null, "barrier": null, "railway": null, "noexit": null, "crossing": null, "covered": null, "alt_name": null, "tactile_paving": "no", "shelter": "yes", "pole": "yes", "lit": "yes", "kerb": "raised", "departures_board": "no", "bin": "no", "bench": "yes", "public_transport": "platform", "name": "Детский сад «Солнышко»", "bus": null, "traffic_calming": null }, "geometry": { "type": "Point", "coordinates": [ 41.6195516, 51.0969304 ] } },
{ "type": "Feature", "properties": { "full_id": "n12515873847", "osm_id": "12515873847", "osm_type": "node", "highway": "bus_stop", "ford": null, "barrier": null, "railway": null, "noexit": null, "crossing": null, "covered": null, "alt_name": null, "tactile_paving": "no", "shelter": "no", "pole": "no", "lit": "no", "kerb": null, "departures_board": "no", "bin": "no", "bench": "no", "public_transport": "platform", "name": "Плаутино", "bus": null, "traffic_calming": null }, "geometry": { "type": "Point", "coordinates": [ 41.6283292, 51.0598654 ] } },
{ "type": "Feature", "properties": { "full_id": "n12515873848", "osm_id": "12515873848", "osm_type": "node", "highway": "bus_stop", "ford": null, "barrier": null, "railway": null, "noexit": null, "crossing": null, "covered": null, "alt_name": null, "tactile_paving": "no", "shelter": "no", "pole": "no", "lit": "no", "kerb": null, "departures_board": "no", "bin": "no", "bench": "no", "public_transport": "platform", "name": "Плаутино", "bus": null, "traffic_calming": null }, "geometry": { "type": "Point", "coordinates": [ 41.6285732, 51.0598671 ] } },
{ "type": "Feature", "properties": { "full_id": "n12518884117", "osm_id": "12518884117", "osm_type": "node", "highway": "bus_stop", "ford": null, "barrier": null, "railway": null, "noexit": null, "crossing": null, "covered": null, "alt_name": null, "tactile_paving": "no", "shelter": "no", "pole": "yes", "lit": "yes", "kerb": null, "departures_board": "no", "bin": "no", "bench": "yes", "public_transport": "platform", "name": "Улица Кирова", "bus": null, "traffic_calming": null }, "geometry": { "type": "Point", "coordinates": [ 41.6252151, 51.0988565 ] } },
{ "type": "Feature", "properties": { "full_id": "n12518884119", "osm_id": "12518884119", "osm_type": "node", "highway": "bus_stop", "ford": null, "barrier": null, "railway": null, "noexit": null, "crossing": null, "covered": null, "alt_name": null, "tactile_paving": "no", "shelter": null, "pole": "yes", "lit": "yes", "kerb": "flush", "departures_board": "no", "bin": "no", "bench": null, "public_transport": "platform", "name": "Универмаг", "bus": null, "traffic_calming": null }, "geometry": { "type": "Point", "coordinates": [ 41.6294409, 51.1003918 ] } },
{ "type": "Feature", "properties": { "full_id": "n12518884121", "osm_id": "12518884121", "osm_type": "node", "highway": "bus_stop", "ford": null, "barrier": null, "railway": null, "noexit": null, "crossing": null, "covered": null, "alt_name": null, "tactile_paving": "no", "shelter": "yes", "pole": "yes", "lit": "yes", "kerb": "flush", "departures_board": "no", "bin": "no", "bench": "yes", "public_transport": "platform", "name": "Универмаг", "bus": null, "traffic_calming": null }, "geometry": { "type": "Point", "coordinates": [ 41.629677, 51.1007101 ] } },
{ "type": "Feature", "properties": { "full_id": "n12518884123", "osm_id": "12518884123", "osm_type": "node", "highway": "bus_stop", "ford": null, "barrier": null, "railway": null, "noexit": null, "crossing": null, "covered": null, "alt_name": null, "tactile_paving": "no", "shelter": "yes", "pole": "yes", "lit": "yes", "kerb": "raised", "departures_board": "no", "bin": "yes", "bench": "yes", "public_transport": "platform", "name": "Город", "bus": null, "traffic_calming": null }, "geometry": { "type": "Point", "coordinates": [ 41.6330177, 51.0985668 ] } }
]
}
