{
"type": "FeatureCollection",
"name": "poi",
"crs": { "type": "name", "properties": { "name": "urn:ogc:def:crs:OGC:1.3:CRS84" } },
"features": [
{ "type": "Feature", "properties": { "full_id": "n478489585", "osm_id": "478489585", "osm_type": "node", "amenity": "cafe", "name:ru": null, "addr:street": null, "addr:housenumber": null, "self_service": null, "opening_hours": null, "cuisine": null, "name": "Дружба" }, "geometry": { "type": "Point", "coordinates": [ 36.485151, 55.2084061 ] } },
{ "type": "Feature", "properties": { "full_id": "n1162968614", "osm_id": "1162968614", "osm_type": "node", "amenity": "cafe", "name:ru": null, "addr:street": null, "addr:housenumber": null, "self_service": null, "opening_hours": null, "cuisine": "sushi", "name": "Микадо" }, "geometry": { "type": "Point", "coordinates": [ 36.4835993, 55.206736 ] } },
{ "type": "Feature", "properties": { "full_id": "n2196513052", "osm_id": "2196513052", "osm_type": "node", "amenity": "cafe", "name:ru": null, "addr:street": null, "addr:housenumber": null, "self_service": null, "opening_hours": null, "cuisine": null, "name": "Боровск" }, "geometry": { "type": "Point", "coordinates": [ 36.4837526, 55.206266 ] } },
{ "type": "Feature", "properties": { "full_id": "n2958386605", "osm_id": "2958386605", "osm_type": "node", "amenity": "cafe", "name:ru": null, "addr:street": null, "addr:housenumber": null, "self_service": null, "opening_hours": "Mo-Su 11:00-23:00", "cuisine": "sushi", "name": "Кимико" }, "geometry": { "type": "Point", "coordinates": [ 36.4837725, 55.2061991 ] } },
{ "type": "Feature", "properties": { "full_id": "n3587638441", "osm_id": "3587638441", "osm_type": "node", "amenity": "cafe", "name:ru": null, "addr:street": null, "addr:housenumber": null, "self_service": null, "opening_hours": null, "cuisine": null, "name": "Портал" }, "geometry": { "type": "Point", "coordinates": [ 36.4830972, 55.206748 ] } },
{ "type": "Feature", "properties": { "full_id": "n4892284308", "osm_id": "4892284308", "osm_type": "node", "amenity": "cafe", "name:ru": null, "addr:street": null, "addr:housenumber": null, "self_service": null, "opening_hours": null, "cuisine": null, "name": null }, "geometry": { "type": "Point", "coordinates": [ 36.4956738, 55.2113347 ] } },
{ "type": "Feature", "properties": { "full_id": "n5319969342", "osm_id": "5319969342", "osm_type": "node", "amenity": "restaurant", "name:ru": null, "addr:street": null, "addr:housenumber": null, "self_service": "yes", "opening_hours": null, "cuisine": null, "name": "Монастырская чайная" }, "geometry": { "type": "Point", "coordinates": [ 36.5061954, 55.2081929 ] } },
{ "type": "Feature", "properties": { "full_id": "n11895697770", "osm_id": "11895697770", "osm_type": "node", "amenity": "cafe", "name:ru": "Лео Пицца", "addr:street": "улица Петра Шувалова", "addr:housenumber": "10Б", "self_service": null, "opening_hours": "Mo-Su 10:00-22:00", "cuisine": "pizza", "name": "Лео-пицца" }, "geometry": { "type": "Point", "coordinates": [ 36.4971555, 55.19864 ] } }
]
}
