{
"type": "FeatureCollection",
"name": "food",
"crs": { "type": "name", "properties": { "name": "urn:ogc:def:crs:OGC:1.3:CRS84" } },
"features": [
{ "type": "Feature", "properties": { "full_id": "n3647450741", "osm_id": "3647450741", "osm_type": "node", "amenity": "cafe", "cuisine": null, "contact:website": null, "contact:phone": null, "contact:email": null, "phone": "+7 915 6887373;+7 48754 48392", "opening_hours": "Mo-Su 11:00-23:00", "name": "Пиццерия" }, "geometry": { "type": "Point", "coordinates": [ 37.6994536, 53.9379432 ] } },
{ "type": "Feature", "properties": { "full_id": "n13169065297", "osm_id": "13169065297", "osm_type": "node", "amenity": "fast_food", "cuisine": "pizza", "contact:website": "https://нпицца.рф", "contact:phone": "+7 905 1667171", "contact:email": "uk@npizza.ru", "phone": null, "opening_hours": "Mo-Su 10:00-22:00", "name": "Нпицца" }, "geometry": { "type": "Point", "coordinates": [ 37.7021438, 53.9444255 ] } },
{ "type": "Feature", "properties": { "full_id": null, "osm_id": null, "osm_type": null, "amenity": null, "cuisine": null, "contact:website": null, "contact:phone": null, "contact:email": null, "phone": null, "opening_hours": null, "name": null }, "geometry": { "type": "Point", "coordinates": [ 37.701029503546309, 53.943780278497748 ] } },
{ "type": "Feature", "properties": { "full_id": null, "osm_id": null, "osm_type": null, "amenity": null, "cuisine": null, "contact:website": null, "contact:phone": null, "contact:email": null, "phone": null, "opening_hours": null, "name": null }, "geometry": { "type": "Point", "coordinates": [ 37.699312515128938, 53.937003552067857 ] } },
{ "type": "Feature", "properties": { "full_id": null, "osm_id": null, "osm_type": null, "amenity": null, "cuisine": null, "contact:website": null, "contact:phone": null, "contact:email": null, "phone": null, "opening_hours": null, "name": null }, "geometry": { "type": "Point", "coordinates": [ 37.693317156204813, 53.937616483138157 ] } }
]
}
