{
"type": "FeatureCollection",
"name": "poi",
"crs": { "type": "name", "properties": { "name": "urn:ogc:def:crs:OGC:1.3:CRS84" } },
"features": [
{ "type": "Feature", "properties": { "full_id": "n13394567975", "osm_id": "13394567975", "osm_type": "node", "amenity": "library", "operator": "МУ \"Боровская централизованная библиотечная система\"", "name": "Боровская центральная детская библиотека", "internet_access": "yes", "addr:street": "улица Ленина", "addr:postcode": "249010", "addr:housenumber": "36", "addr:city": "Боровск" }, "geometry": { "type": "Point", "coordinates": [ 36.4875726, 55.2029632 ] } },
{ "type": "Feature", "properties": { "full_id": "w210250117", "osm_id": "210250117", "osm_type": "way", "amenity": "library", "operator": "МУ \"Боровская централизованная библиотечная система\"", "name": "Боровская центральная библиотека", "internet_access": "yes", "addr:street": "площадь Ленина", "addr:postcode": "249010", "addr:housenumber": "2", "addr:city": "Боровск" }, "geometry": { "type": "Point", "coordinates": [ 36.484266862472005, 55.208314844044224 ] } },
{ "type": "Feature", "properties": { "full_id": "w110491682", "osm_id": "110491682", "osm_type": "way", "amenity": "library", "operator": null, "name": "Центральная районная детская библиотека", "internet_access": null, "addr:street": "улица Ленина", "addr:postcode": "249010", "addr:housenumber": "36", "addr:city": "Боровск" }, "geometry": { "type": "Point", "coordinates": [ 36.4875733, 55.20297445 ] } },
{ "type": "Feature", "properties": { "full_id": "w107557799", "osm_id": "107557799", "osm_type": "way", "amenity": "community_centre", "operator": null, "name": "Дом Культуры", "internet_access": null, "addr:street": "площадь Ленина", "addr:postcode": "249010", "addr:housenumber": "17", "addr:city": "Боровск" }, "geometry": { "type": "Point", "coordinates": [ 36.487772131505025, 55.204407947755897 ] } },
{ "type": "Feature", "properties": { "full_id": "w797089969", "osm_id": "797089969", "osm_type": "way", "amenity": "community_centre", "operator": null, "name": "Дом Культуры", "internet_access": null, "addr:street": "Центральная улица", "addr:postcode": null, "addr:housenumber": "1", "addr:city": null }, "geometry": { "type": "Point", "coordinates": [ 36.502800714523531, 55.192139515332926 ] } },
{ "type": "Feature", "properties": { "full_id": null, "osm_id": null, "osm_type": null, "amenity": null, "operator": null, "name": null, "internet_access": null, "addr:street": null, "addr:postcode": null, "addr:housenumber": null, "addr:city": null }, "geometry": { "type": "Point", "coordinates": [ 36.485269026376663, 55.207407713263144 ] } },
{ "type": "Feature", "properties": { "full_id": null, "osm_id": null, "osm_type": null, "amenity": null, "operator": null, "name": null, "internet_access": null, "addr:street": null, "addr:postcode": null, "addr:housenumber": null, "addr:city": null }, "geometry": { "type": "Point", "coordinates": [ 36.487554431471047, 55.204590235639131 ] } },
{ "type": "Feature", "properties": { "full_id": null, "osm_id": null, "osm_type": null, "amenity": null, "operator": null, "name": null, "internet_access": null, "addr:street": null, "addr:postcode": null, "addr:housenumber": null, "addr:city": null }, "geometry": { "type": "Point", "coordinates": [ 36.478769714128241, 55.194946941883032 ] } }
]
}
